,station,lat,lon,time,weather,weatherfont,weathersymbol,weathercolour,temperature,pressure,sl_pressure,dewpoint,windspeed,winddir,visibility,visual_range,cloudcover,pressure3h_change,rain,wwletter
133,EEEI,59.2603,24.2085,2024-05-28 23:50:00,,,,,12.0,1017.0,1212.4949491323407,11.0,1.0,100.0,10000.0,99999,,-0.20000000000004547,0.0,11160010011012020110301704212451007600007000080000
758,EGJB,49.435,-2.60197,2024-05-28 23:50:00,,,,,13.0,1013.0,2053.1895813801443,13.0,15.0,250.0,100.0,99999,,-1.7000000000000455,0.0,11100025151013020130301304053151012600007000080000
766,EGNM,53.8659,-1.66057,2024-05-28 23:50:00,,,,,11.0,1005.0,3785.4739210767916,10.0,11.0,260.0,10000.0,99999,,0.10000000000002274,0.0,11160026111011020100300504785451001600007000080000
767,EGNS,54.0833,-4.62389,2024-05-28 23:50:00,,,,,13.0,1005.0,1146.3085133241839,11.0,14.0,270.0,10000.0,99999,,-0.2999999999999545,0.0,11160027141013020110300504146351007600007000080000
811,LGAL,40.8559,25.9563,2024-05-28 23:50:00,,,,,15.0,1012.0,1067.9729488832822,10.0,0.0,0.0,10000.0,99999,,-1.2999999999999545,0.0,11160000001015020100301204067951017600007000080000
812,LGIR,35.3397,25.1803,2024-05-28 23:50:00,,,,,15.0,1014.0,1293.9525413589647,6.0,10.0,170.0,10000.0,99999,,-0.7000000000000455,0.0,1116001710101502060301404293951002600007000080000
814,LGLM,39.9171,25.2363,2024-05-28 23:50:00,,,,,16.0,1013.0,1043.4815564137448,13.0,0.0,0.0,10000.0,99999,,-0.2999999999999545,0.0,11160000001016020130301304043451007600007000080000
816,LGSM,37.69,26.9117,2024-05-28 23:50:00,,,,,20.0,1012.0,1045.079485015997,11.0,5.0,10.0,10000.0,99999,,-0.7999999999999545,0.0,11160001051020020110301204045051002600007000080000
912,ETNG,50.9608,6.04242,2024-05-28 23:50:00,61.0,36.0,^,green,16.0,1013.0,1731.412428724215,13.0,7.0,220.0,10000.0,99999,,-2.0,0.8,11160022071016020130301304731451020600807610080000
946,LGMK,37.4351,25.3481,2024-05-28 23:50:00,,,,,19.0,1012.0,1850.8350596665252,12.0,2.0,,10000.0,99999,,-2.1000000000000227,0.0,11160036021019020120301204850851028600007000080000
978,ENTC,69.6833,18.9189,2024-05-28 23:50:00,,,,,10.0,1015.0,1124.9216393529555,7.0,5.0,10.0,10000.0,99999,,1.2999999999999545,0.0,1116000105101002070301504124951012600007000080000
999,LGBL,39.2196,22.7943,2024-05-28 23:50:00,,,,,18.0,1013.0,1177.8756501868245,15.0,0.0,0.0,10000.0,99999,,-0.6000000000000227,0.0,11160000001018020150301304177851003600007000080000
1000,LGLR,39.65628,22.34,2024-05-28 23:50:00,,,,,17.0,1013.0,1550.757247435409,13.0,0.0,0.0,10000.0,99999,,-0.5,0.0,11160000001017020130301304550751005600007000080000
1030,LGRX,38.1511,21.4256,2024-05-28 23:50:00,,,,,17.0,1014.0,1109.5898327480925,17.0,0.0,0.0,10000.0,99999,,-1.5,0.0,11160000001017020170301404109551015600007000080000
1122,LTAY,37.7856,29.7013,2024-05-28 23:50:00,,,,,12.0,1015.0,12.09759398703298,7.0,1.0,260.0,10000.0,99999,,1.7000000000000455,0.0,111600260110120207030150412051017600007000080000
1123,LTBD,37.815,27.8953,2024-05-28 23:50:00,,,,,17.0,1012.0,1228.3156217710687,11.0,0.0,0.0,10000.0,99999,,-0.6000000000000227,0.0,11160000001017020110301204228351003600007000080000
1125,LTBH,40.1377,26.4268,2024-05-28 23:50:00,,,,,13.0,1013.0,1075.0289463813042,11.0,4.0,20.0,10000.0,99999,,-0.7000000000000455,0.0,11160002041013020110301304075051002600007000080000
1127,LTBY,39.8099,30.5194,2024-05-28 23:50:00,,,,,9.0,1015.0,14.184243853221359,7.0,3.0,300.0,10000.0,99999,,0.0,0.0,111600300310090207030150414151000600007000080000
1129,LTCB,40.96667,38.08,2024-05-28 23:50:00,,,,,17.0,1013.0,1049.934143556201,15.0,6.0,290.0,10000.0,99999,,-2.7999999999999545,0.0,11160029061017020150301304049951022600007000080000
1133,LTCN,37.53883,36.95352,2024-05-28 23:50:00,,,,,16.0,1012.0,6201.102096452722,13.0,4.0,,10000.0,99999,,-1.0,0.0,11160036041016020130301204201151010600007000080000
1134,LTCT,39.97663,43.87665,2024-05-28 23:50:00,,,,,16.0,1015.0,10.42405831434066,13.0,8.0,220.0,10000.0,99999,,0.0,0.0,1116002208101602013030150410451000600007000080000
1135,LTDA,36.36278,36.28222,2024-05-28 23:50:00,,,,,20.0,1011.0,1518.0943059863282,17.0,12.0,220.0,10000.0,99999,,-1.0,0.0,11160022121020020170301104518051010600007000080000
1136,LTFD,39.5546,27.0138,2024-05-28 23:50:00,,,,,15.0,1013.0,1131.1529315624346,9.0,6.0,70.0,10000.0,99999,,-0.7999999999999545,0.0,1116000706101502090301304131151002600007000080000
1137,LTFG,36.29922,32.3006,2024-05-28 23:50:00,,,,,19.0,1012.0,1173.5914605039393,17.0,4.0,110.0,10000.0,99999,,-0.10000000000002274,0.0,11160011041019020170301204173551008600007000080000
1192,LBPL,43.4514,24.5028,2024-05-29 00:00:00,61.0,36.0,^,green,13.0,1013.0,2032.4701823449825,12.0,4.0,270.0,10000.0,99999,,-0.2999999999999545,0.0,11160027041013020120301304032451007600007610080000
1194,EGQL,56.3729,-2.86844,2024-05-28 23:50:00,45.0,36.0,N,yellow,12.0,1002.0,1112.8986047165463,12.0,3.0,10.0,600.0,99999,,-1.2000000000000455,0.0,11100001031012020120300204112851017600007450080000
1195,EGQS,57.7052,-3.33917,2024-05-28 23:50:00,61.0,36.0,^,green,12.0,1002.0,1124.854438014824,11.0,5.0,110.0,10000.0,99999,,-1.2000000000000455,0.0,11160011051012020110300204124851017600007610080000
1229,ETEK,49.6503,7.30007,2024-05-28 23:55:00,,,,,11.9,30.04,1030.04,11.1,8.0,220.0,6000.0,99999,,-988.0600000000001,0.0,11130022081011920119330040300519889600007000080000
1388,LBPG,42.2904,24.714,2024-05-29 00:00:00,,,,,12.0,1013.0,1619.1650181176649,9.0,4.0,300.0,10000.0,99999,,-0.20000000000004547,0.0,1116003004101202090301304619151007600007000080000
1578,LTAB,39.935,32.7408,2024-05-28 23:50:00,,,,,9.0,1015.0,14.571095369354154,9.0,0.0,0.0,10000.0,99999,,1.7999999999999545,0.0,111600000010090209030150414551017600007000080000
1587,LTBF,39.6193,27.926,2024-05-28 23:50:00,,,,,11.0,1013.0,2284.469060585818,9.0,4.0,230.0,10000.0,99999,,-1.1000000000000227,0.0,1116002304101102090301304284451018600007000080000
1588,LTBI,39.7841,30.5821,2024-05-28 23:50:00,,,,,10.0,1015.0,13.0945271600916,8.0,0.0,0.0,10000.0,99999,,0.10000000000002274,0.0,111600000010100208030150413051001600007000080000
1591,LTCA,38.6069,39.2914,2024-05-28 23:50:00,,,,,14.0,1014.0,11.084633936210924,9.0,4.0,290.0,10000.0,99999,,3.8999999999999773,0.0,111600290410140209030140411051038600007000080000
1615,LTAD,39.9498,32.6886,2024-05-28 23:50:00,,,,,8.0,1016.0,15.687749755230618,8.0,0.0,0.0,10000.0,99999,,2.6000000000000227,0.0,111600000010080208030160415651026600007000080000
1616,LTAN,37.979,32.5619,2024-05-28 23:50:00,,,,,11.0,1015.0,14.87330224146486,10.0,4.0,40.0,10000.0,99999,,2.6000000000000227,0.0,1116000404101102010030150414851026600007000080000
1617,LTAR,39.8138,36.9035,2024-05-28 23:50:00,,,,,7.0,1018.0,24.362733213787294,7.0,8.0,180.0,10000.0,99999,,7.0,0.0,111600180810070207030180424351070600007000080000
1618,LTBG,40.318,27.9777,2024-05-28 23:50:00,,,,,9.0,1013.0,1747.9955972556643,8.0,2.0,,10000.0,99999,,-1.0,0.0,1116003602100902080301304747951010600007000080000
1619,LTBL,38.513,27.0101,2024-05-28 23:50:00,,,,,15.0,1013.0,1050.2098293798222,13.0,0.0,0.0,10000.0,99999,,-0.20000000000004547,0.0,11160000001015020130301304050251007600007000080000
1620,LTBQ,40.735,30.0833,2024-05-28 23:50:00,,,,,8.0,1014.0,1917.334881429248,7.0,0.0,0.0,10000.0,99999,,-0.5,0.0,1116000000100802070301404917351005600007000080000
1622,LTCI,38.4682,43.3323,2024-05-28 23:50:00,,,,,13.0,1019.0,18.325105610439994,3.0,2.0,,10000.0,99999,,8.0,0.0,111600360210130203030190418351080600007000080000
1654,LGPZ,38.9255,20.7653,2024-05-28 23:50:00,,,,,18.0,1014.0,1035.2690662552347,16.0,0.0,0.0,10000.0,99999,,-1.3999999999999773,0.0,11160000001018020160301404035251016600007000080000
1805,LRCT,46.5023,23.8859,2024-05-29 00:00:00,,,,,13.0,1014.0,4935.975274691883,11.0,3.0,270.0,10000.0,99999,,0.0,0.0,11160027031013020110301404935951000600007000080000
1806,LTAE,40.0789,32.5656,2024-05-28 23:50:00,,,,,6.0,1015.0,19.227753542353337,6.0,2.0,340.0,10000.0,99999,,1.6000000000000227,0.0,111600340210060206030150419251016600007000080000
2069,UMGG,52.527,31.0167,2024-05-29 00:00:00,,,,,16.0,1019.0,2232.536494425512,13.0,2.0,70.0,10000.0,99999,,1.2000000000000455,0.0,11160007021016020130301904232551012600007000080000
2080,URMN,43.5129,43.6366,2024-05-29 00:00:00,,,,,12.0,1012.0,6926.306710733657,10.0,2.0,270.0,10000.0,99999,,-2.2999999999999545,0.0,11160027021012020100301204926351027600007000080000
2093,UWLW,54.401,48.8027,2024-05-29 00:00:00,,,,,12.0,1019.0,1849.8235816771783,5.0,3.0,250.0,10000.0,99999,,-2.2999999999999545,0.0,1116002503101202050301904849851027600007000080000
2127,EGUL,52.4093,0.561,2024-05-28 23:55:00,61.0,36.0,^,green,15.2,29.72,1104.9271769400948,13.6,11.0,220.0,10000.0,99999,,-978.18,1.6,11160022111015120131329741049519788601607610080000
2169,EGXC,53.093,-0.16601,2024-05-28 23:50:00,,,,,14.0,1005.0,1067.1196991746694,12.0,11.0,250.0,10000.0,99999,,-1.3999999999999773,1.6,11160025111014020120300504067151016601607000080000
2222,LKKB,50.1214,14.5436,2024-05-29 00:00:00,,,,,11.0,1018.0,5063.884535079676,11.0,2.0,,10000.0,99999,,0.0,0.0,11160036021011020110301804063851000600007000080000
2223,LKKV,50.203,12.915,2024-05-29 00:00:00,,,,,6.0,1019.0,15.730061253061251,5.0,2.0,90.0,10000.0,99999,,-0.5,0.0,111600090210060205030190415751005600007000080000
2224,LKLN,49.6752,13.2746,2024-05-29 00:00:00,,,,,8.0,1019.0,8325.218126591786,7.0,0.0,0.0,10000.0,99999,,-1.1000000000000227,0.0,1116000000100802070301904325251018600007000080000
2229,LOXZ,47.2028,14.7442,2024-05-28 23:50:00,,,,,10.0,1020.0,11.70334187179004,9.0,0.0,0.0,10000.0,99999,,-1.1000000000000227,0.1,111600000010100209030200411751018600107000080000
2239,LTCD,39.7102,39.527,2024-05-28 23:50:00,,,,,16.0,1015.0,12.240712235988532,8.0,2.0,,10000.0,99999,,5.100000000000023,0.0,111600360210160208030150412251051600007000080000
2240,LTCF,40.5622,43.115,2024-05-28 23:50:00,,,,,8.0,1019.0,24.227574732903907,8.0,3.0,130.0,10000.0,99999,,1.8999999999999773,0.0,111600130310080208030190424251018600007000080000
2243,LTFH,41.2545,36.5671,2024-05-28 23:50:00,,,,,16.0,1013.0,1052.2612054518704,14.0,5.0,330.0,10000.0,99999,,0.0,0.0,11160033051016020140301304052251000600007000080000
2248,ULOO,57.7839,28.3956,2024-05-29 00:00:00,,,,,16.0,1018.0,1375.1991975266499,15.0,1.0,190.0,10000.0,99999,,-0.7999999999999545,0.0,11160019011016020150301804375151002600007000080000
2265,LICB,36.9946,14.60718,2024-05-28 23:50:00,,,,,15.0,1015.0,2795.9563172765065,9.0,2.0,70.0,10000.0,99999,,-1.0,0.0,1116000702101502090301504795951010600007000080000
2291,LPBJ,38.0789,-7.9324,2024-05-29 00:00:00,,,,,18.0,1017.0,2501.9087105798626,12.0,4.0,300.0,10000.0,99999,,1.0,0.0,11160030041018020120301704501951010600007000080000
2294,EIME,53.3017,-6.45133,2024-05-29 00:00:00,,,,,12.0,1007.0,2074.0560918290475,11.0,14.0,250.0,10000.0,99999,,0.2999999999999545,0.0,11160025141012020110300704074051002600007000080000
2343,ETIH,49.2181,11.8361,2024-05-28 23:55:00,,,,,7.3,30.09,10.827565301987537,5.4,0.0,0.0,10000.0,99999,,-989.51,0.0,111600000010072205233004108519894600007000080000
2344,ETIK,49.4739,10.3881,2024-05-28 23:55:00,,,,,10.3,30.06,6156.672524305558,7.9,0.0,0.0,10000.0,99999,,-989.0400000000001,0.0,1116000000101032073330041566519899600007000080000
2363,LIBA,41.5414,15.7181,2024-05-28 23:55:00,,,,,17.0,1014.0,1414.69288076084,14.0,3.0,60.0,10000.0,99999,,-0.8999999999999773,0.0,11160006031017020140301404414651001600007000080000
2364,LIBN,40.2392,18.1333,2024-05-28 23:55:00,,,,,16.0,1014.0,1374.6930085872082,16.0,2.0,,10000.0,99999,,-0.6000000000000227,0.0,11160036021016020160301404374651003600007000080000
2366,LIPI,45.9787,13.0493,2024-05-28 23:55:00,,,,,16.0,1015.0,1432.8986226045256,14.0,4.0,360.0,10000.0,99999,,-0.39999999999997726,0.0,11160036041016020140301504432851006600007000080000
2368,LIPL,45.4322,10.2677,2024-05-28 23:55:00,,,,,19.0,1015.0,1693.4646864802808,19.0,2.0,300.0,10000.0,99999,,0.2999999999999545,0.0,11160030021019020190301504693451002600007000080000
2370,LIRE,41.6545,12.4452,2024-05-28 23:55:00,,,,,18.0,1015.0,1095.3043638957934,15.0,6.0,90.0,10000.0,99999,,-0.2999999999999545,0.0,11160009061018020150301504095351007600007000080000
2371,LIRS,42.7597,11.0719,2024-05-28 23:55:00,,,,,15.0,1014.0,1053.59344446398,13.0,2.0,10.0,10000.0,99999,,-0.7000000000000455,0.0,11160001021015020130301404053551002600007000080000
2407,LIPS,45.6849,12.0829,2024-05-28 23:55:00,,,,,15.0,1016.0,1353.261593577425,12.0,1.0,330.0,10000.0,99999,,0.0,0.0,11160033011015020120301604353251000600007000080000
2408,LPMR,39.8312,-8.88726,2024-05-29 00:00:00,,,,,14.0,1020.0,1527.806256355139,13.0,5.0,330.0,10000.0,99999,,-0.7000000000000455,0.0,11160033051014020130302004527851002600007000080000
2409,LPMT,38.7039,-9.03592,2024-05-29 00:00:00,,,,,18.0,1018.0,1108.540217590246,10.0,7.0,350.0,10000.0,99999,,-0.2999999999999545,0.0,11160035071018020100301804108551007600007000080000
2410,LICT,37.9114,12.488,2024-05-28 23:55:00,,,,,18.0,1015.0,1063.6582860877334,14.0,5.0,130.0,10000.0,99999,,-0.6000000000000227,0.0,11160013051018020140301504063651003600007000080000
2411,LIBV,40.7678,16.9333,2024-05-28 23:55:00,10.0,36.0,+,yellow,15.0,1015.0,4721.474237479746,14.0,3.0,340.0,2500.0,99999,,-0.10000000000002274,0.0,11110034031015020140301504721451008600007100080000
2413,LIED,39.3542,8.97248,2024-05-28 23:55:00,,,,,18.0,1015.0,1215.2977797055273,17.0,4.0,360.0,10000.0,99999,,-1.5,0.0,11160036041018020170301504215251015600007000080000
2414,LIPC,44.2242,12.3072,2024-05-28 23:55:00,,,,,16.0,1016.0,1055.377477531195,15.0,4.0,250.0,10000.0,99999,,0.5,0.0,11160025041016020150301604055351005600007000080000
2416,LICZ,37.4017,14.9224,2024-05-28 23:55:00,,,,,18.0,1014.0,1170.8491278833517,14.0,7.0,270.0,10000.0,99999,,-1.6000000000000227,0.0,11160027071018020140301404170851013600007000080000
2439,EVGA,56.7783,24.8539,2024-05-29 00:20:00,,,,,18.0,1016.0,1431.264571333539,14.0,6.0,100.0,10000.0,99999,,-1.7000000000000455,0.0,11160010061018020140301604431251012600007000080000
2481,EGUN,52.3619,0.48641,2024-05-29 00:15:00,,,,,14.0,29.73,1114.0854933738387,13.0,9.0,230.0,10000.0,99999,,-977.77,0.0,11160023091014020130329741140519772600007000080000
2486,EVVA,57.3578,21.5442,2024-05-29 00:20:00,,,,,12.0,1015.0,1070.547499808694,11.0,1.0,80.0,10000.0,99999,,0.0,0.0,11160008011012020110301504070551000600007000080000
2489,LATI,41.4147,19.7206,2024-05-29 00:20:00,,,,,16.0,1014.0,1301.941185533582,16.0,3.0,180.0,10000.0,99999,,-1.1000000000000227,0.0,11160018031016020160301404301951018600007000080000
2494,LMML,35.8575,14.4775,2024-05-29 00:15:00,,,,,19.0,1015.0,1620.5338952151965,18.0,3.0,200.0,10000.0,99999,,-1.2999999999999545,0.0,11160020031019020180301504620551017600007000080000
2495,LWSK,41.9616,21.6214,2024-05-29 00:20:00,,,,,14.0,1015.0,3508.867915262861,13.0,3.0,40.0,10000.0,99999,,0.2999999999999545,0.0,11160004031014020130301504508851002600007000080000
2507,LSZC,46.97444,8.39694,2024-05-29 00:20:00,,,,,11.0,1019.0,7604.517405902793,9.0,4.0,250.0,10000.0,99999,,-0.6000000000000227,0.0,1116002504101102090301904604551003600007000080000
2509,EKRS,55.4258,11.8067,2024-05-29 00:20:00,,,,,10.0,1014.0,1435.968062703853,10.0,2.0,,10000.0,99999,,-0.7000000000000455,0.0,11160036021010020100301404435951002600007000080000
2510,LSMA,46.9439,8.28417,2024-05-29 00:20:00,,,,,10.0,1019.0,8201.45066792801,9.0,2.0,180.0,10000.0,99999,,-1.2000000000000455,0.0,1116001802101002090301904201451017600007000080000
2511,LSMD,47.3986,8.64823,2024-05-29 00:20:00,,,,,12.0,1019.0,7012.828914257463,9.0,2.0,140.0,10000.0,99999,,-0.6000000000000227,0.0,1116001402101202090301904012851003600007000080000
2512,LSME,47.0924,8.30512,2024-05-29 00:20:00,,,,,11.0,1019.0,7257.648683159418,9.0,0.0,0.0,10000.0,99999,,-0.7000000000000455,0.0,1116000000101102090301904257651002600007000080000
2513,LSMP,46.8432,6.91506,2024-05-29 00:20:00,,,,,12.0,1019.0,6991.3818616638,9.0,1.0,,10000.0,99999,,-0.5,0.0,1116003601101202090301904991351005600007000080000
2601,EFET,68.3626,23.4243,2024-05-29 00:20:00,,,,,11.0,1014.0,5359.215846644673,10.0,5.0,10.0,10000.0,99999,,0.0,0.0,11160001051011020100301404359251000600007000080000
2602,EFHA,61.856,24.7866,2024-05-29 00:20:00,,,,,14.0,1017.0,2448.741966894032,10.0,2.0,270.0,10000.0,99999,,-0.10000000000002274,0.0,11160027021014020100301704448751008600007000080000
2605,EFKS,65.9876,29.2394,2024-05-29 00:20:00,45.0,36.0,N,yellow,10.0,1015.0,5113.98916424406,10.0,5.0,110.0,900.0,99999,,1.0,0.0,11100011051010020100301504113951010600007450080000
2606,EFKT,67.701,24.8468,2024-05-29 00:20:00,,,,,10.0,1013.0,3944.1738580603846,10.0,1.0,,7000.0,99999,,-1.0,0.0,11140036011010020100301304944151010600007000080000
2610,EFSA,61.9431,28.9451,2024-05-29 00:20:00,,,,,12.0,1017.0,2064.480515772815,11.0,1.0,,10000.0,99999,,-0.2999999999999545,0.0,11160036011012020110301704064451007600007000080000
2622,EGHQ,50.4406,-4.99541,2024-05-29 00:20:00,,,,,13.0,1012.0,2240.20921573884,13.0,13.0,250.0,10000.0,99999,,-0.5,0.0,11160025131013020130301204240251005600007000080000
2624,EGCK,53.1042,-4.34028,2024-05-29 00:20:00,,,,,13.0,1007.0,1009.6484103689893,11.0,13.0,230.0,9000.0,99999,,0.39999999999997726,1.4,11150023131013020110300704009651003601307000080000
2666,ESNZ,63.1944,14.5003,2024-05-29 00:20:00,,,,,15.0,1013.0,4872.986073169352,10.0,9.0,120.0,10000.0,99999,,0.10000000000002274,0.0,11160012091015020100301304872951001600007000080000
2682,ESOH,60.0201,13.5789,2024-05-29 00:20:00,61.0,36.0,^,green,14.0,1012.0,2419.8803337934837,13.0,5.0,170.0,2700.0,99999,,1.1000000000000227,0.0,11110017051014020130301204419851011600007610080000
2716,EFJO,62.6629,29.6075,2024-05-29 00:20:00,,,,,14.0,1016.0,2176.6929837936723,12.0,0.0,0.0,10000.0,99999,,-0.39999999999997726,0.0,11160000001014020120301604176651006600007000080000
2722,EFLP,61.0446,28.1444,2024-05-29 00:20:00,,,,,12.0,1017.0,2208.9374682309776,10.0,1.0,,10000.0,99999,,-0.6000000000000227,0.0,11160036011012020100301704208951003600007000080000
2723,EFMI,61.6866,27.2018,2024-05-29 00:20:00,,,,,12.0,1017.0,2132.550007817611,11.0,1.0,,10000.0,99999,,0.20000000000004547,0.0,11160036011012020110301704132551002600007000080000
2725,EFSI,62.6921,22.8323,2024-05-29 00:20:00,,,,,8.0,1016.0,2615.1268940158698,7.0,4.0,150.0,10000.0,99999,,0.0,0.0,1116001504100802070301604615151000600007000080000
2726,EFUT,60.8964,26.9384,2024-05-29 00:20:00,,,,,17.0,1017.0,1800.2126697628794,9.0,5.0,310.0,10000.0,99999,,-0.5,0.0,1116003105101702090301704800251005600007000080000
2894,ESCF,58.4023,15.5257,2024-05-29 00:20:00,,,,,15.0,1013.0,1818.6992420409117,12.0,3.0,230.0,10000.0,99999,,0.2999999999999545,0.0,11160023031015020120301304818651002600007000080000
2896,ESIB,58.4264,12.7144,2024-05-29 00:20:00,,,,,13.0,1013.0,1540.3884182792071,12.0,8.0,200.0,10000.0,99999,,1.6000000000000227,0.0,11160020081013020120301304540351016600007000080000
2897,ESMV,57.2922,14.1372,2024-05-29 00:20:00,,,,,12.0,1014.0,3029.5546738293333,11.0,1.0,,10000.0,99999,,1.2000000000000455,0.0,11160036011012020110301404029551012600007000080000
2899,ESPE,65.8753,20.1499,2024-05-29 00:20:00,,,,,11.0,1014.0,3428.450810306517,10.0,1.0,,10000.0,99999,,0.7000000000000455,0.0,11160036011011020100301404428451007600007000080000
2900,ESIA,58.5138,14.5071,2024-05-29 00:20:00,61.0,36.0,^,green,14.0,1013.0,1882.5304471160218,12.0,6.0,230.0,10000.0,99999,,0.8999999999999773,0.0,11160023061014020120301304882551008600007610080000
2901,ESCM,59.8973,17.5886,2024-05-29 00:20:00,,,,,14.0,1014.0,1188.1321605013973,11.0,7.0,130.0,10000.0,99999,,-0.10000000000002274,0.0,11160013071014020110301404188151008600007000080000
2904,ESNV,64.5791,16.8336,2024-05-29 00:20:00,,,,,99999.0,1015.0,99999.0,99999.0,1.0,,10000.0,99999,,0.7000000000000455,0.0,11160036011099999020999990301504999051007600007000080000
2906,ESST,60.1576,12.9913,2024-05-29 00:20:00,,,,,14.0,1012.0,2151.834774923216,13.0,4.0,160.0,10000.0,99999,,0.0,0.0,11160016041014020130301204151851000600007000080000
2907,ESUP,67.2456,23.0689,2024-05-29 00:20:00,45.0,36.0,N,yellow,12.0,1013.0,2968.8075914948386,12.0,1.0,,1000.0,99999,,-0.10000000000002274,0.0,11100036011012020120301304968851008600007450080000
2908,ESND,62.0478,14.4229,2024-05-29 00:20:00,,,,,13.0,1013.0,5314.669348800354,10.0,5.0,110.0,10000.0,99999,,0.10000000000002274,0.0,11160011051013020100301304314651001600007000080000
2947,EEKE,58.2299,22.5095,2024-05-29 00:20:00,,,,,16.0,1016.0,1046.5718275581091,14.0,3.0,150.0,10000.0,99999,,-0.39999999999997726,0.0,11160015031016020140301604046551006600007000080000
2949,EEPU,58.419,24.4728,2024-05-29 00:20:00,,,,,13.0,1017.0,1145.9065405486106,12.0,4.0,40.0,10000.0,99999,,0.0,0.0,11160004041013020120301704145951000600007000080000
2956,EDBC,51.8564,11.4203,2024-05-29 00:20:00,,,,,11.0,1017.0,3424.7095376163124,7.0,9.0,170.0,10000.0,99999,,0.0,0.0,1116001709101102070301704424751000600007000080000
2995,EDJA,47.9888,10.2395,2024-05-29 00:20:00,,,,,7.0,1019.0,14.564249166051308,7.0,3.0,190.0,10000.0,99999,,0.0,0.0,111600190310070207030190414551000600007000080000
3002,EDTY,49.11833,9.78389,2024-05-29 00:20:00,,,,,11.0,1018.0,6778.652207195009,10.0,2.0,120.0,10000.0,99999,,-1.2000000000000455,0.0,11160012021011020100301804778651017600007000080000
3006,EDWE,53.39111,7.2275,2024-05-29 00:20:00,,,,,14.0,1010.0,1017.4071338248403,13.0,8.0,170.0,10000.0,99999,,-2.6000000000000227,0.2,11160017081014020130301004017451023600207000080000
3010,EKCH,55.6179,12.656,2024-05-29 00:20:00,,,,,11.0,1015.0,1069.203973692537,10.0,4.0,200.0,10000.0,99999,,-0.10000000000002274,0.0,11160020041011020100301504069251008600007000080000
3015,EKSB,54.9644,9.79173,2024-05-29 00:20:00,,,,,13.0,1012.0,1076.6972723162014,10.0,7.0,150.0,10000.0,99999,,-1.7999999999999545,0.0,11160015071013020100301204076651012600007000080000
3017,EKSP,55.2256,9.26393,2024-05-29 00:20:00,,,,,11.0,1012.0,1493.9950890041919,9.0,6.0,130.0,10000.0,99999,,-1.8999999999999773,0.0,1116001306101102090301204493951011600007000080000
3018,EKVD,55.4363,9.33092,2024-05-29 00:20:00,,,,,11.0,1012.0,1501.34596642135,9.0,6.0,130.0,10000.0,99999,,-1.2999999999999545,0.0,1116001306101102090301204501351017600007000080000
3028,EFIV,68.6073,27.4053,2024-05-29 00:20:00,80.0,36.0,q,green,7.0,1016.0,4180.264092786426,6.0,4.0,20.0,10000.0,99999,,0.7000000000000455,0.0,1116000204100702060301604180251007600007800080000
3029,EFJY,62.3995,25.6783,2024-05-29 00:20:00,,,,,12.0,1016.0,2639.220082726299,11.0,1.0,,10000.0,99999,,-0.5,0.0,11160036011012020110301604639251005600007000080000
3030,EFKE,65.7787,24.5821,2024-05-29 00:20:00,,,,,9.0,1013.0,1258.8422885403631,8.0,4.0,150.0,10000.0,99999,,-1.0,0.0,1116001504100902080301304258851010600007000080000
3031,EFKK,63.7212,23.1431,2024-05-29 00:20:00,,,,,11.0,1015.0,1294.0671022420704,8.0,4.0,190.0,10000.0,99999,,-0.5,0.0,1116001904101102080301504294051005600007000080000
3033,EFMA,60.1222,19.8982,2024-05-29 00:20:00,,,,,10.0,1015.0,1074.6900261255043,9.0,4.0,20.0,10000.0,99999,,-0.6000000000000227,0.0,1116000204101002090301504074651003600007000080000
3034,EFOU,64.9301,25.3546,2024-05-29 00:20:00,,,,,15.0,1014.0,1125.019769129131,7.0,5.0,240.0,10000.0,99999,,-0.39999999999997726,0.0,1116002405101502070301404125051006600007000080000
3035,EFPO,61.4617,21.8,2024-05-29 00:20:00,,,,,14.0,1016.0,1127.5842149070852,8.0,4.0,120.0,10000.0,99999,,-0.7000000000000455,0.0,1116001204101402080301604127551002600007000080000
3036,EFRO,66.5648,25.8304,2024-05-29 00:20:00,,,,,13.0,1013.0,3178.654789735822,10.0,3.0,150.0,10000.0,99999,,-0.6000000000000227,0.0,11160015031013020100301304178651003600007000080000
3037,EFTP,61.4141,23.6044,2024-05-29 00:20:00,,,,,12.0,1017.0,2367.8774272147534,10.0,0.0,0.0,10000.0,99999,,0.0,0.0,11160000001012020100301704367851000600007000080000
3038,EFTU,60.5141,22.2628,2024-05-29 00:20:00,,,,,10.0,1017.0,1636.7096332975584,9.0,1.0,90.0,10000.0,99999,,0.10000000000002274,0.0,1116000901101002090301704636751001600007000080000
3039,EFVA,63.0507,21.7622,2024-05-29 00:20:00,,,,,13.0,1015.0,1066.2300815149474,10.0,3.0,170.0,10000.0,99999,,-0.6000000000000227,0.0,11160017031013020100301504066251003600007000080000
3041,ENBR,60.2934,5.21814,2024-05-29 00:20:00,61.0,36.0,^,green,11.0,1009.0,1597.1022074051825,10.0,2.0,,10000.0,99999,,0.0,0.0,11160036021011020100300904597151000600007610080000
3042,ENCN,58.2042,8.08537,2024-05-29 00:20:00,10.0,36.0,+,yellow,10.0,1011.0,1215.891362001792,10.0,4.0,60.0,5000.0,99999,,-0.2999999999999545,0.0,11130006041010020100301104215851007600007100080000
3044,ENHD,59.3453,5.20836,2024-05-29 00:20:00,61.0,36.0,^,green,11.0,1009.0,1293.3514830908493,10.0,8.0,110.0,7000.0,99999,,-1.2999999999999545,0.0,11140011081011020100300904293351017600007610080000
3046,ENVA,63.4578,10.924,2024-05-29 00:20:00,,,,,14.0,1011.0,1153.1521462395522,13.0,4.0,90.0,10000.0,99999,,-0.20000000000004547,0.0,11160009041014020130301104153151007600007000080000
3047,ENZV,58.8767,5.63778,2024-05-29 00:20:00,,,,,12.0,1009.0,1093.7800264437042,10.0,5.0,130.0,10000.0,99999,,0.0,0.0,11160013051012020100300904093751000600007000080000
3051,LGAV,37.9364,23.9445,2024-05-29 00:20:00,,,,,16.0,1013.0,1763.4417359467473,7.0,2.0,,10000.0,99999,,0.0,0.0,1116003602101602070301304763451000600007000080000
3074,LIPO,45.4289,10.3306,2024-05-29 00:20:00,,,,,19.0,1016.0,1744.4117974888359,16.0,2.0,,10000.0,99999,,0.0,0.0,11160036021019020160301604744451000600007000080000
3089,ENAL,62.5625,6.1197,2024-05-29 00:20:00,61.0,36.0,^,green,13.0,1008.0,1197.7291627398306,11.0,9.0,40.0,10000.0,99999,,-3.5,0.0,11160004091013020110300804197751035600007610080000
3095,ENDU,69.0558,18.5404,2024-05-29 00:20:00,,,,,15.0,1015.0,1662.8309931017263,11.0,3.0,270.0,10000.0,99999,,0.0,0.0,11160027031015020110301504662851000600007000080000
3110,ENRO,62.5784,11.3423,2024-05-29 00:20:00,,,,,11.0,1011.0,10.064372337312161,10.0,6.0,130.0,10000.0,99999,,0.0,0.0,1116001306101102010030110410051000600007000080000
3112,ENRY,59.3789,10.7856,2024-05-29 00:20:00,,,,,14.0,1011.0,1476.8270026951668,10.0,10.0,210.0,10000.0,99999,,0.0,0.0,11160021101014020100301104476851000600007000080000
3118,ENTO,59.1867,10.2586,2024-05-29 00:20:00,,,,,12.0,1010.0,1957.4887552906998,11.0,8.0,200.0,10000.0,99999,,0.0,0.0,11160020081012020110301004957451000600007000080000
3121,ESGG,57.6628,12.2798,2024-05-29 00:20:00,,,,,10.0,1013.0,3239.621522978919,9.0,6.0,200.0,10000.0,99999,,-0.39999999999997726,0.0,1116002006101002090301304239651006600007000080000
3122,ESGJ,57.7576,14.0687,2024-05-29 00:20:00,,,,,13.0,1013.0,3563.848033509204,12.0,5.0,220.0,10000.0,99999,,0.7999999999999545,0.0,11160022051013020120301304563851007600007000080000
3123,ESGP,57.7747,11.8704,2024-05-29 00:20:00,,,,,13.0,1013.0,1175.1984718586398,10.0,2.0,,10000.0,99999,,0.5,0.0,11160036021013020100301304175151005600007000080000
3124,ESKN,58.7886,16.9122,2024-05-29 00:20:00,,,,,15.0,1013.0,1357.054873920512,11.0,6.0,140.0,10000.0,99999,,-0.39999999999997726,0.0,11160014061015020110301304357051006600007000080000
3125,ESMK,55.9217,14.0855,2024-05-29 00:20:00,,,,,9.0,1015.0,1325.1800548503898,9.0,3.0,200.0,10000.0,99999,,0.0,0.1,1116002003100902090301504325151000600107000080000
3126,ESMS,55.53631,13.3762,2024-05-29 00:20:00,41.0,36.0,J,yellow,9.0,1015.0,2074.2059471092116,9.0,5.0,180.0,10000.0,99999,,0.0,0.0,1116001805100902090301504074251000600007410080000
3128,ESNN,62.5281,17.4439,2024-05-29 00:20:00,41.0,36.0,J,yellow,10.0,1014.0,1070.083567359336,10.0,1.0,350.0,1300.0,99999,,-0.20000000000004547,0.0,11100035011010020100301404070051007600007410080000
3130,ESNQ,67.822,20.3368,2024-05-29 00:20:00,,,,,11.0,1014.0,7717.94048633595,9.0,2.0,,10000.0,99999,,-0.20000000000004547,0.0,1116003602101102090301404717951007600007000080000
3131,ESNS,64.6248,21.0769,2024-05-29 00:20:00,,,,,13.0,1013.0,1465.6101887009868,12.0,2.0,,10000.0,99999,,-0.39999999999997726,0.0,11160036021013020120301304465651006600007000080000
3133,ESOK,59.4447,13.3374,2024-05-29 00:20:00,,,,,14.0,1012.0,2019.6469481284482,13.0,6.0,180.0,10000.0,99999,,0.7000000000000455,0.0,11160018061014020130301204019651007600007000080000
3134,ESOW,59.5894,16.6336,2024-05-29 00:20:00,,,,,13.0,1013.0,1069.573190663692,8.0,0.0,0.0,10000.0,99999,,-0.39999999999997726,0.0,1116000000101302080301304069551006600007000080000
3137,ESSB,59.3544,17.9417,2024-05-29 00:20:00,,,,,14.0,1014.0,1133.1339207863566,10.0,3.0,130.0,10000.0,99999,,-0.2999999999999545,0.0,11160013031014020100301404133151007600007000080000
3139,ESSP,58.5863,16.2506,2024-05-29 00:20:00,,,,,10.0,1013.0,1126.322361552403,9.0,3.0,80.0,10000.0,99999,,0.5,0.0,1116000803101002090301304126351005600007000080000
3140,ESSV,57.6628,18.3462,2024-05-29 00:20:00,,,,,13.0,1014.0,1488.748008627407,10.0,4.0,160.0,10000.0,99999,,-0.2999999999999545,0.0,11160016041013020100301404488751007600007000080000
3141,LSGC,47.0839,6.79284,2024-05-29 00:20:00,,,,,7.0,1020.0,19.783693167962024,7.0,2.0,250.0,10000.0,99999,,-0.2999999999999545,0.0,111600250210070207030200419751007600007000080000
3142,LSGG,46.2381,6.10895,2024-05-29 00:20:00,,,,,13.0,1019.0,6288.481196499826,9.0,2.0,100.0,10000.0,99999,,-0.10000000000002274,0.0,1116001002101302090301904288451008600007000080000
3143,LSGS,46.2196,7.32676,2024-05-29 00:20:00,,,,,13.0,1019.0,6983.12993259572,8.0,0.0,0.0,10000.0,99999,,0.7999999999999545,0.0,1116000000101302080301904983151007600007000080000
3144,LSZA,46.0043,8.91058,2024-05-29 00:20:00,,,,,13.0,1017.0,4271.65558225597,10.0,1.0,,10000.0,99999,,1.1000000000000227,0.0,11160036011013020100301704271651011600007000080000
3145,LSZB,46.9141,7.49715,2024-05-29 00:20:00,,,,,9.0,1019.0,10.110759368038345,9.0,2.0,110.0,10000.0,99999,,-0.39999999999997726,0.0,111600110210090209030190410151006600007000080000
3146,LSZG,47.1816,7.41719,2024-05-29 00:20:00,,,,,11.0,1018.0,7301.56775255395,10.0,1.0,,10000.0,99999,,-2.0,0.0,11160036011011020100301804301551020600007000080000
3147,LSZH,47.4647,8.54917,2024-05-29 00:20:00,,,,,10.0,1019.0,7982.292521101317,9.0,4.0,340.0,10000.0,99999,,-0.8999999999999773,0.0,1116003404101002090301904982251001600007000080000
3148,LSZL,46.1608,8.87861,2024-05-29 00:20:00,,,,,14.0,1017.0,3043.261460843827,8.0,1.0,,10000.0,99999,,1.3999999999999773,0.0,1116003601101402080301704043251013600007000080000
3149,LSZR,47.485,9.56077,2024-05-29 00:20:00,,,,,15.0,1018.0,5153.722205523354,8.0,3.0,,10000.0,99999,,-1.8999999999999773,0.0,1116003603101502080301804153751011600007000080000
3150,LSZS,46.5341,9.88411,2024-05-29 00:20:00,,,,,0.0,1022.0,39.08195802043258,-0.0,2.0,170.0,10000.0,99999,,1.1000000000000227,0.0,111600170210000210030220439051011600007000080000
3154,EGBB,52.4539,-1.74803,2024-05-29 00:20:00,,,,,13.0,1007.0,2010.1573209463586,11.0,5.0,230.0,10000.0,99999,,-1.0,0.0,11160023051013020110300704010151010600007000080000
3155,EGCC,53.3537,-2.27495,2024-05-29 00:20:00,,,,,12.0,1006.0,1844.225071003293,10.0,6.0,220.0,10000.0,99999,,0.20000000000004547,0.4,11160022061012020100300604844251002600407000080000
3156,EGFF,51.3967,-3.34333,2024-05-29 00:20:00,,,,,13.0,1009.0,1658.1482597883264,12.0,15.0,270.0,10000.0,99999,,-1.1000000000000227,0.1,11160027151013020120300904658151018600107000080000
3157,EGGD,51.3827,-2.71909,2024-05-29 00:20:00,,,,,12.0,1009.0,3288.662027823163,12.0,10.0,250.0,1900.0,99999,,-0.8999999999999773,0.3,11110025101012020120300904288651001600307000080000
3162,EGLL,51.4706,-0.46194,2024-05-29 00:20:00,,,,,13.0,1009.0,1239.0783327363572,11.0,8.0,260.0,10000.0,99999,,-1.1000000000000227,0.0,11160026081013020110300904239051018600007000080000
3164,EGNJ,53.5744,-0.35083,2024-05-29 00:20:00,,,,,15.0,1005.0,1297.6866074754237,12.0,13.0,250.0,10000.0,99999,,-0.5,0.4,11160025131015020120300504297651005600407000080000
3166,EGNX,52.8311,-1.32806,2024-05-29 00:20:00,,,,,14.0,1006.0,1863.31646965952,11.0,12.0,250.0,10000.0,99999,,-0.2999999999999545,0.0,11160025121014020110300604863351007600007000080000
3167,EGPA,58.9578,-2.905,2024-05-29 00:20:00,,,,,12.0,1004.0,1151.2168248990902,11.0,8.0,130.0,10000.0,99999,,-0.5,0.0,11160013081012020110300404151251005600007000080000
3168,EGPB,59.8789,-1.29556,2024-05-29 00:20:00,,,,,12.0,1006.0,1063.986989345949,10.0,6.0,120.0,10000.0,99999,,-1.1000000000000227,0.0,11160012061012020100300604063951018600007000080000
3174,EGTE,50.7344,-3.41389,2024-05-29 00:20:00,61.0,36.0,^,green,13.0,1011.0,1296.9852986624478,12.0,6.0,250.0,10000.0,99999,,-0.7000000000000455,0.0,11160025061013020120301104296951002600007610080000
3176,EGAC,54.6181,-5.8725,2024-05-29 00:20:00,,,,,13.0,1004.0,1043.9184146539842,11.0,6.0,200.0,10000.0,99999,,-0.7000000000000455,0.0,11160020061013020110300404043951002600007000080000
3177,EGGP,53.3336,-2.84972,2024-05-29 00:20:00,,,,,13.0,1006.0,1226.769536438236,10.0,4.0,220.0,10000.0,99999,,0.0,0.0,11160022041013020100300604226751000600007000080000
3178,EGGW,51.8747,-0.36833,2024-05-29 00:20:00,,,,,12.0,1008.0,2888.750604676366,12.0,12.0,250.0,10000.0,99999,,-0.7000000000000455,0.4,11160025121012020120300804888751002600407000080000
3179,EGLC,51.5053,0.05528,2024-05-29 00:20:00,,,,,14.0,1009.0,1056.2543032248502,11.0,12.0,240.0,10000.0,99999,,-0.8999999999999773,0.0,11160024121014020110300904056251001600007000080000
3180,EGNT,55.0375,-1.69167,2024-05-29 00:20:00,,,,,13.0,1002.0,1795.8778520599851,12.0,9.0,270.0,10000.0,99999,,-1.1000000000000227,0.0,11160027091013020120300204795851018600007000080000
3182,EGPE,57.5425,-4.0475,2024-05-29 00:20:00,,,,,11.0,1002.0,1100.4558892516782,11.0,0.0,0.0,10000.0,99999,,-1.6000000000000227,0.0,11160000001011020110300204100451013600007000080000
3183,EGPF,55.8719,-4.43306,2024-05-29 00:20:00,,,,,12.0,1003.0,1078.4249286961033,11.0,3.0,250.0,10000.0,99999,,-0.39999999999997726,0.2,11160025031012020110300304078451006600207000080000
3186,EGSS,51.885,0.235,2024-05-29 00:20:00,,,,,13.0,1008.0,2084.477681759034,12.0,8.0,240.0,10000.0,99999,,-0.5,0.7,11160024081013020120300804084451005600707000080000
3193,EDGS,50.7077,8.08297,2024-05-29 00:20:00,,,,,11.0,1015.0,9.73692088307362,10.0,11.0,200.0,10000.0,99999,,-2.2000000000000455,0.0,111600201110110201003015049751027600007000080000
3194,EDLV,51.6024,6.14217,2024-05-29 00:20:00,,,,,15.0,1012.0,1268.5461071592565,14.0,9.0,180.0,6000.0,99999,,0.0,0.0,11130018091015020140301204268551000600007000080000
3197,EGPI,55.6819,-6.25667,2024-05-29 00:20:00,58.0,36.0,[,green,11.0,1003.0,1183.8157522624938,11.0,99999.0,,10000.0,99999,,-1.6000000000000227,0.0,11160036999991011020110300304183851013600007580080000
3203,ESMQ,56.6855,16.2876,2024-05-29 00:20:00,61.0,36.0,^,green,15.0,1015.0,1054.6324912533921,14.0,7.0,190.0,10000.0,99999,,1.2000000000000455,0.0,11160019071015020140301504054651012600007610080000
3204,ESMT,56.6911,12.8202,2024-05-29 00:20:00,,,,,12.0,1014.0,1322.8012416339438,11.0,1.0,,10000.0,99999,,1.0,0.0,11160036011012020110301404322851010600007000080000
3205,ESNG,67.1324,20.8146,2024-05-29 00:20:00,,,,,15.0,1014.0,4159.148326846268,12.0,4.0,300.0,10000.0,99999,,0.7999999999999545,0.0,11160030041015020120301404159151007600007000080000
3206,ESNK,63.0486,17.7689,2024-05-29 00:20:00,,,,,12.0,1014.0,1114.181246745325,11.0,2.0,350.0,10000.0,99999,,-0.5,0.0,11160035021012020110301404114151005600007000080000
3207,ESNL,64.5483,18.7162,2024-05-29 00:20:00,,,,,8.0,1014.0,5189.0811404296865,7.0,0.0,0.0,10000.0,99999,,0.0,0.0,1116000000100802070301404189051000600007000080000
3208,ESNX,65.5903,19.2819,2024-05-29 00:20:00,,,,,12.0,1014.0,6008.117386740481,10.0,3.0,290.0,10000.0,99999,,0.0,0.0,11160029031012020100301404008151000600007000080000
3209,ESOE,59.2237,15.038,2024-05-29 00:20:00,,,,,14.0,1013.0,1520.2257386408482,11.0,4.0,210.0,10000.0,99999,,1.2000000000000455,0.0,11160021041014020110301304520251012600007000080000
3211,ESTA,56.2961,12.8471,2024-05-29 00:20:00,,,,,9.0,1015.0,1290.9716941634172,9.0,3.0,80.0,10000.0,99999,,1.0,0.0,1116000803100902090301504290951010600007000080000
3212,ESTL,56.0828,13.2125,2024-05-29 00:20:00,,,,,9.0,1015.0,1610.7973652287722,9.0,3.0,80.0,10000.0,99999,,1.8999999999999773,0.0,1116000803100902090301504610751018600007000080000
3213,ESUT,65.8061,15.0828,2024-05-29 00:20:00,45.0,36.0,N,yellow,5.0,1016.0,14.656258272708827,4.0,0.0,0.0,450.0,99999,,0.2999999999999545,0.0,111000000010050204030160414651002600007450080000
3214,LIMZ,44.547,7.62322,2024-05-29 00:20:00,,,,,13.0,1016.0,5690.364814221344,12.0,4.0,190.0,10000.0,99999,,0.0,0.0,11160019041013020120301604690351000600007000080000
3215,EETN,59.4133,24.8328,2024-05-29 00:20:00,,,,,15.0,1017.0,1339.0057476379018,11.0,3.0,170.0,10000.0,99999,,0.6000000000000227,0.0,11160017031015020110301704339051006600007000080000
3216,EETU,58.3075,26.6904,2024-05-29 00:20:00,,,,,16.0,1018.0,1538.3267910232025,12.0,2.0,190.0,10000.0,99999,,0.2999999999999545,0.0,11160019021016020120301804538351002600007000080000
3217,EFHK,60.3172,24.9633,2024-05-29 00:20:00,,,,,11.0,1017.0,1643.9467079454855,9.0,3.0,100.0,10000.0,99999,,-0.20000000000004547,0.0,1116001003101102090301704643951007600007000080000
3219,EVLA,56.5175,21.0969,2024-05-29 00:20:00,,,,,17.0,1014.0,1046.8349235980231,11.0,6.0,100.0,10000.0,99999,,-1.0,0.0,11160010061017020110301404046851010600007000080000
3220,EVRA,56.9236,23.9711,2024-05-29 00:20:00,,,,,16.0,1016.0,1095.3876732615875,14.0,1.0,,10000.0,99999,,0.0,0.0,11160036011016020140301604095351000600007000080000
3221,EYKA,54.9639,24.0848,2024-05-29 00:20:00,,,,,17.0,1016.0,1591.7570147193217,12.0,4.0,80.0,10000.0,99999,,0.0,0.0,11160008041017020120301604591751000600007000080000
3222,EYPA,55.9732,21.0939,2024-05-29 00:20:00,,,,,19.0,1014.0,1074.9394935138953,10.0,8.0,150.0,10000.0,99999,,-1.1000000000000227,0.0,11160015081019020100301404074951018600007000080000
3223,EYVI,54.6341,25.2858,2024-05-29 00:20:00,,,,,18.0,1017.0,2528.4115655144683,11.0,1.0,,10000.0,99999,,-0.2999999999999545,0.0,11160036011018020110301704528451007600007000080000
3231,ENBL,61.3911,5.75694,2024-05-29 00:20:00,61.0,36.0,^,green,11.0,1007.0,5516.517847920884,10.0,0.0,0.0,10000.0,99999,,-3.1000000000000227,0.6,11160000001011020100300704516551038600607610080000
3232,ENEV,68.4913,16.6781,2024-05-29 00:20:00,,,,,12.0,1016.0,1271.0206835781469,11.0,4.0,210.0,10000.0,99999,,0.0,0.0,11160021041012020110301604271051000600007000080000
3233,ENKB,63.1118,7.82452,2024-05-29 00:20:00,61.0,36.0,^,green,13.0,1008.0,1605.3387981758665,11.0,8.0,20.0,10000.0,99999,,0.0,0.0,11160002081013020110300804605351000600007610080000
3235,ENRS,67.5278,12.1033,2024-05-29 00:20:00,45.0,36.0,N,yellow,10.0,1016.0,1040.4265338198966,10.0,0.0,0.0,100.0,99999,,0.0,0.0,11100000001010020100301604040451000600007450080000
3236,ENVD,70.0653,29.8447,2024-05-29 00:20:00,,,,,2.0,1019.0,3920.7495807975956,2.0,13.0,80.0,10000.0,99999,,0.0,0.0,1116000813100202020301904920751000600007000080000
3237,LGKR,39.6019,19.9117,2024-05-29 00:20:00,,,,,17.0,1013.0,1025.2486100782917,16.0,0.0,0.0,10000.0,99999,,-1.6000000000000227,0.0,11160000001017020160301304025251013600007000080000
3238,LGRP,36.4054,28.0862,2024-05-29 00:20:00,,,,,21.0,1011.0,1039.1316377483954,14.0,7.0,240.0,10000.0,99999,,-1.0,0.0,11160024071021020140301104039151010600007000080000
3248,EGJJ,49.2079,-2.19551,2024-05-29 00:20:00,61.0,36.0,^,green,14.0,1014.0,1788.2032626762943,14.0,14.0,240.0,600.0,99999,,-1.0,0.2,11100024141014020140301404788251010600207610080000
3252,EKBI,55.7403,9.15178,2024-05-29 00:20:00,,,,,9.0,1012.0,2123.325966575495,8.0,5.0,110.0,10000.0,99999,,-0.5,0.0,1116001105100902080301204123351005600007000080000
3253,EKEB,55.5259,8.5534,2024-05-29 00:20:00,,,,,11.0,1011.0,1334.3872269597045,9.0,7.0,110.0,10000.0,99999,,-2.2000000000000455,0.0,1116001107101102090301104334351027600007000080000
3254,EKRK,55.5856,12.1314,2024-05-29 00:20:00,,,,,9.0,1015.0,1638.6006809994085,9.0,5.0,170.0,10000.0,99999,,0.10000000000002274,0.0,1116001705100902090301504638651001600007000080000
3255,EKRN,55.0633,14.7596,2024-05-29 00:20:00,,,,,13.0,1016.0,1158.8551736690256,12.0,4.0,250.0,10000.0,99999,,-0.10000000000002274,0.0,11160025041013020120301604158851008600007000080000
3257,EGAA,54.6575,-6.21583,2024-05-29 00:20:00,,,,,12.0,1005.0,1882.1539297989373,11.0,8.0,250.0,10000.0,99999,,0.2999999999999545,0.0,11160025081012020110300504882151002600007000080000
3259,EGMD,50.9561,0.93917,2024-05-29 00:20:00,,,,,14.0,1010.0,1042.2644456456824,14.0,14.0,240.0,10000.0,99999,,0.0,0.0,11160024141014020140301004042251000600007000080000
3261,EGPL,57.4811,-7.36278,2024-05-29 00:20:00,,,,,11.0,1003.0,1062.9422249945042,10.0,3.0,40.0,10000.0,99999,,1.6000000000000227,0.0,11160004031011020100300304062951016600007000080000
3265,ESGT,58.3181,12.345,2024-05-29 00:20:00,,,,,13.0,1013.0,1404.3504067673027,10.0,5.0,220.0,10000.0,99999,,2.2000000000000455,0.0,11160022051013020100301304404351022600007000080000
3266,ESMX,56.9291,14.728,2024-05-29 00:20:00,,,,,13.0,1014.0,3058.865470189281,12.0,4.0,170.0,10000.0,99999,,0.7000000000000455,0.0,11160017041013020120301404058851007600007000080000
3267,ESNO,63.4083,18.99,2024-05-29 00:20:00,,,,,8.0,1014.0,2926.4725811694725,7.0,3.0,10.0,10000.0,99999,,-0.20000000000004547,0.0,1116000103100802070301404926451007600007000080000
3268,ESNU,63.7918,20.2828,2024-05-29 00:20:00,41.0,36.0,J,yellow,9.0,1015.0,1109.271554711974,8.0,2.0,140.0,100.0,99999,,0.2999999999999545,0.0,1110001402100902080301504109251002600007410080000
3269,ESSD,60.422,15.5152,2024-05-29 00:20:00,,,,,14.0,1013.0,2520.355279691645,8.0,2.0,,10000.0,99999,,0.39999999999997726,0.0,1116003602101402080301304520351003600007000080000
3270,ESSL,58.4062,15.6805,2024-05-29 00:20:00,,,,,15.0,1013.0,1441.1937310045514,12.0,5.0,220.0,10000.0,99999,,0.7000000000000455,0.0,11160022051015020120301304441151007600007000080000
3273,EDDB,52.36217,13.50067,2024-05-29 00:20:00,41.0,36.0,J,yellow,11.0,1017.0,1557.1006291796857,11.0,2.0,170.0,9000.0,99999,,-0.5,0.0,11150017021011020110301704557151005600007410080000
3274,EDDC,51.1328,13.7672,2024-05-29 00:20:00,,,,,10.0,1018.0,4544.236402350781,10.0,7.0,180.0,10000.0,99999,,-0.6000000000000227,0.0,11160018071010020100301804544251003600007000080000
3275,EDDE,50.9798,10.9581,2024-05-29 00:20:00,,,,,12.0,1016.0,5104.987936059538,6.0,8.0,190.0,10000.0,99999,,-1.3999999999999773,0.0,1116001908101202060301604104951016600007000080000
3276,EDDF,50.0264,8.54313,2024-05-29 00:20:00,,,,,16.0,1016.0,1921.116607033645,10.0,5.0,190.0,10000.0,99999,,-1.2999999999999545,0.0,11160019051016020100301604921151017600007000080000
3277,EDDG,52.1346,7.68483,2024-05-29 00:20:00,,,,,14.0,1013.0,1439.674594224093,13.0,8.0,190.0,10000.0,99999,,-1.0,0.2,11160019081014020130301304439651010600207000080000
3278,EDDH,53.6304,9.98823,2024-05-29 00:20:00,,,,,13.0,1013.0,1158.24855654692,10.0,8.0,140.0,10000.0,99999,,-1.8999999999999773,0.0,11160014081013020100301304158251011600007000080000
3279,EDDK,50.8659,7.14274,2024-05-29 00:20:00,,,,,14.0,1014.0,1865.6447248362838,13.0,7.0,160.0,10000.0,99999,,-1.8999999999999773,1.0,11160016071014020130301404865651011601007000080000
3280,EDDL,51.2895,6.76678,2024-05-29 00:20:00,80.0,36.0,q,green,14.0,1013.0,1402.8314941820508,13.0,10.0,170.0,7000.0,99999,,-1.7000000000000455,1.8,11140017101014020130301304402851012601807800080000
3281,EDDM,48.3538,11.7861,2024-05-29 00:20:00,,,,,8.0,1019.0,10.105038781649585,8.0,1.0,,10000.0,99999,,-0.5,0.0,111600360110080208030190410151005600007000080000
3282,EDDN,49.4987,11.0669,2024-05-29 00:20:00,,,,,8.0,1018.0,7427.69434186154,6.0,8.0,100.0,10000.0,99999,,-1.5,0.0,1116001008100802060301804427651015600007000080000
3283,EDDP,51.4324,12.2416,2024-05-29 00:20:00,,,,,10.0,1017.0,3046.8201361040456,8.0,7.0,160.0,10000.0,99999,,-0.5,0.0,1116001607101002080301704046851005600007000080000
3284,EDDR,49.2146,7.10951,2024-05-29 00:20:00,,,,,14.0,1017.0,4543.523726542354,11.0,5.0,220.0,10000.0,99999,,-1.0,0.0,11160022051014020110301704543551010600007000080000
3285,EDDS,48.6899,9.22196,2024-05-29 00:20:00,,,,,13.0,1017.0,5732.34665107613,9.0,1.0,200.0,10000.0,99999,,-1.6000000000000227,0.0,1116002001101302090301704732351013600007000080000
3286,EDDV,52.4611,9.68508,2024-05-29 00:20:00,61.0,36.0,^,green,14.0,1014.0,1507.2102161465211,11.0,2.0,,10000.0,99999,,-1.2999999999999545,0.0,11160036021014020110301404507251017600007610080000
3287,EDDW,53.0475,8.78667,2024-05-29 00:20:00,51.0,36.0,T,green,13.0,1012.0,1049.5332996801387,12.0,11.0,170.0,10000.0,99999,,-2.2999999999999545,0.3,11160017111013020120301204049551027600307510080000
3315,ESDF,56.2667,15.265,2024-05-29 00:20:00,,,,,13.0,1015.0,1575.045755600239,13.0,1.0,,10000.0,99999,,0.20000000000004547,0.0,11160036011013020130301504575051002600007000080000
3316,ESPA,65.5438,22.122,2024-05-29 00:20:00,,,,,11.0,1013.0,1226.121170655925,9.0,0.0,0.0,10000.0,99999,,0.10000000000002274,0.0,1116000000101102090301304226151001600007000080000
3330,ENHF,70.6797,23.6686,2024-05-29 00:20:00,,,,,6.0,1014.0,2930.5816432877605,6.0,0.0,0.0,10000.0,99999,,0.0,0.0,1116000000100602060301404930551000600007000080000
3331,ENHV,71.0097,25.9836,2024-05-29 00:20:00,,,,,6.0,1016.0,1283.7378432533385,4.0,2.0,,10000.0,99999,,0.2999999999999545,0.0,1116003602100602040301604283751002600007000080000
3332,ENNM,64.4722,11.5786,2024-05-29 00:20:00,,,,,12.0,1011.0,1031.238145121894,11.0,2.0,,10000.0,99999,,-2.0,0.0,11160036021012020110301104031251020600007000080000
3334,LIBR,40.6576,17.947,2024-05-29 00:20:00,,,,,17.0,1013.0,1110.611608707465,16.0,3.0,160.0,10000.0,99999,,-1.6000000000000227,0.0,11160016031017020160301304110651013600007000080000
3335,LICA,38.9054,16.2423,2024-05-29 00:20:00,,,,,19.0,1015.0,1087.2519176674475,16.0,2.0,,10000.0,99999,,-0.8999999999999773,0.0,11160036021019020160301504087251001600007000080000
3336,LICJ,38.176,13.091,2024-05-29 00:20:00,,,,,20.0,1014.0,1129.2464795349065,13.0,6.0,230.0,10000.0,99999,,-1.5,0.0,11160023061020020130301404129251015600007000080000
3337,LICR,38.0712,15.6516,2024-05-29 00:20:00,,,,,18.0,1014.0,1205.8132468007818,6.0,6.0,50.0,10000.0,99999,,-1.8999999999999773,0.0,1116000506101802060301404205851011600007000080000
3338,LIPE,44.5354,11.2887,2024-05-29 00:20:00,,,,,17.0,1015.0,1278.7324926157066,15.0,3.0,200.0,10000.0,99999,,-0.7999999999999545,0.0,11160020031017020150301504278751002600007000080000
3339,LIPR,44.0203,12.6117,2024-05-29 00:20:00,,,,,15.0,1015.0,1109.271554711974,14.0,1.0,,10000.0,99999,,-0.39999999999997726,0.0,11160036011015020140301504109251006600007000080000
3340,LIPZ,45.5053,12.3519,2024-05-29 00:20:00,,,,,17.0,1016.0,1030.338507700628,14.0,6.0,20.0,10000.0,99999,,0.0,0.0,11160002061017020140301604030351000600007000080000
3341,LIRZ,43.0959,12.5132,2024-05-29 00:20:00,,,,,15.0,1015.0,3039.170803815175,15.0,5.0,20.0,10000.0,99999,,-0.39999999999997726,0.0,11160002051015020150301504039151006600007000080000
3342,EDAC,50.98195,12.50639,2024-05-29 00:20:00,,,,,10.0,1018.0,3942.8607101796765,7.0,4.0,140.0,10000.0,99999,,-0.6000000000000227,0.0,1116001404101002070301804942851003600007000080000
3344,EDHL,53.8054,10.7192,2024-05-29 00:20:00,,,,,12.0,1014.0,1171.8715168049246,10.0,4.0,150.0,10000.0,99999,,-1.6000000000000227,0.0,11160015041012020100301404171851013600007000080000
3345,EDLW,51.5183,7.61224,2024-05-29 00:20:00,,,,,14.0,1013.0,2258.9150255267905,12.0,10.0,180.0,10000.0,99999,,-2.0,0.2,11160018101014020120301304258951020600207000080000
3347,EDTL,48.3693,7.82772,2024-05-29 00:20:00,,,,,14.0,1017.0,2557.6456841807326,9.0,1.0,,10000.0,99999,,-1.7999999999999545,0.0,1116003601101402090301704557651012600007000080000
3348,EDVE,52.3192,10.5561,2024-05-29 00:20:00,,,,,13.0,1015.0,1916.6824816677006,8.0,5.0,140.0,10000.0,99999,,-1.1000000000000227,0.0,1116001405101302080301504916651018600007000080000
3349,EDVK,51.40833,9.3775,2024-05-29 00:20:00,,,,,15.0,1014.0,3751.9480996069224,8.0,9.0,200.0,10000.0,99999,,-2.6000000000000227,0.0,1116002009101502080301404751951023600007000080000
3351,ENAT,69.9761,23.3717,2024-05-29 00:20:00,,,,,10.0,1015.0,1046.420027079079,5.0,6.0,160.0,10000.0,99999,,0.39999999999997726,0.0,1116001606101002050301504046451003600007000080000
3352,ENBS,70.6005,29.6914,2024-05-29 00:20:00,,,,,1.0,1019.0,19.962111788385233,1.0,8.0,160.0,10000.0,99999,,0.2999999999999545,0.0,111600160810010201030190419951002600007000080000
3353,ENFL,61.5836,5.02472,2024-05-29 00:20:00,61.0,36.0,^,green,13.0,1007.0,1106.9487630902986,12.0,8.0,350.0,10000.0,99999,,-3.6000000000000227,0.3,11160035081013020120300704106951033600307610080000
3354,ENHK,70.4867,22.1397,2024-05-29 00:20:00,,,,,6.0,1014.0,1138.3257486497318,5.0,2.0,130.0,10000.0,99999,,-0.20000000000004547,0.0,1116001302100602050301404138351007600007000080000
3355,ENKR,69.7258,29.8913,2024-05-29 00:20:00,,,,,4.0,1018.0,4294.986427946389,3.0,3.0,,10000.0,99999,,0.0,0.0,1116003603100402030301804294951000600007000080000
3356,ENMH,71.0297,27.8267,2024-05-29 00:20:00,,,,,4.0,1018.0,1380.1158606920887,2.0,6.0,120.0,10000.0,99999,,0.6000000000000227,0.0,1116001206100402020301804380151006600007000080000
3357,ENML,62.7447,7.2625,2024-05-29 00:20:00,61.0,36.0,^,green,14.0,1008.0,1032.731332655106,12.0,4.0,330.0,10000.0,99999,,-3.2999999999999545,0.0,11160033041014020120300804032751037600007610080000
3358,ENMS,65.784,13.2149,2024-05-29 00:20:00,,,,,9.0,1014.0,2077.1771433911576,8.0,2.0,,10000.0,99999,,0.0,0.0,1116003602100902080301404077151000600007000080000
3359,ENRM,64.8383,11.1461,2024-05-29 00:20:00,,,,,13.0,1011.0,1048.4962114393481,11.0,7.0,30.0,10000.0,99999,,-2.2000000000000455,0.0,11160003071013020110301104048451027600007000080000
3360,ENSK,68.57883,15.03342,2024-05-29 00:20:00,,,,,11.0,1016.0,1050.970738657501,10.0,6.0,260.0,10000.0,99999,,1.0,0.0,11160026061011020100301604050951010600007000080000
3365,ENBN,65.4611,12.2175,2024-05-29 00:20:00,,,,,12.0,1013.0,1086.2039840396296,11.0,8.0,20.0,6000.0,99999,,0.0,0.0,11130002081012020110301304086251000600007000080000
3366,ENBV,70.8714,29.0342,2024-05-29 00:20:00,,,,,3.0,1019.0,1552.6758017265975,3.0,9.0,130.0,10000.0,99999,,1.1000000000000227,0.0,1116001309100302030301904552651011600007000080000
3367,ENRA,66.3639,14.3014,2024-05-29 00:20:00,,,,,9.0,1015.0,2039.17050729476,8.0,1.0,240.0,10000.0,99999,,0.0,0.0,1116002401100902080301504039151000600007000080000
3368,LGSA,35.5317,24.1497,2024-05-29 00:20:00,,,,,17.0,1013.0,2188.338021917621,9.0,7.0,280.0,10000.0,99999,,-1.7999999999999545,0.0,1116002807101702090301304188351012600007000080000
3369,LIBD,41.1389,16.7606,2024-05-29 00:20:00,,,,,18.0,1014.0,1377.96160481899,16.0,4.0,270.0,10000.0,99999,,-1.0,0.0,11160027041018020160301404377951010600007000080000
3370,LIBP,42.4317,14.1811,2024-05-29 00:20:00,,,,,16.0,1014.0,1120.1972782146215,16.0,2.0,300.0,10000.0,99999,,-1.6000000000000227,0.0,11160030021016020160301404120151013600007000080000
3371,LICC,37.4668,15.0664,2024-05-29 00:20:00,,,,,18.0,1014.0,1090.2521213338473,12.0,8.0,240.0,10000.0,99999,,-1.7999999999999545,0.0,11160024081018020120301404090251012600007000080000
3372,LICD,35.4979,12.6181,2024-05-29 00:20:00,,,,,21.0,1014.0,1132.2695682174815,20.0,5.0,200.0,10000.0,99999,,-1.3999999999999773,0.0,11160020051021020200301404132251016600007000080000
3373,LIEA,40.6321,8.29077,2024-05-29 00:20:00,,,,,14.0,1015.0,1240.0213270192178,13.0,0.0,0.0,10000.0,99999,,-1.7000000000000455,0.0,11160000001014020130301504240051012600007000080000
3374,LIEE,39.2515,9.05428,2024-05-29 00:20:00,,,,,17.0,1015.0,1041.6706725113813,14.0,5.0,340.0,10000.0,99999,,-1.2000000000000455,0.0,11160034051017020140301504041651017600007000080000
3375,LIEO,40.8987,9.51763,2024-05-29 00:20:00,,,,,18.0,1015.0,1087.3563353679544,14.0,11.0,240.0,10000.0,99999,,-1.1000000000000227,0.0,11160024111018020140301504087351018600007000080000
3376,LIMC,45.6306,8.72811,2024-05-29 00:20:00,,,,,16.0,1016.0,3118.671079046566,13.0,5.0,20.0,10000.0,99999,,-0.39999999999997726,0.0,11160002051016020130301604118651006600007000080000
3377,LIMF,45.2008,7.64963,2024-05-29 00:20:00,,,,,18.0,1016.0,3469.414968736377,13.0,2.0,,10000.0,99999,,0.0,0.0,11160036021018020130301604469451000600007000080000
3378,LIMJ,44.4133,8.8375,2024-05-29 00:20:00,,,,,19.0,1015.0,1038.8493320505704,16.0,3.0,360.0,10000.0,99999,,-0.39999999999997726,0.0,11160036031019020160301504038851006600007000080000
3379,LIPH,45.6484,12.1944,2024-05-29 00:20:00,,,,,16.0,1016.0,1147.4135412238577,12.0,3.0,340.0,10000.0,99999,,0.20000000000004547,0.0,11160034031016020120301604147451002600007000080000
3380,LIPQ,45.8275,13.4722,2024-05-29 00:20:00,,,,,16.0,1016.0,1102.1167141260917,14.0,4.0,360.0,10000.0,99999,,0.10000000000002274,0.0,11160036041016020140301604102151001600007000080000
3381,LIPX,45.3957,10.8885,2024-05-29 00:20:00,,,,,19.0,1016.0,1490.2099870206046,13.0,3.0,80.0,10000.0,99999,,-0.39999999999997726,0.0,11160008031019020130301604490251006600007000080000
3382,LIPY,43.6163,13.3623,2024-05-29 00:20:00,,,,,18.0,1014.0,1110.1780350561814,15.0,1.0,,10000.0,99999,,-1.8999999999999773,0.0,11160036011018020150301404110151011600007000080000
3383,LIRA,41.7994,12.5949,2024-05-29 00:20:00,,,,,17.0,1015.0,2024.5037569064066,14.0,2.0,,10000.0,99999,,-0.2999999999999545,0.0,11160036021017020140301504024551007600007000080000
3384,LIRF,41.8045,12.2508,2024-05-29 00:20:00,,,,,17.0,1014.0,1044.7696803508954,16.0,4.0,80.0,10000.0,99999,,-1.5,0.0,11160008041017020160301404044751015600007000080000
3401,EBLG,50.6374,5.44322,2024-05-29 00:20:00,,,,,14.0,1014.0,3066.2474661812853,12.0,12.0,200.0,10000.0,99999,,-1.2999999999999545,0.2,11160020121014020120301404066251017600207000080000
3403,EDAH,53.8787,14.1523,2024-05-29 00:20:00,,,,,11.0,1016.0,1326.876765276251,10.0,4.0,80.0,10000.0,99999,,-0.6000000000000227,0.0,11160008041011020100301604326851003600007000080000
3413,EDSB,48.7794,8.0805,2024-05-29 00:20:00,,,,,16.0,1017.0,2045.690042296572,11.0,3.0,240.0,10000.0,99999,,-1.7000000000000455,0.0,11160024031016020110301704045651012600007000080000
3416,ELLX,49.6266,6.21152,2024-05-29 00:20:00,,,,,13.0,1016.0,5556.999471672131,12.0,7.0,210.0,10000.0,99999,,-1.3999999999999773,0.0,11160021071013020120301604556951016600007000080000
3420,ENOV,62.18,6.0741,2024-05-29 00:20:00,,,,,12.0,1007.0,1795.7515190391675,11.0,0.0,0.0,10000.0,99999,,0.0,0.0,11160000001012020110300704795751000600007000080000
3421,ENSD,61.83,6.10583,2024-05-29 00:20:00,,,,,14.0,1007.0,1534.3911014118582,12.0,2.0,,10000.0,99999,,0.0,0.0,11160036021014020120300704534351000600007000080000
3422,ENSG,61.1561,7.13778,2024-05-29 00:20:00,,,,,9.0,1006.0,1006.0,9.0,2.0,,10000.0,99999,,-2.3999999999999773,0.4,1116003602100902090300604006051026600407000080000
3423,ENSR,69.7868,20.9594,2024-05-29 00:20:00,,,,,9.0,1015.0,1077.4554513098494,8.0,2.0,,10000.0,99999,,1.6000000000000227,0.0,1116003602100902080301504077451016600007000080000
3424,ENSS,70.3554,31.0449,2024-05-29 00:20:00,,,,,3.0,1020.0,1554.1995267528257,1.0,17.0,120.0,9000.0,99999,,0.7999999999999545,0.0,1115001217100302010302004554151007600007000080000
3427,LGAD,37.9207,21.2926,2024-05-29 00:20:00,,,,,17.0,1014.0,1128.7133399604588,16.0,0.0,0.0,10000.0,99999,,-1.5,0.0,11160000001017020160301404128751015600007000080000
3428,LGKO,36.7933,27.0917,2024-05-29 00:20:00,,,,,18.0,1012.0,1919.662093836095,12.0,9.0,340.0,10000.0,99999,,-0.8999999999999773,0.0,11160034091018020120301204919651001600007000080000
3429,LGTS,40.5197,22.9709,2024-05-29 00:20:00,,,,,16.0,1013.0,1061.0720078469244,16.0,3.0,80.0,10000.0,99999,,-0.7000000000000455,0.0,11160008031016020160301304061051002600007000080000
3430,LIME,45.6739,9.70417,2024-05-29 00:20:00,,,,,19.0,1016.0,2780.365154476261,15.0,4.0,10.0,10000.0,99999,,-0.7999999999999545,0.3,11160001041019020150301604780351002600307000080000
3431,LIML,45.4451,9.27674,2024-05-29 00:20:00,,,,,19.0,1015.0,1738.1996488376005,16.0,4.0,70.0,10000.0,99999,,-0.8999999999999773,0.0,11160007041019020160301504738151001600007000080000
3432,LIRQ,43.81,11.2051,2024-05-29 00:20:00,,,,,16.0,1015.0,1341.8743880270183,14.0,2.0,120.0,10000.0,99999,,-0.6000000000000227,0.0,11160012021016020140301504341851003600007000080000
3433,LOWG,46.9911,15.4396,2024-05-29 00:20:00,,,,,14.0,1018.0,4762.268419413814,9.0,5.0,300.0,10000.0,99999,,-0.10000000000002274,0.0,1116003005101402090301804762251008600007000080000
3434,LOWI,47.2602,11.344,2024-05-29 00:20:00,,,,,8.0,1021.0,12.386700993542274,8.0,1.0,,10000.0,99999,,0.39999999999997726,0.0,111600360110080208030210412351003600007000080000
3435,LOWK,46.6425,14.3377,2024-05-29 00:20:00,,,,,13.0,1019.0,6525.145102671063,10.0,1.0,,10000.0,99999,,-0.2999999999999545,0.1,11160036011013020100301904525151007600107000080000
3436,LOWL,48.2332,14.1875,2024-05-29 00:20:00,45.0,36.0,N,yellow,9.0,1020.0,6301.358332426156,9.0,1.0,,400.0,99999,,-0.39999999999997726,0.0,1110003601100902090302004301351006600007450080000
3437,LOWS,47.7933,13.0043,2024-05-29 00:20:00,,,,,9.0,1020.0,8739.5576484612,8.0,6.0,190.0,10000.0,99999,,-0.5,0.0,1116001906100902080302004739551005600007000080000
3438,LOWW,48.1103,16.5697,2024-05-29 00:20:00,,,,,14.0,1018.0,2869.2489577045735,9.0,13.0,310.0,10000.0,99999,,-0.20000000000004547,0.0,1116003113101402090301804869251007600007000080000
3439,EDFH,49.9487,7.26389,2024-05-29 00:20:00,,,,,12.0,1016.0,7749.5198728971955,11.0,9.0,230.0,10000.0,99999,,-1.5,0.0,11160023091012020110301604749551015600007000080000
3440,EDFM,49.47306,8.51417,2024-05-29 00:20:00,,,,,17.0,1017.0,1721.9327092003596,10.0,4.0,180.0,10000.0,99999,,-1.2000000000000455,0.0,11160018041017020100301704721951017600007000080000
3441,EDHI,53.53528,9.83556,2024-05-29 00:20:00,,,,,13.0,1013.0,1075.0289463813042,9.0,3.0,130.0,10000.0,99999,,-1.7000000000000455,0.0,1116001303101302090301304075051012600007000080000
3442,EDHK,54.37944,10.14528,2024-05-29 00:20:00,,,,,12.0,1013.0,1324.7141907551425,9.0,5.0,160.0,10000.0,99999,,-1.7999999999999545,0.0,1116001605101202090301304324751012600007000080000
3443,EDLN,51.23028,6.50444,2024-05-29 00:20:00,,,,,15.0,1013.0,1318.2822514265656,14.0,5.0,180.0,6000.0,99999,,-1.2999999999999545,0.8,11130018051015020140301304318251017600807000080000
3444,EDLP,51.6141,8.61632,2024-05-29 00:20:00,,,,,14.0,1014.0,3209.0796647112707,11.0,9.0,190.0,10000.0,99999,,-1.7999999999999545,0.0,11160019091014020110301404209051012600007000080000
3445,EDMA,48.42528,10.93167,2024-05-29 00:20:00,,,,,10.0,1019.0,8477.91267501757,9.0,4.0,140.0,10000.0,99999,,-0.5,0.0,1116001404101002090301904477951005600007000080000
3446,EDMO,48.0814,11.2831,2024-05-29 00:20:00,,,,,7.0,1019.0,13.8992394149877,7.0,4.0,170.0,10000.0,99999,,-0.7000000000000455,0.0,111600170410070207030190413851002600007000080000
3447,EDNY,47.6713,9.51149,2024-05-29 00:20:00,,,,,8.0,1019.0,9.407129363054288,8.0,1.0,,10000.0,99999,,0.20000000000004547,0.0,11160036011008020803019049451002600007000080000
3448,EDQM,50.28861,11.85639,2024-05-29 00:20:00,,,,,7.0,1018.0,13.948222540286626,4.0,3.0,210.0,10000.0,99999,,-1.0,0.0,111600210310070204030180413951010600007000080000
3449,EDXW,54.9132,8.34047,2024-05-29 00:20:00,,,,,14.0,1010.0,1139.016395488343,10.0,12.0,150.0,10000.0,99999,,-3.3999999999999773,0.0,11160015121014020100301004139051036600007000080000
3460,EBCI,50.4592,4.45382,2024-05-29 00:20:00,,,,,14.0,1013.0,2904.250717075137,12.0,11.0,200.0,10000.0,99999,,-2.3999999999999773,0.3,11160020111014020120301304904251026600307000080000
3461,EBOS,51.1989,2.86222,2024-05-29 00:20:00,58.0,36.0,[,green,14.0,1011.0,1043.2963906413713,13.0,13.0,220.0,6000.0,99999,,-2.1000000000000227,0.0,11130022131014020130301104043251028600007580080000
3462,ESKM,60.9579,14.5114,2024-05-29 00:20:00,41.0,36.0,J,yellow,11.0,1012.0,3592.7983316396258,11.0,3.0,330.0,300.0,99999,,-0.39999999999997726,0.0,11100033031011020110301204592751006600007410080000
3474,EBAW,51.1894,4.46028,2024-05-29 00:20:00,,,,,15.0,1011.0,1102.5098833203683,14.0,9.0,200.0,10000.0,99999,,-2.8999999999999773,0.1,11160020091015020140301104102551021600107000080000
3476,EGPD,57.2019,-2.19778,2024-05-29 00:20:00,58.0,36.0,[,green,12.0,1003.0,1689.7907459114256,11.0,4.0,90.0,2000.0,99999,,-0.8999999999999773,0.0,11110009041012020110300304689751001600007580080000
3477,EGPK,55.5094,-4.58667,2024-05-29 00:20:00,,,,,12.0,1004.0,1196.9959969802067,12.0,3.0,200.0,10000.0,99999,,0.2999999999999545,0.1,11160020031012020120300404196951002600107000080000
3478,EGPO,58.2156,-6.33111,2024-05-29 00:20:00,,,,,9.0,1003.0,1104.0765799925823,8.0,0.0,0.0,10000.0,99999,,0.5,0.0,1116000000100902080300304104051005600007000080000
3479,EKAH,56.3,10.619,2024-05-29 00:20:00,,,,,10.0,1013.0,1313.1454510577778,9.0,3.0,130.0,10000.0,99999,,-1.0,0.0,1116001303101002090301304313151010600007000080000
3480,EKKA,56.2975,9.12463,2024-05-29 00:20:00,,,,,9.0,1012.0,1746.2700339809796,8.0,5.0,140.0,10000.0,99999,,-1.0,0.0,1116001405100902080301204746251010600007000080000
3481,EKYT,57.09276,9.84924,2024-05-29 00:20:00,,,,,9.0,1012.0,1050.7343536186845,8.0,7.0,160.0,10000.0,99999,,-0.7999999999999545,0.0,1116001607100902080301204050751002600007000080000
3482,ENAN,69.2925,16.1442,2024-05-29 00:20:00,,,,,10.0,1015.0,1168.7313883473796,8.0,8.0,280.0,10000.0,99999,,0.0,0.0,1116002808101002080301504168751000600007000080000
3483,ENBO,67.2692,14.3653,2024-05-29 00:20:00,10.0,36.0,+,yellow,11.0,1016.0,1152.1925560613279,11.0,0.0,0.0,1100.0,99999,,0.39999999999997726,0.0,11100000001011020110301604152151003600007100080000
3484,ENGM,60.1939,11.1004,2024-05-29 00:20:00,80.0,36.0,q,green,13.0,1010.0,3319.652953229883,12.0,15.0,200.0,10000.0,99999,,0.0,0.0,11160020151013020120301004319651000600007800080000
3485,ENOL,63.6989,9.604,2024-05-29 00:20:00,,,,,12.0,1009.0,1090.8086798146555,11.0,3.0,130.0,10000.0,99999,,-3.1000000000000227,0.0,11160013031012020110300904090851038600007000080000
3486,ENSH,68.2433,14.6692,2024-05-29 00:20:00,45.0,36.0,N,yellow,10.0,1016.0,1111.5662341667216,10.0,2.0,,750.0,99999,,0.5,0.0,11100036021010020100301604111551005600007450080000
3487,ESSA,59.6519,17.9186,2024-05-29 00:20:00,,,,,14.0,1014.0,1376.09347347208,10.0,5.0,90.0,10000.0,99999,,-0.20000000000004547,0.0,11160009051014020100301404376051007600007000080000
3497,EGSH,52.6758,1.28278,2024-05-29 00:20:00,,,,,15.0,1006.0,1288.814041640145,14.0,9.0,220.0,10000.0,99999,,-1.8999999999999773,0.2,11160022091015020140300604288851011600207000080000
3498,EBBR,50.9014,4.48444,2024-05-29 00:20:00,,,,,15.0,1012.0,1471.778453601104,13.0,12.0,200.0,10000.0,99999,,-2.3999999999999773,0.2,11160020121015020130301204471751026600207000080000
3501,EHDL,52.0606,5.87306,2024-05-29 00:25:00,80.0,36.0,q,green,14.0,1011.0,1431.1519942643733,14.0,10.0,200.0,10000.0,99999,,-1.7999999999999545,1.5,11160020101014020140301104431151012601507800080000
3503,EHLE,52.4603,5.52722,2024-05-29 00:25:00,10.0,36.0,+,yellow,15.0,1010.0,980.280268569983,14.0,12.0,200.0,5000.0,99999,,-1.6000000000000227,1.6,11130020121015020140301004980251013601607100080000
3508,ETHB,52.2785,9.08217,2024-05-29 00:20:00,,,,,13.0,1013.0,1697.1419090283464,11.0,9.0,190.0,10000.0,99999,,-1.7000000000000455,0.2,11160019091013020110301304697151012600207000080000
3516,ETNN,50.8312,6.65817,2024-05-29 00:20:00,,,,,15.0,1014.0,2038.158995652679,12.0,4.0,170.0,10000.0,99999,,-1.3999999999999773,1.4,11160017041015020120301404038151016601307000080000
3519,ETSL,48.1855,10.8612,2024-05-29 00:20:00,,,,,9.0,1019.0,10.84943410790015,8.0,6.0,180.0,10000.0,99999,,-0.5,0.0,111600180610090208030190410851005600007000080000
3521,LSMM,46.7433,8.11,2024-05-29 00:20:00,,,,,9.0,1019.0,11.203590384595273,8.0,0.0,0.0,10000.0,99999,,-1.6000000000000227,0.0,111600000010090208030190411251013600007000080000
3533,ETHS,52.9194,10.1975,2024-05-29 00:20:00,61.0,36.0,^,green,13.0,1014.0,1747.8944313964219,9.0,6.0,180.0,10000.0,99999,,-1.3999999999999773,0.0,1116001806101302090301404747851016600007610080000
3541,EFKI,64.2855,27.6924,2024-05-29 00:20:00,,,,,12.0,1015.0,2733.421296611347,9.0,3.0,170.0,10000.0,99999,,-0.39999999999997726,0.0,1116001703101202090301504733451006600007000080000
3542,EFKU,63.0071,27.7978,2024-05-29 00:20:00,,,,,16.0,1016.0,1809.0948228409857,12.0,2.0,,10000.0,99999,,0.20000000000004547,0.0,11160036021016020120301604809051002600007000080000
3585,EYSA,55.8939,23.395,2024-05-29 00:20:00,,,,,16.0,1016.0,2142.800675852853,12.0,6.0,140.0,10000.0,99999,,0.0,0.0,11160014061016020120301604142851000600007000080000
3621,ETIC,49.6987,11.9402,2024-05-29 00:23:00,45.0,36.0,N,yellow,6.0,30.06,12.037196390721787,6.0,0.0,0.0,200.0,99999,,-989.0400000000001,0.0,111000000010060206033004120519899600007450080000
3627,EHKD,52.9234,4.78062,2024-05-29 00:25:00,,,,,15.0,1008.0,1014.8989148956563,13.0,15.0,210.0,10000.0,99999,,-2.7000000000000455,0.5,11160021151015020130300804014851022600507000080000
3630,EGLF,51.2758,-0.77633,2024-05-29 00:20:00,,,,,14.0,1010.0,1663.014372585981,12.0,6.0,260.0,10000.0,99999,,-0.5,0.1,11160026061014020120301004663051005600107000080000
3631,EGPC,58.4589,-3.09306,2024-05-29 00:20:00,,,,,11.0,1003.0,1426.488090271491,11.0,6.0,110.0,10000.0,99999,,-1.2999999999999545,0.0,11160011061011020110300304426451017600007000080000
3641,LIRN,40.886,14.2908,2024-05-29 00:20:00,,,,,18.0,1015.0,1643.2507401615633,16.0,1.0,,10000.0,99999,,-0.8999999999999773,0.0,11160036011018020160301504643251001600007000080000
3643,EHBK,50.9117,5.77014,2024-05-29 00:25:00,,,,,15.0,1013.0,2015.2528503741844,13.0,14.0,200.0,10000.0,99999,,-1.6000000000000227,0.2,11160020141015020130301304015251013600207000080000
3644,EHGG,53.1197,6.57944,2024-05-29 00:25:00,,,,,14.0,1009.0,1051.2369104218594,13.0,10.0,190.0,10000.0,99999,,-2.2999999999999545,0.8,11160019101014020130300904051251027600807000080000
3645,EHRD,51.9569,4.43722,2024-05-29 00:25:00,,,,,15.0,1010.0,975.7420995750689,14.0,13.0,210.0,10000.0,99999,,-1.7000000000000455,0.1,11160021131015020140301004975751012600107000080000
3646,ETHC,52.5912,10.0221,2024-05-29 00:20:00,61.0,36.0,^,green,13.0,1014.0,1381.4849353860789,11.0,2.0,,10000.0,99999,,-0.8999999999999773,0.0,11160036021013020110301404381451001600007610080000
3647,ETHF,51.1146,9.286,2024-05-29 00:20:00,,,,,15.0,1015.0,5275.276393672722,9.0,3.0,,10000.0,99999,,-1.7999999999999545,0.0,1116003603101502090301504275251012600007000080000
3648,ETHL,48.2203,9.91002,2024-05-29 00:20:00,,,,,9.0,1018.0,10.562810954636682,7.0,2.0,280.0,10000.0,99999,,-1.3999999999999773,0.0,111600280210090207030180410551016600007000080000
3649,ETHN,49.39194,9.95889,2024-05-29 00:20:00,,,,,12.0,1018.0,6441.04823715821,6.0,4.0,160.0,10000.0,99999,,-0.8999999999999773,0.0,1116001604101202060301804441051001600007000080000
3650,ETMN,53.7677,8.6585,2024-05-29 00:20:00,61.0,36.0,^,green,13.0,1011.0,1212.7368826557704,11.0,10.0,180.0,10000.0,99999,,-2.8999999999999773,0.0,11160018101013020110301104212751021600007610080000
3651,ETNL,53.9182,12.2783,2024-05-29 00:20:00,,,,,10.0,1015.0,1538.3924928960328,10.0,4.0,90.0,10000.0,99999,,-1.3999999999999773,0.0,11160009041010020100301504538351016600007000080000
3653,ETSH,51.7678,13.1677,2024-05-29 00:20:00,,,,,10.0,1017.0,2090.873827467595,9.0,4.0,150.0,10000.0,99999,,-0.5,0.0,1116001504101002090301704090851005600007000080000
3654,ETSN,48.711,11.2115,2024-05-29 00:20:00,,,,,9.0,1019.0,7840.852879883834,8.0,1.0,20.0,10000.0,99999,,-0.10000000000002274,0.0,1116000201100902080301904840851008600007000080000
3676,LTCS,37.44566,38.89559,2024-05-29 00:20:00,,,,,16.0,1013.0,9.275237426205218,9.0,2.0,,10000.0,99999,,1.7000000000000455,0.0,11160036021016020903013049251017600007000080000
3680,LTFM,41.27533,28.752,2024-05-29 00:20:00,,,,,13.0,1014.0,2017.242241144544,11.0,5.0,190.0,10000.0,99999,,0.0,0.0,11160019051013020110301404017251000600007000080000
3702,LTAZ,38.7719,34.5345,2024-05-29 00:20:00,,,,,11.0,1016.0,13.991988694902597,10.0,8.0,140.0,10000.0,99999,,0.0,0.0,1116001408101102010030160413951000600007000080000
3703,LTBR,40.2552,29.5626,2024-05-29 00:20:00,,,,,9.0,1014.0,5019.043284288927,9.0,0.0,0.0,10000.0,99999,,-0.39999999999997726,0.0,1116000000100902090301404019051006600007000080000
3705,LTFC,37.8554,30.3684,2024-05-29 00:20:00,,,,,9.0,1015.0,15.129998704274438,8.0,1.0,,10000.0,99999,,1.7000000000000455,0.0,111600360110090208030150415151017600007000080000
3706,LTFJ,40.8986,29.3092,2024-05-29 00:20:00,,,,,14.0,1013.0,1895.04749895681,12.0,4.0,60.0,10000.0,99999,,-1.1000000000000227,0.0,11160006041014020120301304895051018600007000080000
3708,EHAM,52.3086,4.76389,2024-05-29 00:25:00,61.0,36.0,^,green,15.0,1009.0,983.8524892067675,14.0,13.0,220.0,10000.0,99999,,-2.3999999999999773,1.3,11160022131015020140300904983851026601307610080000
3746,LFCK,43.5563,2.28918,2024-05-29 00:30:00,,,,,13.0,1021.0,3778.6460900506613,11.0,2.0,90.0,10000.0,99999,,0.0,0.0,11160009021013020110302104778651000600007000080000
3747,LFLP,45.9292,6.09876,2024-05-29 00:30:00,,,,,11.0,1019.0,7815.471557740782,9.0,3.0,60.0,10000.0,99999,,-0.39999999999997726,0.0,1116000603101102090301904815451006600007000080000
3752,LFQA,49.2087,4.15658,2024-05-29 00:30:00,61.0,36.0,^,green,15.0,1015.0,1836.7627001370506,13.0,6.0,210.0,10000.0,99999,,-2.1000000000000227,0.0,11160021061015020130301504836751028600007610080000
3783,LFJR,47.5603,-0.31222,2024-05-29 00:30:00,61.0,36.0,^,green,14.0,1017.0,1543.7663603755539,12.0,5.0,210.0,10000.0,99999,,-1.8999999999999773,0.0,11160021051014020120301704543751011600007610080000
3797,LHKE,46.9175,19.7492,2024-05-29 00:15:00,,,,,15.0,1014.0,2020.2263203167818,12.0,6.0,320.0,10000.0,99999,,-0.2999999999999545,0.0,11160032061015020120301404020251007600007000080000
3798,LHPA,47.3636,17.5008,2024-05-29 00:15:00,,,,,13.0,1017.0,2526.370379468035,9.0,3.0,40.0,10000.0,99999,,0.0,0.0,1116000403101302090301704526351000600007000080000
3800,LHPR,47.6244,17.8136,2024-05-29 00:15:00,,,,,13.0,1017.0,2373.2975439845927,11.0,8.0,280.0,10000.0,99999,,0.8999999999999773,0.0,11160028081013020110301704373251008600007000080000
3801,LHSM,46.6864,17.1591,2024-05-29 00:15:00,,,,,13.0,1017.0,2315.6562505963675,9.0,9.0,310.0,10000.0,99999,,0.0,0.0,1116003109101302090301704315651000600007000080000
3802,LHSN,47.1229,20.2355,2024-05-29 00:15:00,,,,,17.0,1013.0,1750.2293207043951,12.0,6.0,320.0,10000.0,99999,,-0.39999999999997726,0.0,11160032061017020120301304750251006600007000080000
3805,LTAC,40.1281,32.9951,2024-05-29 00:20:00,,,,,8.0,1015.0,17.42793407793129,7.0,2.0,360.0,10000.0,99999,,2.3999999999999773,0.0,111600360210080207030150417451023600007000080000
3806,LTAG,37.0021,35.4259,2024-05-29 00:20:00,,,,,20.0,1012.0,1457.0760137095172,16.0,3.0,40.0,10000.0,99999,,0.0,0.0,11160004031020020160301204457051000600007000080000
3807,LTAI,36.8987,30.8005,2024-05-29 00:20:00,,,,,19.0,1011.0,1353.693000051618,17.0,1.0,,10000.0,99999,,-1.8999999999999773,0.0,11160036011019020170301104353651011600007000080000
3808,LTAJ,36.9472,37.4787,2024-05-29 00:20:00,,,,,12.0,1013.0,10.36343636567831,9.0,3.0,320.0,10000.0,99999,,4.0,0.0,111600320310120209030130410351040600007000080000
3809,LTAP,40.8294,35.522,2024-05-29 00:20:00,,,,,11.0,1013.0,8826.152518412744,11.0,0.0,0.0,10000.0,99999,,0.6000000000000227,2.1,11160000001011020110301304826151006602107000080000
3810,LTAT,38.4353,38.091,2024-05-29 00:20:00,,,,,10.0,1014.0,13.999876708343532,6.0,5.0,210.0,10000.0,99999,,2.8999999999999773,0.0,111600210510100206030140413951028600007000080000
3811,LTAU,38.7704,35.4954,2024-05-29 00:20:00,,,,,8.0,1016.0,18.55938401530834,7.0,3.0,60.0,8000.0,99999,,3.8999999999999773,0.0,111400060310080207030160418551038600007000080000
3812,LTBA,40.9769,28.8146,2024-05-29 00:20:00,,,,,16.0,1013.0,1390.5133709202216,11.0,1.0,70.0,10000.0,99999,,-1.3999999999999773,0.0,11160007011016020110301304390551016600007000080000
3813,LTBS,36.7131,28.7925,2024-05-29 00:20:00,,,,,16.0,1010.0,1053.5334134744905,14.0,1.0,,10000.0,99999,,-2.2000000000000455,0.0,11160036011016020140301004053551027600007000080000
3814,LTBU,41.1382,27.9191,2024-05-29 00:20:00,,,,,11.0,1013.0,3319.276880123011,8.0,0.0,0.0,10000.0,99999,,-1.0,0.0,1116000000101102080301304319251010600007000080000
3815,LTCE,39.9565,41.1702,2024-05-29 00:20:00,,,,,7.0,1019.0,25.321938085967826,4.0,2.0,,10000.0,99999,,8.600000000000023,0.0,111600360210070204030190425351086600007000080000
3816,LTCG,40.9951,39.7897,2024-05-29 00:20:00,,,,,18.0,1014.0,1222.4104316999756,16.0,1.0,,10000.0,99999,,0.8999999999999773,0.2,11160036011018020160301404222451008600207000080000
3817,LTFE,37.2506,27.6643,2024-05-29 00:20:00,,,,,15.0,1012.0,1060.9064699400892,13.0,2.0,,10000.0,99999,,0.0,0.0,11160036021015020130301204060951000600007000080000
3824,EPBY,53.0968,17.9777,2024-05-29 00:30:00,,,,,14.0,1017.0,1665.5057348605433,14.0,6.0,290.0,10000.0,99999,,0.0,0.0,11160029061014020140301704665551000600007000080000
3828,EPRA,51.38883,21.21167,2024-05-29 00:30:00,,,,,15.0,1015.0,2795.9563172765065,11.0,1.0,,10000.0,99999,,0.10000000000002274,0.0,11160036011015020110301504795951001600007000080000
3830,EPSY,53.48194,20.93778,2024-05-29 00:30:00,,,,,18.0,1015.0,2054.163646072121,10.0,5.0,40.0,10000.0,99999,,0.39999999999997726,0.0,11160004051018020100301504054151003600007000080000
3832,EGDR,50.0861,-5.25571,2024-05-29 00:20:00,63.0,36.0,',green,13.0,1012.0,1817.125598858678,13.0,11.0,240.0,4000.0,99999,,-0.39999999999997726,0.0,11120024111013020130301204817151006600007630080000
3833,EGKK,51.1481,-0.19028,2024-05-29 00:20:00,,,,,14.0,1010.0,1556.4747562749048,14.0,7.0,220.0,10000.0,99999,,-1.6000000000000227,0.2,11160022071014020140301004556451013600207000080000
3834,EGPH,55.95,-3.3725,2024-05-29 00:20:00,,,,,12.0,1002.0,1417.0056608821915,12.0,6.0,250.0,10000.0,99999,,-1.8999999999999773,0.3,11160025061012020120300204417051011600307000080000
3835,EGVN,51.75,-1.58362,2024-05-29 00:20:00,,,,,13.0,1008.0,1879.9419927171966,11.0,7.0,230.0,10000.0,99999,,-0.8999999999999773,0.0,11160023071013020110300804879951001600007000080000
3838,LBGO,43.1514,25.7129,2024-05-29 00:30:00,,,,,13.0,1012.0,1877.3099629717324,12.0,4.0,210.0,10000.0,99999,,-1.2999999999999545,0.0,11160021041013020120301204877351017600007000080000
3843,LIRP,43.6839,10.3927,2024-05-29 00:15:00,,,,,16.0,1015.0,1028.041938655822,16.0,1.0,,10000.0,99999,,-0.5,0.0,11160036011016020160301504028051005600007000080000
3850,LYBT,44.9353,20.2575,2024-05-29 00:30:00,,,,,16.0,1013.0,1649.599115168239,15.0,9.0,240.0,10000.0,99999,,-0.7000000000000455,0.0,11160024091016020150301304649551002600007000080000
3851,LYKV,43.8183,20.5872,2024-05-29 00:30:00,,,,,12.0,1014.0,3575.882410232896,11.0,3.0,310.0,10000.0,99999,,0.0,0.0,11160031031012020110301404575851000600007000080000
3855,LYVR,45.1469,21.3099,2024-05-29 00:30:00,,,,,10.0,1013.0,2132.493793450076,10.0,1.0,,10000.0,99999,,-0.39999999999997726,0.0,11160036011010020100301304132451006600007000080000
3943,LFLN,46.4125,4.01326,2024-05-29 00:30:00,,,,,12.0,1019.0,4068.2408185784843,11.0,2.0,180.0,10000.0,99999,,-1.1000000000000227,0.0,11160018021012020110301904068251018600007000080000
3952,LFYR,47.3208,1.68889,2024-05-29 00:30:00,,,,,14.0,1018.0,1832.4412803837415,11.0,4.0,220.0,10000.0,99999,,-1.2000000000000455,0.0,11160022041014020110301804832451017600007000080000
3958,LFBY,43.6892,-1.06889,2024-05-29 00:30:00,,,,,14.0,1020.0,1303.4441405099617,10.0,2.0,,10000.0,99999,,-1.2999999999999545,0.0,11160036021014020100302004303451017600007000080000
3969,LFPM,48.6047,2.67112,2024-05-29 00:30:00,,,,,14.0,1016.0,1869.324497469097,12.0,9.0,230.0,10000.0,99999,,-1.2000000000000455,0.0,11160023091014020120301604869351017600007000080000
3972,LFRL,48.2817,-4.44502,2024-05-29 00:30:00,10.0,36.0,+,yellow,14.0,1015.0,1820.844749317378,14.0,11.0,230.0,1800.0,99999,,-1.5,0.0,11110023111014020140301504820851015600007100080000
4000,EGXV,53.8758,-0.435,2024-05-29 00:20:00,,,,,13.0,1003.0,1099.8092540180394,12.0,9.0,240.0,10000.0,99999,,-1.3999999999999773,0.0,11160024091013020120300304099851016600007000080000
4027,EPLL,51.7219,19.3981,2024-05-29 00:30:00,,,,,16.0,1016.0,2615.1268940158698,14.0,6.0,300.0,10000.0,99999,,-0.10000000000002274,0.0,11160030061016020140301604615151008600007000080000
4029,LFBE,44.8253,0.51861,2024-05-29 00:30:00,,,,,11.0,1019.0,1616.7237043826433,11.0,1.0,60.0,9000.0,99999,,-1.7000000000000455,0.0,11150006011011020110301904616751012600007000080000
4030,LFBG,45.6583,-0.3175,2024-05-29 00:30:00,,,,,13.0,1020.0,1308.5311618552885,11.0,2.0,230.0,10000.0,99999,,-1.2000000000000455,0.0,11160023021013020110302004308551017600007000080000
4031,LFCR,44.4079,2.48267,2024-05-29 00:30:00,,,,,10.0,1020.0,10.34842454531492,9.0,2.0,190.0,10000.0,99999,,-1.0,0.0,111600190210100209030200410351010600007000080000
4032,LFJL,48.9821,6.25132,2024-05-29 00:30:00,,,,,14.0,1017.0,3842.7653020141506,12.0,6.0,180.0,10000.0,99999,,-1.3999999999999773,0.0,11160018061014020120301704842751016600007000080000
4036,LFMO,44.1405,4.86672,2024-05-29 00:30:00,,,,,17.0,1016.0,1450.3280187369528,10.0,8.0,310.0,10000.0,99999,,-1.2000000000000455,0.0,11160031081017020100301604450351017600007000080000
4038,LFOK,48.7761,4.18449,2024-05-29 00:30:00,,,,,14.0,1016.0,2818.0533889515314,12.0,8.0,210.0,10000.0,99999,,0.0,0.0,11160021081014020120301604818051000600007000080000
4039,LHDC,47.4889,21.6153,2024-05-29 00:15:00,,,,,15.0,1013.0,1967.7394462983157,10.0,2.0,50.0,10000.0,99999,,-0.5,0.0,11160005021015020100301304967751005600007000080000
4040,LHPP,45.9909,18.241,2024-05-29 00:15:00,,,,,15.0,1015.0,4069.592447830504,11.0,9.0,320.0,10000.0,99999,,-0.7000000000000455,0.0,11160032091015020110301504069551002600007000080000
4041,LKCV,49.9397,15.3818,2024-05-29 00:30:00,,,,,10.0,1018.0,4749.475264023958,9.0,4.0,150.0,10000.0,99999,,-0.7000000000000455,0.0,1116001504101002090301804749451002600007000080000
4042,LKNA,49.1658,16.1249,2024-05-29 00:30:00,61.0,36.0,^,green,12.0,1019.0,7345.85181784763,11.0,7.0,310.0,10000.0,99999,,0.2999999999999545,0.0,11160031071012020110301904345851002600007610080000
4043,LKPD,50.0134,15.7386,2024-05-29 00:30:00,,,,,12.0,1018.0,3826.2057766652324,11.0,3.0,250.0,10000.0,99999,,-0.5,0.0,11160025031012020110301804826251005600007000080000
4047,LZPP,48.6252,17.8284,2024-05-29 00:30:00,,,,,15.0,1016.0,2547.157366025212,11.0,7.0,340.0,10000.0,99999,,0.0,0.0,11160034071015020110301604547151000600007000080000
4048,LZZI,49.2315,18.6135,2024-05-29 00:30:00,,,,,15.0,1017.0,4147.104714807894,12.0,4.0,70.0,10000.0,99999,,0.0,0.0,11160007041015020120301704147151000600007000080000
4050,EBDT,50.9992,5.06556,2024-05-29 00:25:00,,,,,15.0,1012.0,1253.3994032178334,14.0,9.0,200.0,10000.0,99999,,-2.5,0.0,11160020091015020140301204253351025600007000080000
4051,EBFN,51.0903,2.65278,2024-05-29 00:25:00,61.0,36.0,^,green,14.0,1010.0,1059.8161088611782,13.0,14.0,230.0,3900.0,99999,,-2.7999999999999545,0.3,11120023141014020130301004059851022600307610080000
4061,LTAF,36.9822,35.2804,2024-05-29 00:20:00,,,,,21.0,1011.0,1120.3166574335614,19.0,1.0,,10000.0,99999,,-1.8999999999999773,0.3,11160036011021020190301104120351011600307000080000
4062,LTBJ,38.2924,27.157,2024-05-29 00:20:00,,,,,16.0,1012.0,2046.8452265830128,12.0,3.0,170.0,10000.0,99999,,-1.5,0.0,11160017031016020120301204046851015600007000080000
4063,LTCC,37.8939,40.201,2024-05-29 00:20:00,,,,,16.0,1013.0,7889.902530815952,10.0,1.0,,10000.0,99999,,4.2999999999999545,0.0,11160036011016020100301304889951042600007000080000
4064,LTCJ,37.929,41.1166,2024-05-29 00:20:00,,,,,15.0,1013.0,6918.640062452765,11.0,6.0,30.0,10000.0,99999,,1.8999999999999773,0.0,11160003061015020110301304918651018600007000080000
4068,ETOU,50.0498,8.3254,2024-05-29 00:30:00,61.0,36.0,^,green,16.0,30.01,2224.5702078673853,10.0,6.0,220.0,10000.0,99999,,-987.29,0.0,11160022061016020100330042245519877600007610080000
4076,LJCE,45.9,15.5302,2024-05-29 00:30:00,,,,,15.0,1018.0,2440.992707620168,14.0,2.0,,10000.0,99999,,0.0,0.0,11160036021015020140301804440951000600007000080000
4086,LFOV,48.0314,-0.74299,2024-05-29 00:30:00,51.0,36.0,T,green,14.0,1016.0,1957.478782729313,12.0,8.0,220.0,10000.0,99999,,-2.0,0.3,11160022081014020120301604957451020600307510080000
4088,LFRV,47.7233,-2.71856,2024-05-29 00:30:00,10.0,36.0,+,yellow,14.0,1016.0,2335.442233256122,14.0,7.0,230.0,4000.0,99999,,-2.2000000000000455,0.0,11120023071014020140301604335451027600007100080000
4092,LFAQ,49.9715,2.69766,2024-05-29 00:30:00,,,,,14.0,1013.0,2060.110136022198,13.0,12.0,230.0,10000.0,99999,,-1.5,0.0,11160023121014020130301304060151015600007000080000
4093,LFBU,45.7292,0.22146,2024-05-29 00:30:00,,,,,13.0,1020.0,2423.9062405132313,10.0,3.0,230.0,10000.0,99999,,-1.0,0.0,11160023031013020100302004423951010600007000080000
4097,LFOZ,47.8969,2.16333,2024-05-29 00:30:00,,,,,15.0,1017.0,2086.3421343593977,12.0,6.0,240.0,10000.0,99999,,-1.2999999999999545,0.0,11160024061015020120301704086351017600007000080000
4098,LFPT,49.0966,2.04083,2024-05-29 00:30:00,,,,,14.0,1015.0,1939.7317147023566,12.0,10.0,240.0,10000.0,99999,,-1.0,0.0,11160024101014020120301504939751010600007000080000
4124,LEMI,37.803,-1.125,2024-05-29 00:30:00,,,,,16.0,1020.0,2713.355143647231,12.0,4.0,310.0,10000.0,99999,,0.0,0.0,11160031041016020120302004713351000600007000080000
4126,LECH,40.21417,0.07333,2024-05-29 00:30:00,,,,,17.0,1019.0,4235.263363970635,14.0,6.0,200.0,9000.0,99999,,-0.20000000000004547,0.0,11150020061017020140301904235251007600007000080000
4164,EPWR,51.1027,16.8858,2024-05-29 00:30:00,,,,,13.0,1018.0,2303.5693000902834,12.0,2.0,,10000.0,99999,,-0.39999999999997726,0.0,11160036021013020120301804303551006600007000080000
4177,LFMK,43.216,2.30632,2024-05-29 00:30:00,,,,,17.0,1019.0,2048.386006321514,12.0,5.0,260.0,10000.0,99999,,-1.2999999999999545,0.0,11160026051017020120301904048351017600007000080000
4179,LFMU,43.3235,3.3539,2024-05-29 00:30:00,,,,,17.0,1018.0,1135.3074554231473,12.0,9.0,300.0,10000.0,99999,,-0.20000000000004547,0.0,11160030091017020120301804135351007600007000080000
4198,ULPB,61.8852,34.1547,2024-05-29 00:30:00,,,,,13.0,1017.0,1452.8441512653792,10.0,1.0,,10000.0,99999,,-0.7000000000000455,0.0,11160036011013020100301704452851002600007000080000
4202,UUBC,54.55,36.36667,2024-05-29 00:30:00,,,,,13.0,1020.0,3255.0036224953624,13.0,0.0,0.0,10000.0,99999,,0.0,0.0,11160000001013020130302004255051000600007000080000
4203,UUOB,50.6438,36.5901,2024-05-29 00:30:00,,,,,14.0,1019.0,3355.095100281318,4.0,3.0,60.0,10000.0,99999,,-0.2999999999999545,0.0,1116000603101402040301904355051007600007000080000
4204,UUOK,51.7506,36.2956,2024-05-29 00:30:00,,,,,14.0,1020.0,3181.238018754898,7.0,1.0,,10000.0,99999,,0.5,0.0,1116003601101402070302004181251005600007000080000
4207,UWPS,54.12513,45.21226,2024-05-29 00:30:00,,,,,10.0,1021.0,4142.473977380342,3.0,0.0,0.0,10000.0,99999,,-1.2999999999999545,0.0,1116000000101002030302104142451017600007000080000
4208,UUBW,55.5533,38.15,2024-05-29 00:30:00,,,,,11.0,1019.0,2456.332322852512,11.0,1.0,120.0,10000.0,99999,,-1.7999999999999545,0.0,11160012011011020110301904456351012600007000080000
4209,UUOL,52.7028,39.5378,2024-05-29 00:30:00,,,,,9.0,1021.0,4000.8125199300835,3.0,1.0,60.0,10000.0,99999,,0.0,0.0,1116000601100902030302104000851000600007000080000
4212,UWKS,56.0903,47.3473,2024-05-29 00:30:00,,,,,17.0,1018.0,2385.426646416885,6.0,5.0,280.0,10000.0,99999,,-1.5,0.0,1116002805101702060301804385451015600007000080000
4216,URMG,43.3883,45.6986,2024-05-29 00:30:00,,,,,13.0,1012.0,1012.0,7.0,3.0,350.0,10000.0,99999,,-2.8999999999999773,0.0,1116003503101302070301204012051021600007000080000
4219,URMO,43.2051,44.6066,2024-05-29 00:30:00,,,,,13.0,1012.0,7279.801146408854,8.0,3.0,90.0,10000.0,99999,,-2.3999999999999773,0.0,1116000903101302080301204279851026600007000080000
4221,URRP,47.50083,39.93361,2024-05-29 00:30:00,,,,,17.0,1015.0,1653.935852323254,4.0,7.0,80.0,10000.0,99999,,0.0,0.0,1116000807101702040301504653951000600007000080000
4228,UUDL,57.5607,40.1574,2024-05-29 00:30:00,,,,,11.0,1019.0,2076.429121694516,10.0,0.0,0.0,10000.0,99999,,-0.2999999999999545,0.0,11160000001011020100301904076451007600007000080000
4231,UUMO,55.5117,37.5072,2024-05-29 00:30:00,,,,,11.0,1020.0,3314.518041211956,10.0,0.0,0.0,10000.0,99999,,-0.2999999999999545,0.0,11160000001011020100302004314551007600007000080000
4236,LFBX,45.1981,0.81556,2024-05-29 00:30:00,,,,,11.0,1019.0,2247.2721144720495,10.0,0.0,0.0,10000.0,99999,,-1.7999999999999545,0.0,11160000001011020100301904247251012600007000080000
4237,LFLW,44.8914,2.42194,2024-05-29 00:30:00,,,,,10.0,1020.0,11.173171687828287,9.0,2.0,,10000.0,99999,,-1.2000000000000455,0.0,111600360210100209030200411151017600007000080000
4238,LFLX,46.8622,1.73067,2024-05-29 00:30:00,,,,,13.0,1018.0,2763.080644742051,11.0,5.0,220.0,10000.0,99999,,-1.7999999999999545,0.0,11160022051013020110301804763051012600007000080000
4239,LFMI,43.5227,4.92384,2024-05-29 00:30:00,,,,,19.0,1015.0,1169.3124014147331,9.0,9.0,340.0,10000.0,99999,,-1.6000000000000227,0.0,1116003409101902090301504169351013600007000080000
4248,LQMO,43.2829,17.8459,2024-05-29 00:30:00,,,,,16.0,1014.0,1374.6930085872082,15.0,3.0,70.0,10000.0,99999,,-1.2999999999999545,0.0,11160007031016020150301404374651017600007000080000
4257,LEHC,42.0761,-0.31667,2024-05-29 00:30:00,,,,,15.0,1019.0,6773.706985791842,9.0,2.0,,10000.0,99999,,1.6000000000000227,0.0,1116003602101502090301904773751016600007000080000
4260,LESB,39.5989,2.70278,2024-05-29 00:30:00,,,,,18.0,1019.0,1341.206143313355,14.0,2.0,360.0,10000.0,99999,,-1.0,0.0,11160036021018020140301904341251010600007000080000
4288,LRCL,46.7852,23.6862,2024-05-29 00:30:00,,,,,13.0,1013.0,4741.470399725862,9.0,3.0,270.0,10000.0,99999,,-1.8999999999999773,0.0,1116002703101302090301304741451011600007000080000
4289,LRIA,47.1785,27.6206,2024-05-29 00:30:00,81.0,36.0,r,green,14.0,1013.0,2167.0019651939656,14.0,2.0,,7000.0,99999,,-0.39999999999997726,2.1,11140036021014020140301304167051006602107810080000
4294,LEBG,42.3576,-3.62076,2024-05-29 00:30:00,,,,,10.0,1022.0,14.529217374626443,7.0,6.0,40.0,10000.0,99999,,2.7000000000000455,0.0,111600040610100207030220414551027600007000080000
4316,LRBC,46.5219,26.9103,2024-05-29 00:30:00,,,,,13.0,1013.0,3044.384038993796,12.0,7.0,350.0,10000.0,99999,,-1.8999999999999773,0.3,11160035071013020120301304044351011600307000080000
4317,LROD,47.0253,21.9025,2024-05-29 00:30:00,,,,,14.0,1013.0,2392.038265762667,10.0,2.0,,10000.0,99999,,-0.7999999999999545,0.0,11160036021014020100301304392051002600007000080000
4319,LRSB,45.7856,24.0913,2024-05-29 00:30:00,,,,,8.0,1014.0,10.106631434469303,8.0,0.0,0.0,10000.0,99999,,-0.7999999999999545,0.0,111600000010080208030140410151002600007000080000
4320,LRSV,47.6875,26.3541,2024-05-29 00:30:00,,,,,13.0,1014.0,6113.449160934393,12.0,3.0,40.0,10000.0,99999,,-0.8999999999999773,1.4,11160004031013020120301404113451001601307000080000
4327,GEML,35.2798,-2.95626,2024-05-29 00:30:00,,,,,20.0,1018.0,1304.1875689758126,17.0,4.0,100.0,10000.0,99999,,-0.8999999999999773,0.0,11160010041020020170301804304151001600007000080000
4328,EPGD,54.3776,18.4662,2024-05-29 00:30:00,,,,,13.0,1017.0,2611.216982884355,12.0,5.0,270.0,10000.0,99999,,0.7999999999999545,0.0,11160027051013020120301704611251007600007000080000
4329,EPKK,50.0777,19.7848,2024-05-29 00:30:00,,,,,15.0,1016.0,3357.0402907172866,12.0,6.0,230.0,10000.0,99999,,0.0,0.0,11160023061015020120301604357051000600007000080000
4330,EPKT,50.4743,19.08,2024-05-29 00:30:00,,,,,14.0,1017.0,4307.585620233081,13.0,6.0,310.0,10000.0,99999,,0.2999999999999545,0.0,11160031061014020130301704307551002600007000080000
4331,EPLB,51.24028,22.71361,2024-05-29 00:30:00,,,,,13.0,1015.0,3150.230062536027,10.0,1.0,100.0,10000.0,99999,,0.0,0.0,11160010011013020100301504150251000600007000080000
4332,EPMO,52.4511,20.6518,2024-05-29 00:30:00,,,,,17.0,1015.0,1801.7524859862697,13.0,6.0,260.0,10000.0,99999,,0.20000000000004547,0.0,11160026061017020130301504801751002600007000080000
4333,EPPO,52.421,16.8263,2024-05-29 00:30:00,,,,,13.0,1018.0,1966.711650397092,13.0,0.0,0.0,9000.0,99999,,0.10000000000002274,0.0,11150000001013020130301804966751001600007000080000
4334,EPRZ,50.11,22.019,2024-05-29 00:30:00,,,,,11.0,1015.0,3795.000195962244,10.0,4.0,360.0,10000.0,99999,,-0.20000000000004547,0.0,11160036041011020100301504795051007600007000080000
4335,EPSC,53.5847,14.9022,2024-05-29 00:30:00,45.0,36.0,N,yellow,10.0,1017.0,1607.4952731245166,10.0,2.0,100.0,600.0,99999,,-0.5,0.0,11100010021010020100301704607451005600007450080000
4336,EPWA,52.1657,20.9671,2024-05-29 00:30:00,,,,,17.0,1015.0,1855.3763862278224,10.0,3.0,260.0,10000.0,99999,,-0.10000000000002274,0.0,11160026031017020100301504855351008600007000080000
4338,LBBG,42.5696,27.5152,2024-05-29 00:30:00,,,,,12.0,1012.0,1431.147433944888,11.0,2.0,,10000.0,99999,,-1.6000000000000227,0.0,11160036021012020110301204431151013600007000080000
4339,LBPD,42.0678,24.8508,2024-05-29 00:30:00,,,,,14.0,1013.0,2844.659748982642,12.0,1.0,,10000.0,99999,,-1.5,0.0,11160036011014020120301304844651015600007000080000
4340,LBSF,42.69669,23.41144,2024-05-29 00:30:00,,,,,12.0,1014.0,8120.032705931159,10.0,4.0,340.0,10000.0,99999,,-0.5,0.0,11160034041012020100301404120051005600007000080000
4341,LBWN,43.2321,27.8251,2024-05-29 00:30:00,,,,,10.0,1012.0,1924.5536746578828,10.0,2.0,340.0,10000.0,99999,,-1.5,0.0,11160034021010020100301204924551015600007000080000
4342,LHBP,47.4369,19.2556,2024-05-29 00:30:00,,,,,17.0,1014.0,2203.997566963326,13.0,7.0,320.0,10000.0,99999,,-0.5,0.0,11160032071017020130301404203951005600007000080000
4343,LRAR,46.1766,21.262,2024-05-29 00:30:00,,,,,15.0,1012.0,1945.1410717208125,11.0,5.0,130.0,10000.0,99999,,-1.7000000000000455,0.0,11160013051015020110301204945151012600007000080000
4345,LRCK,44.3622,28.4883,2024-05-29 00:30:00,42.0,36.0,K,yellow,11.0,1012.0,2337.14042155921,10.0,5.0,290.0,8000.0,99999,,-1.2000000000000455,0.0,11140029051011020100301204337151017600007420080000
4346,LROP,44.5722,26.1022,2024-05-29 00:30:00,,,,,12.0,1012.0,2065.574219562629,12.0,5.0,270.0,10000.0,99999,,-2.7000000000000455,0.0,11160027051012020120301204065551022600007000080000
4347,LRTC,45.0625,28.7143,2024-05-29 00:30:00,,,,,14.0,1011.0,1552.1646385885351,13.0,0.0,0.0,10000.0,99999,,-2.2999999999999545,0.0,11160000001014020130301104552151027600007000080000
4348,LRTM,46.4677,24.4125,2024-05-29 00:30:00,,,,,12.0,1013.0,4770.709111777776,11.0,2.0,70.0,10000.0,99999,,-2.2999999999999545,0.0,11160007021012020110301304770751027600007000080000
4349,LRTR,45.8099,21.3379,2024-05-29 00:30:00,,,,,11.0,1012.0,2315.9726050298573,11.0,6.0,100.0,10000.0,99999,,-0.6000000000000227,0.0,11160010061011020110301204315951003600007000080000
4350,LUKK,46.9277,28.931,2024-05-29 00:30:00,80.0,36.0,q,green,16.0,1012.0,2010.4726258136618,15.0,7.0,320.0,10000.0,99999,,-2.0,1.0,11160032071016020150301204010451020601007800080000
4351,LDDU,42.5614,18.2682,2024-05-29 00:30:00,,,,,17.0,1014.0,2290.9449102676076,14.0,3.0,90.0,10000.0,99999,,-0.7000000000000455,0.0,11160009031017020140301404290951002600007000080000
4352,LDOS,45.4627,18.8102,2024-05-29 00:30:00,,,,,16.0,1015.0,1718.8590811142055,13.0,8.0,280.0,10000.0,99999,,0.7000000000000455,0.0,11160028081016020130301504718851007600007000080000
4353,LDPL,44.8935,13.9222,2024-05-29 00:30:00,,,,,18.0,1015.0,1596.958594313513,12.0,6.0,50.0,10000.0,99999,,-0.20000000000004547,0.0,11160005061018020120301504596951007600007000080000
4354,LDRI,45.2169,14.5703,2024-05-29 00:30:00,,,,,20.0,1016.0,1544.0044273490662,11.0,7.0,70.0,10000.0,99999,,0.7000000000000455,0.0,11160007071020020110301604544051007600007000080000
4355,LDSP,43.5389,16.298,2024-05-29 00:30:00,,,,,19.0,1014.0,1162.3612647816117,13.0,4.0,340.0,10000.0,99999,,-1.1000000000000227,0.0,11160034041019020130301404162351018600007000080000
4356,LDZA,45.7429,16.0688,2024-05-29 00:30:00,,,,,15.0,1017.0,1957.7126770024802,14.0,4.0,240.0,10000.0,99999,,-0.10000000000002274,0.0,11160024041015020140301704957751008600007000080000
4357,LDZD,44.1083,15.3467,2024-05-29 00:30:00,,,,,17.0,1015.0,1671.2471170047236,14.0,0.0,0.0,10000.0,99999,,-0.10000000000002274,0.0,11160000001017020140301504671251008600007000080000
4358,LJLJ,46.2237,14.4576,2024-05-29 00:30:00,61.0,36.0,^,green,13.0,1018.0,5725.8456301481265,13.0,1.0,,10000.0,99999,,0.20000000000004547,0.3,11160036011013020130301804725851002600307610080000
4359,LJMB,46.4799,15.6861,2024-05-29 00:30:00,,,,,14.0,1018.0,3868.745764515831,12.0,3.0,140.0,10000.0,99999,,-0.10000000000002274,0.0,11160014031014020120301804868751008600007000080000
4360,LJPZ,45.4734,13.615,2024-05-29 00:30:00,80.0,36.0,q,green,19.0,1015.0,1027.812518559077,12.0,7.0,110.0,10000.0,99999,,-0.5,0.0,11160011071019020120301504027851005600007800080000
4361,LKMT,49.6963,18.1111,2024-05-29 00:30:00,,,,,14.0,1018.0,3750.520381867449,11.0,3.0,350.0,10000.0,99999,,0.6000000000000227,0.0,11160035031014020110301804750551006600007000080000
4362,LKPR,50.1008,14.26,2024-05-29 00:30:00,,,,,9.0,1018.0,7822.003994162984,8.0,5.0,210.0,10000.0,99999,,-1.0,0.0,1116002105100902080301804822051010600007000080000
4363,LKTB,49.1513,16.6944,2024-05-29 00:30:00,,,,,14.0,1018.0,3508.279763812453,11.0,5.0,320.0,10000.0,99999,,-0.20000000000004547,0.0,11160032051014020110301804508251007600007000080000
4364,LQSA,43.8246,18.3315,2024-05-29 00:30:00,,,,,14.0,1017.0,6973.377446946765,14.0,3.0,270.0,10000.0,99999,,0.8999999999999773,0.0,11160027031014020140301704973351008600007000080000
4365,LYBE,44.8184,20.3091,2024-05-29 00:30:00,,,,,17.0,1014.0,1784.766439322405,14.0,9.0,230.0,10000.0,99999,,0.10000000000002274,0.0,11160023091017020140301404784751001600007000080000
4366,LYNI,43.3373,21.8537,2024-05-29 00:30:00,,,,,13.0,1014.0,3204.9425231235523,13.0,2.0,,10000.0,99999,,-0.10000000000002274,0.0,11160036021013020130301404204951008600007000080000
4367,LYPG,42.3594,19.2519,2024-05-29 00:30:00,,,,,16.0,1014.0,1338.1263588739862,15.0,3.0,270.0,10000.0,99999,,0.0,0.0,11160027031016020150301404338151000600007000080000
4368,LYTV,42.4047,18.7233,2024-05-29 00:30:00,,,,,16.0,1014.0,1057.7058230328053,16.0,0.0,0.0,10000.0,99999,,-0.7999999999999545,0.0,11160000001016020160301404057751002600007000080000
4369,LZIB,48.1702,17.2127,2024-05-29 00:30:00,,,,,15.0,1016.0,2205.998508433842,11.0,15.0,290.0,10000.0,99999,,-1.5,0.0,11160029151015020110301604205951015600007000080000
4370,LZKZ,48.6631,21.2411,2024-05-29 00:30:00,,,,,12.0,1014.0,3871.3701084672025,10.0,1.0,,10000.0,99999,,0.0,0.0,11160036011012020100301404871351000600007000080000
4371,LZTT,49.0736,20.2411,2024-05-29 00:30:00,,,,,10.0,1016.0,12.21880663193682,8.0,10.0,280.0,10000.0,99999,,-0.10000000000002274,0.0,111600281010100208030160412251008600007000080000
4376,LFAT,50.5174,1.62059,2024-05-29 00:30:00,,,,,15.0,1012.0,1096.4357908574389,14.0,14.0,240.0,10000.0,99999,,-1.2000000000000455,0.4,11160024141015020140301204096451017600407000080000
4377,LFBD,44.8283,-0.71556,2024-05-29 00:30:00,,,,,13.0,1020.0,1491.3110384771621,10.0,2.0,270.0,10000.0,99999,,-1.7999999999999545,0.0,11160027021013020100302004491351012600007000080000
4378,LFBH,46.1792,-1.19528,2024-05-29 00:30:00,,,,,16.0,1019.0,1185.3673374945934,12.0,10.0,240.0,10000.0,99999,,-1.6000000000000227,0.0,11160024101016020120301904185351013600007000080000
4379,LFBI,46.5877,0.30667,2024-05-29 00:30:00,,,,,11.0,1019.0,2656.913811847589,11.0,5.0,210.0,10000.0,99999,,-1.2999999999999545,0.0,11160021051011020110301904656951017600007000080000
4380,LFBO,43.6291,1.36382,2024-05-29 00:30:00,,,,,14.0,1020.0,2524.08965881333,12.0,3.0,190.0,10000.0,99999,,-0.7000000000000455,0.0,11160019031014020120302004524051002600007000080000
4381,LFBP,43.38,-0.41861,2024-05-29 00:30:00,,,,,14.0,1020.0,2931.396199654075,13.0,4.0,240.0,10000.0,99999,,-0.7999999999999545,0.0,11160024041014020130302004931351002600007000080000
4383,LFBZ,43.4684,-1.52332,2024-05-29 00:30:00,,,,,14.0,1020.0,1700.6881217949876,13.0,3.0,220.0,10000.0,99999,,-2.0,0.0,11160022031014020130302004700651020600007000080000
4385,LFKB,42.5527,9.48373,2024-05-29 00:30:00,,,,,15.0,1015.0,1075.8748421957278,13.0,3.0,220.0,10000.0,99999,,-0.7000000000000455,0.0,11160022031015020130301504075851002600007000080000
4386,LFKC,42.5308,8.79319,2024-05-29 00:30:00,,,,,14.0,1015.0,1584.802356595941,12.0,2.0,,10000.0,99999,,-0.7000000000000455,0.0,11160036021014020120301504584851002600007000080000
4387,LFKJ,41.9236,8.80292,2024-05-29 00:30:00,,,,,16.0,1015.0,1054.3387201714202,14.0,4.0,30.0,10000.0,99999,,-0.8999999999999773,0.0,11160003041016020140301504054351001600007000080000
4388,LFLB,45.6381,5.88023,2024-05-29 00:30:00,,,,,13.0,1019.0,3735.472688445057,11.0,1.0,280.0,10000.0,99999,,-0.10000000000002274,0.0,11160028011013020110301904735451008600007000080000
4389,LFLC,45.7867,3.16917,2024-05-29 00:30:00,,,,,13.0,1019.0,4988.739750451881,11.0,0.0,0.0,10000.0,99999,,-1.0,0.0,11160000001013020110301904988751010600007000080000
4390,LFLL,45.7264,5.09083,2024-05-29 00:30:00,,,,,14.0,1019.0,3669.4446817175367,11.0,2.0,240.0,10000.0,99999,,-0.2999999999999545,0.0,11160024021014020110301904669451007600007000080000
4391,LFLS,45.3629,5.32937,2024-05-29 00:30:00,,,,,13.0,1019.0,5848.851963684095,10.0,2.0,,10000.0,99999,,-0.39999999999997726,0.0,11160036021013020100301904848851006600007000080000
4392,LFLY,45.7272,4.94427,2024-05-29 00:30:00,,,,,13.0,1019.0,3263.4762087017457,11.0,0.0,0.0,10000.0,99999,,-0.2999999999999545,0.0,11160000001013020110301904263451007600007000080000
4393,LFMD,43.542,6.95348,2024-05-29 00:30:00,,,,,16.0,1015.0,1043.3473840783145,13.0,3.0,,10000.0,99999,,-0.6000000000000227,0.0,11160036031016020130301504043351003600007000080000
4394,LFMH,45.5406,4.29639,2024-05-29 00:30:00,,,,,11.0,1020.0,6914.212661929523,10.0,0.0,0.0,10000.0,99999,,0.10000000000002274,0.0,11160000001011020100302004914251001600007000080000
4395,LFML,43.43927,5.22142,2024-05-29 00:30:00,,,,,20.0,1015.0,1146.7405177527774,9.0,6.0,330.0,10000.0,99999,,-1.1000000000000227,0.0,1116003306102002090301504146751018600007000080000
4396,LFMN,43.6584,7.21587,2024-05-29 00:30:00,,,,,19.0,1015.0,1037.0063717880487,15.0,5.0,330.0,10000.0,99999,,-0.6000000000000227,0.0,11160033051019020150301504037051003600007000080000
4397,LFMP,42.7404,2.87067,2024-05-29 00:30:00,,,,,19.0,1018.0,1295.6857620375915,11.0,5.0,230.0,10000.0,99999,,-1.0,0.0,11160023051019020110301804295651010600007000080000
4398,LFMT,43.5762,3.96301,2024-05-29 00:30:00,,,,,19.0,1017.0,1048.2966448901277,12.0,6.0,310.0,10000.0,99999,,-0.8999999999999773,0.0,11160031061019020120301704048251001600007000080000
4399,LFOB,49.4544,2.11278,2024-05-29 00:30:00,,,,,15.0,1014.0,1969.6819334121344,13.0,10.0,230.0,10000.0,99999,,-1.5,0.0,11160023101015020130301404969651015600007000080000
4400,LFOH,49.5339,0.08806,2024-05-29 00:30:00,,,,,14.0,1013.0,1898.1809001288216,13.0,14.0,220.0,10000.0,99999,,-1.5,0.0,11160022141014020130301304898151015600007000080000
4402,LFOT,47.4322,0.72761,2024-05-29 00:30:00,,,,,14.0,1018.0,2047.7015369300987,12.0,8.0,230.0,10000.0,99999,,-1.0,0.0,11160023081014020120301804047751010600007000080000
4405,LFPN,48.7519,2.10619,2024-05-29 00:30:00,,,,,14.0,1015.0,2645.2315245599684,12.0,8.0,240.0,10000.0,99999,,-1.2999999999999545,0.0,11160024081014020120301504645251017600007000080000
4406,LFPO,48.7253,2.35944,2024-05-29 00:30:00,,,,,15.0,1016.0,1775.1126482056845,12.0,10.0,230.0,10000.0,99999,,-1.2000000000000455,0.0,11160023101015020120301604775151017600007000080000
4411,LFRD,48.5877,-2.07996,2024-05-29 00:30:00,61.0,36.0,^,green,15.0,1015.0,1571.2397116116542,14.0,9.0,220.0,8000.0,99999,,-1.2999999999999545,0.0,11140022091015020140301504571251017600007610080000
4412,LFRG,49.3653,0.15431,2024-05-29 00:30:00,,,,,14.0,1014.0,2441.5185392630765,12.0,10.0,220.0,10000.0,99999,,-1.2999999999999545,0.0,11160022101014020120301404441551017600007000080000
4414,LFRN,48.0695,-1.73479,2024-05-29 00:30:00,,,,,14.0,1016.0,1342.5017527044633,14.0,7.0,210.0,10000.0,99999,,-1.7999999999999545,0.0,11160021071014020140301604342551012600007000080000
4417,LFRT,48.5378,-2.85444,2024-05-29 00:30:00,,,,,15.0,1014.0,2253.8770624369986,13.0,11.0,230.0,10000.0,99999,,-1.7999999999999545,0.0,11160023111015020130301404253851012600007000080000
4419,LFSB,47.5896,7.52991,2024-05-29 00:30:00,,,,,13.0,1018.0,4155.199074304613,10.0,4.0,150.0,10000.0,99999,,-1.0,0.0,11160015041013020100301804155151010600007000080000
4421,LFST,48.5383,7.62823,2024-05-29 00:30:00,,,,,15.0,1017.0,2422.832432140518,12.0,1.0,,10000.0,99999,,-1.7999999999999545,0.0,11160036011015020120301704422851012600007000080000
4422,LFTW,43.7574,4.41635,2024-05-29 00:30:00,,,,,16.0,1017.0,1773.0935384616519,10.0,6.0,320.0,10000.0,99999,,-0.7999999999999545,0.0,11160032061016020100301704773051002600007000080000
4423,LFBA,44.1747,0.59056,2024-05-29 00:30:00,,,,,13.0,1019.0,1622.8573763305633,11.0,1.0,,10000.0,99999,,-2.0,0.0,11160036011013020110301904622851020600007000080000
4424,LFBC,44.5333,-1.125,2024-05-29 00:30:00,,,,,11.0,1020.0,1300.4418170314402,10.0,0.0,0.0,10000.0,99999,,-1.5,0.0,11160000001011020100302004300451015600007000080000
4425,LFBL,45.8628,1.17944,2024-05-29 00:30:00,,,,,12.0,1019.0,6277.760668598564,10.0,2.0,,10000.0,99999,,-1.6000000000000227,0.0,11160036021012020100301904277751013600007000080000
4426,LFBM,43.9117,-0.5075,2024-05-29 00:30:00,,,,,13.0,1020.0,1621.2329246622896,11.0,0.0,0.0,10000.0,99999,,-0.7999999999999545,0.0,11160000001013020110302004621251002600007000080000
4427,LFKF,41.5006,9.09778,2024-05-29 00:30:00,,,,,13.0,1015.0,1258.086668349858,12.0,2.0,,10000.0,99999,,-0.7999999999999545,0.0,11160036021013020120301504258051002600007000080000
4428,LFOE,49.0287,1.21986,2024-05-29 00:30:00,,,,,14.0,1015.0,2393.4012754970145,12.0,8.0,230.0,10000.0,99999,,-1.2999999999999545,0.0,11160023081014020120301504393451017600007000080000
4430,LFPB,48.9694,2.44139,2024-05-29 00:30:00,,,,,16.0,1015.0,1531.24051811038,13.0,8.0,210.0,10000.0,99999,,-1.7999999999999545,0.0,11160021081016020130301504531251012600007000080000
4431,LFPG,49.0128,2.55,2024-05-29 00:30:00,,,,,15.0,1015.0,2070.1928100352243,12.0,10.0,220.0,10000.0,99999,,-1.8999999999999773,0.0,11160022101015020120301504070151011600007000080000
4432,LFPV,48.7744,2.20154,2024-05-29 00:30:00,,,,,14.0,1015.0,2804.79949057122,12.0,8.0,240.0,10000.0,99999,,-2.0,0.0,11160024081014020120301504804751020600007000080000
4433,LFQB,48.3221,4.0167,2024-05-29 00:30:00,,,,,14.0,1017.0,2149.3969909260063,12.0,8.0,210.0,10000.0,99999,,-1.5,0.0,11160021081014020120301704149351015600007000080000
4434,LFQQ,50.5619,3.08944,2024-05-29 00:30:00,,,,,15.0,1012.0,1400.132075396038,14.0,12.0,210.0,10000.0,99999,,-2.0,0.0,11160021121015020140301204400151020600007000080000
4438,LFSD,47.2689,5.09,2024-05-29 00:30:00,,,,,11.0,1018.0,4046.8835829762193,10.0,1.0,160.0,10000.0,99999,,-1.5,0.0,11160016011011020100301804046851015600007000080000
4439,LFSI,48.636,4.89942,2024-05-29 00:30:00,,,,,16.0,1017.0,2187.853553147637,12.0,6.0,220.0,10000.0,99999,,-1.3999999999999773,0.0,11160022061016020120301704187851016600007000080000
4440,LFSL,45.03967,1.4855,2024-05-29 00:30:00,,,,,11.0,1020.0,5443.750070414736,10.0,0.0,0.0,10000.0,99999,,1.6000000000000227,0.0,11160000001011020100302004443751016600007000080000
4441,LFSO,48.5831,5.955,2024-05-29 00:30:00,,,,,14.0,1017.0,4723.762157394947,10.0,8.0,210.0,10000.0,99999,,-1.6000000000000227,0.0,11160021081014020100301704723751013600007000080000
4442,LFSX,47.7831,6.36406,2024-05-29 00:30:00,,,,,12.0,1018.0,4574.906381113547,10.0,0.0,0.0,10000.0,99999,,-1.2000000000000455,0.0,11160000001012020100301804574951017600007000080000
4443,LFTH,43.0973,6.14603,2024-05-29 00:30:00,,,,,15.0,1014.0,1030.2248006378074,12.0,5.0,10.0,10000.0,99999,,-1.2999999999999545,0.0,11160001051015020120301404030251017600007000080000
4447,ENNA,70.0688,24.9735,2024-05-29 00:20:00,,,,,6.0,1016.0,1164.9763885433024,4.0,10.0,180.0,10000.0,99999,,1.2999999999999545,0.0,1116001810100602040301604164951012600007000080000
4448,LPFR,37.0144,-7.96591,2024-05-29 00:30:00,,,,,18.0,1016.0,1062.7393929156428,16.0,2.0,,10000.0,99999,,-0.7000000000000455,0.0,11160036021018020160301604062751002600007000080000
4449,LPMA,32.6979,-16.7745,2024-05-29 00:30:00,,,,,19.0,1021.0,1398.2344024165604,13.0,11.0,10.0,10000.0,99999,,-1.0,0.0,11160001111019020130302104398251010600007000080000
4450,LPPR,41.2481,-8.68139,2024-05-29 00:30:00,,,,,13.0,1019.0,1700.654366238476,12.0,2.0,350.0,10000.0,99999,,-1.2000000000000455,0.0,11160035021013020120301904700651017600007000080000
4451,LPPS,33.0734,-16.35,2024-05-29 00:30:00,,,,,18.0,1021.0,1764.1922096560486,14.0,11.0,20.0,10000.0,99999,,-0.7999999999999545,0.0,11160002111018020140302104764151002600007000080000
4453,ULAA,64.6003,40.7167,2024-05-29 00:30:00,,,,,4.0,1018.0,1613.2421284243394,4.0,5.0,90.0,10000.0,99999,,-0.20000000000004547,0.2,1116000905100402040301804613251007600207000080000
4454,UMMS,53.8825,28.0307,2024-05-29 00:30:00,,,,,11.0,1018.0,3782.717594517534,11.0,1.0,,10000.0,99999,,-0.20000000000004547,0.0,11160036011011020110301804782751007600007000080000
4456,ULLI,59.8003,30.2625,2024-05-29 00:30:00,,,,,15.0,1018.0,1205.5889981100622,13.0,2.0,130.0,9000.0,99999,,-0.5,0.0,11150013021015020130301804205551005600007000080000
4457,ULMM,68.7817,32.7508,2024-05-29 00:30:00,,,,,3.0,1018.0,5238.123313644929,2.0,4.0,120.0,10000.0,99999,,0.39999999999997726,0.0,1116001204100302020301804238151003600007000080000
4458,UUDD,55.4088,37.9063,2024-05-29 00:30:00,,,,,16.0,1020.0,2577.209240625789,11.0,2.0,150.0,10000.0,99999,,-0.8999999999999773,0.0,11160015021016020110302004577251001600007000080000
4462,URKK,45.0347,39.1705,2024-05-29 00:30:00,,,,,17.0,1009.0,1260.0400571614487,10.0,3.0,120.0,10000.0,99999,,-2.2000000000000455,0.0,11160012031017020100300904260051027600007000080000
4463,URMM,44.2251,43.0819,2024-05-29 00:30:00,,,,,12.0,1013.0,5168.65367046325,9.0,3.0,90.0,10000.0,99999,,-1.5,0.0,1116000903101202090301304168651015600007000080000
4464,URMT,45.1092,42.1128,2024-05-29 00:30:00,,,,,14.0,1013.0,6126.87268848092,7.0,7.0,110.0,10000.0,99999,,-0.7000000000000455,0.0,1116001107101402070301304126851002600007000080000
4465,URSS,43.4499,39.9566,2024-05-29 00:30:00,95.0,36.0,2,red,19.0,1010.0,1177.0756402284626,18.0,4.0,10.0,9000.0,99999,,-0.5,0.0,11150001041019020180301004177051005600007950080000
4466,URWA,46.2833,48.0063,2024-05-29 00:30:00,,,,,18.0,1017.0,894.8970870792809,10.0,6.0,70.0,10000.0,99999,,-1.7999999999999545,0.0,11160007061018020100301704894851012600007000080000
4467,URWI,46.3739,44.3309,2024-05-29 00:30:00,,,,,13.0,1016.0,2653.144131446097,7.0,4.0,100.0,10000.0,99999,,-1.2000000000000455,0.0,1116001004101302070301604653151017600007000080000
4468,URWW,48.7825,44.3455,2024-05-29 00:30:00,,,,,13.0,1020.0,2592.947183217533,-1.0,6.0,80.0,10000.0,99999,,-1.1000000000000227,0.0,1116000806101302110302004592951018600007000080000
4470,UUOO,51.8142,39.2296,2024-05-29 00:30:00,,,,,9.0,1021.0,3597.709303495726,3.0,1.0,110.0,10000.0,99999,,0.10000000000002274,0.0,1116001101100902030302104597751001600007000080000
4474,UWKD,55.6062,49.2787,2024-05-29 00:30:00,,,,,11.0,1018.0,2601.6575062858137,6.0,3.0,260.0,10000.0,99999,,-1.5,0.0,1116002603101102060301804601651015600007000080000
4475,UWKE,55.5647,52.0925,2024-05-29 00:30:00,,,,,12.0,1016.0,3400.1679647889105,7.0,6.0,250.0,10000.0,99999,,-2.3999999999999773,0.0,1116002506101202070301604400151026600007000080000
4476,UWWW,53.5049,50.1643,2024-05-29 00:30:00,,,,,9.0,1020.0,3383.830581128118,4.0,3.0,240.0,10000.0,99999,,-1.8999999999999773,0.0,1116002403100902040302004383851011600007000080000
4477,LEAL,38.2822,-0.55816,2024-05-29 00:30:00,,,,,17.0,1019.0,1326.85098521677,12.0,2.0,290.0,10000.0,99999,,-1.1000000000000227,0.0,11160029021017020120301904326851018600007000080000
4478,LEAM,36.8439,-2.3701,2024-05-29 00:30:00,,,,,20.0,1018.0,1142.8161855280346,16.0,7.0,50.0,10000.0,99999,,-1.1000000000000227,0.0,11160005071020020160301804142851018600007000080000
4480,LEBB,43.3011,-2.91061,2024-05-29 00:30:00,,,,,12.0,1021.0,1453.9155559075018,12.0,3.0,90.0,10000.0,99999,,-1.2000000000000455,0.0,11160009031012020120302104453951017600007000080000
4481,LEBL,41.2971,2.07846,2024-05-29 00:30:00,,,,,17.0,1018.0,1042.6813379869761,15.0,7.0,250.0,10000.0,99999,,-1.3999999999999773,0.0,11160025071017020150301804042651016600007000080000
4483,LEDA,41.72819,0.53502,2024-05-29 00:30:00,,,,,16.0,1018.0,4419.492390471986,13.0,5.0,80.0,10000.0,99999,,0.2999999999999545,0.0,11160008051016020130301804419451002600007000080000
4484,LEGE,41.901,2.76055,2024-05-29 00:30:00,,,,,15.0,1018.0,2309.311913548014,14.0,2.0,270.0,10000.0,99999,,-0.2999999999999545,0.0,11160027021015020140301804309351007600007000080000
4486,LEIB,38.8729,1.37312,2024-05-29 00:30:00,,,,,17.0,1019.0,1068.6627542849906,14.0,1.0,,10000.0,99999,,-0.5,0.0,11160036011017020140301904068651005600007000080000
4488,LELC,37.775,-0.81239,2024-05-29 00:30:00,,,,,19.0,1019.0,1039.244273659066,16.0,4.0,310.0,9000.0,99999,,-1.1000000000000227,0.0,11150031041019020160301904039251018600007000080000
4489,LELL,41.5209,2.10508,2024-05-29 00:30:00,,,,,17.0,1019.0,2187.7576286595963,14.0,0.0,0.0,10000.0,99999,,-0.5,0.0,11160000001017020140301904187751005600007000080000
4490,LEMD,40.4936,-3.56676,2024-05-29 00:30:00,,,,,21.0,1018.0,5587.036881188297,8.0,2.0,,10000.0,99999,,3.2999999999999545,0.0,1116003602102102080301804587051032600007000080000
4492,LEMH,39.8626,4.21865,2024-05-29 00:30:00,,,,,16.0,1018.0,1756.0273140982254,13.0,5.0,300.0,10000.0,99999,,-1.3999999999999773,0.0,11160030051016020130301804756051016600007000080000
4493,LEPA,39.5517,2.73881,2024-05-29 00:30:00,,,,,16.0,1019.0,1078.4793429979231,15.0,5.0,70.0,10000.0,99999,,-0.5,0.0,11160007051016020150301904078451005600007000080000
4494,LEPP,42.77,-1.64633,2024-05-29 00:30:00,,,,,12.0,1020.0,7165.382481170913,11.0,2.0,90.0,10000.0,99999,,-0.7999999999999545,0.0,11160009021012020110302004165351002600007000080000
4495,LERS,41.1474,1.16717,2024-05-29 00:30:00,,,,,17.0,1019.0,1540.5920214106316,15.0,2.0,220.0,10000.0,99999,,-0.39999999999997726,0.0,11160022021017020150301904540551006600007000080000
4497,LEST,42.8963,-8.41514,2024-05-29 00:30:00,,,,,11.0,1022.0,6397.818768725351,10.0,1.0,30.0,10000.0,99999,,-0.5,0.0,11160003011011020100302204397851005600007000080000
4499,LEVC,39.4893,-0.48162,2024-05-29 00:30:00,,,,,18.0,1019.0,1525.3349813907348,14.0,3.0,260.0,10000.0,99999,,-0.7000000000000455,0.0,11160026031018020140301904525351002600007000080000
4500,LEVD,41.7061,-4.85194,2024-05-29 00:30:00,,,,,13.0,1021.0,11.354383302320219,10.0,7.0,90.0,10000.0,99999,,4.2999999999999545,0.0,1116000907101302010030210411351042600007000080000
4501,LEVT,42.8828,-2.72447,2024-05-29 00:30:00,,,,,9.0,1021.0,10.17131752770407,7.0,0.0,0.0,10000.0,99999,,-0.6000000000000227,0.0,111600000010090207030210410151003600007000080000
4502,LEVX,42.2318,-8.62677,2024-05-29 00:30:00,,,,,14.0,1021.0,3805.983773331707,12.0,5.0,350.0,10000.0,99999,,-0.5,0.0,11160035051014020120302104805951005600007000080000
4503,LEXJ,43.4271,-3.82001,2024-05-29 00:30:00,,,,,13.0,1021.0,1064.324525569779,11.0,1.0,,9000.0,99999,,-1.2000000000000455,0.0,11150036011013020110302104064351017600007000080000
4504,LEZG,41.6662,-1.04155,2024-05-29 00:30:00,,,,,20.0,1018.0,2883.6787912700584,10.0,7.0,300.0,10000.0,99999,,0.39999999999997726,0.0,11160030071020020100301804883651003600007000080000
4505,LEZL,37.418,-5.89311,2024-05-29 00:30:00,,,,,22.0,1016.0,1199.1593263197346,14.0,4.0,210.0,10000.0,99999,,-0.20000000000004547,0.0,11160021041022020140301604199151007600007000080000
4511,LELN,42.589,-5.65556,2024-05-29 00:30:00,,,,,11.0,1022.0,13.760079970558225,8.0,2.0,300.0,10000.0,99999,,3.1000000000000227,0.0,111600300210110208030220413751031600007000080000
4512,LESA,40.9521,-5.50199,2024-05-29 00:30:00,,,,,13.0,1021.0,10.745372962129359,10.0,3.0,170.0,10000.0,99999,,4.0,0.0,1116001703101302010030210410751040600007000080000
4514,LFMV,43.9073,4.90183,2024-05-29 00:30:00,,,,,17.0,1016.0,1282.2391204855687,9.0,8.0,340.0,10000.0,99999,,-1.0,0.0,1116003408101702090301604282251010600007000080000
4517,UMKK,54.89,20.5926,2024-05-29 00:30:00,,,,,16.0,1015.0,1107.7715421249927,15.0,0.0,0.0,10000.0,99999,,0.20000000000004547,0.0,11160000001016020150301504107751002600007000080000
4518,URML,42.8168,47.6523,2024-05-29 00:30:00,,,,,13.0,1012.0,1044.1357701816762,9.0,2.0,200.0,10000.0,99999,,-2.7000000000000455,0.0,1116002002101302090301204044151022600007000080000
4519,UWLL,54.2683,48.2267,2024-05-29 00:30:00,,,,,9.0,1020.0,3304.782810500153,3.0,2.0,190.0,10000.0,99999,,-1.7000000000000455,0.0,1116001902100902030302004304751012600007000080000
4520,LQBK,44.9414,17.2975,2024-05-29 00:30:00,,,,,16.0,1017.0,2023.2104134556225,14.0,8.0,310.0,10000.0,99999,,1.1000000000000227,0.8,11160031081016020140301704023251011600807000080000
4521,LQTZ,44.4587,18.7248,2024-05-29 00:30:00,,,,,11.0,1016.0,4313.87492411601,11.0,1.0,,10000.0,99999,,0.5,0.0,11160036011011020110301604313851005600007000080000
4522,UUYY,61.647,50.8451,2024-05-29 00:30:00,,,,,3.0,1019.0,6573.148994025875,3.0,1.0,360.0,10000.0,99999,,0.0,0.0,1116003601100302030301904573151000600007000080000
4524,LFRB,48.4479,-4.41854,2024-05-29 00:30:00,10.0,36.0,+,yellow,14.0,1015.0,1939.7317147023566,14.0,11.0,240.0,2700.0,99999,,-1.2999999999999545,0.1,11110024111014020140301504939751017600107100080000
4525,LPPT,38.7813,-9.13592,2024-05-29 00:30:00,,,,,17.0,1018.0,1891.822305196555,10.0,12.0,340.0,10000.0,99999,,-1.0,0.0,11160034121017020100301804891851010600007000080000
4526,LXGB,36.1512,-5.34966,2024-05-29 00:20:00,,,,,19.0,1018.0,1045.6208297893909,18.0,11.0,100.0,10000.0,99999,,-0.7999999999999545,0.0,11160010111019020180301804045651002600007000080000
4527,EGDM,51.1522,-1.74741,2024-05-29 00:20:00,,,,,13.0,1010.0,2296.1525775962946,11.0,8.0,240.0,10000.0,99999,,-0.10000000000002274,0.0,11160024081013020110301004296151008600007000080000
4533,EGUW,52.1273,0.95626,2024-05-29 00:20:00,,,,,13.0,1007.0,1864.6911364565235,13.0,12.0,260.0,3700.0,99999,,-1.7000000000000455,0.0,11120026121013020130300704864651012600007000080000
4534,EGVO,51.2341,-0.94283,2024-05-29 00:20:00,,,,,13.0,1010.0,2289.02706478615,12.0,12.0,230.0,10000.0,99999,,-0.2999999999999545,0.1,11160023121013020120301004289051007600107000080000
4535,EGVP,51.1394,-1.56861,2024-05-29 00:20:00,,,,,13.0,1010.0,1913.9916818679117,11.0,7.0,250.0,10000.0,99999,,0.0,0.0,11160025071013020110301004913951000600007000080000
4537,EGWU,51.553,-0.41817,2024-05-29 00:20:00,,,,,13.0,1009.0,1359.671386821536,11.0,9.0,260.0,10000.0,99999,,-0.5,0.3,11160026091013020110300904359651005600307000080000
4538,EGXE,54.2924,-1.5354,2024-05-29 00:20:00,63.0,36.0,',green,13.0,1004.0,1376.8470034536929,11.0,7.0,250.0,10000.0,99999,,-1.5,0.3,11160025071013020110300404376851015600307630080000
4539,EGXT,52.6126,-0.47645,2024-05-29 00:20:00,,,,,13.0,1006.0,1826.2242621857129,11.0,9.0,250.0,10000.0,99999,,-0.7999999999999545,0.0,11160025091013020110300604826251002600007000080000
4540,EGXW,53.1662,-0.52381,2024-05-29 00:20:00,,,,,13.0,1005.0,1686.9671181384729,11.0,10.0,240.0,10000.0,99999,,-2.2999999999999545,0.5,11160024101013020110300504686951027600507000080000
4541,EGXZ,54.2055,-1.38209,2024-05-29 00:20:00,61.0,36.0,^,green,13.0,1004.0,1258.9043187284863,12.0,6.0,260.0,10000.0,99999,,-0.39999999999997726,0.8,11160026061013020120300404258951006600807610080000
4554,EBBE,50.7586,4.76833,2024-05-29 00:35:00,,,,,15.0,1012.0,1998.3927293406668,13.0,13.0,200.0,10000.0,99999,,-2.6000000000000227,0.2,11160020131015020130301204998351023600207000080000
4555,EHLW,53.2286,5.76056,2024-05-29 00:36:00,53.0,36.0,V,green,14.0,1008.0,1015.3924662331079,14.0,13.0,210.0,5000.0,99999,,-2.7999999999999545,0.4,11130021131014020140300804015351022600407530080000
4558,EGVA,51.6822,-1.79003,2024-05-29 00:35:00,51.0,36.0,T,green,13.0,29.76,1913.6767554019689,11.0,8.0,240.0,10000.0,99999,,-979.04,0.0,11160024081013020110329749136519799600007510080000
4559,ETAR,49.4369,7.60028,2024-05-29 00:35:00,,,,,15.0,30.01,3352.0148504753884,11.0,3.0,250.0,10000.0,99999,,-988.39,0.0,11160025031015020110330043520519886600007000080000
4560,EGOM,55.05,-2.55,2024-05-29 00:20:00,,,,,11.0,1003.0,5588.914605539817,11.0,8.0,270.0,5000.0,99999,,-0.7000000000000455,0.3,11130027081011020110300304588951002600307000080000
4561,EGOS,52.7982,-2.66804,2024-05-29 00:20:00,,,,,12.0,1006.0,1815.451372441556,12.0,8.0,210.0,10000.0,99999,,-1.5,0.0,11160021081012020120300604815451015600007000080000
4562,EGOV,53.2481,-4.53534,2024-05-29 00:20:00,,,,,13.0,1006.0,1105.8495091051045,11.0,12.0,240.0,10000.0,99999,,-0.7000000000000455,0.3,11160024121013020110300604105851002600307000080000
4563,EGQK,57.6494,-3.56064,2024-05-29 00:20:00,61.0,36.0,^,green,12.0,1002.0,1065.6073398064455,11.0,2.0,100.0,10000.0,99999,,-1.8999999999999773,0.0,11160010021012020110300204065651011600007610080000
4564,EGUB,51.6164,-1.09583,2024-05-29 00:20:00,,,,,13.0,1009.0,1677.4979036040565,11.0,8.0,240.0,10000.0,99999,,0.10000000000002274,0.6,11160024081013020110300904677451001600607000080000
4565,EGWC,52.64,-2.30558,2024-05-29 00:20:00,,,,,99999.0,99999.0,99999.0,99999.0,4.0,250.0,10000.0,99999,,98992.3,0.0,11160025041099999020999990399904999051989923600007000080000
4566,EGYD,53.0303,-0.48324,2024-05-29 00:20:00,,,,,13.0,1006.0,1646.8046650651918,11.0,14.0,250.0,10000.0,99999,,-0.8999999999999773,0.0,11160025141013020110300604646851001600007000080000
4567,EGYE,52.9622,-0.56163,2024-05-29 00:20:00,,,,,13.0,1007.0,2148.4301006234014,11.0,11.0,260.0,10000.0,99999,,1.1000000000000227,0.0,11160026111013020110300704148451011600007000080000
4568,EGYM,52.6484,0.55069,2024-05-29 00:20:00,,,,,14.0,1006.0,1197.179751353789,13.0,10.0,230.0,10000.0,99999,,-1.7000000000000455,0.0,11160023101014020130300604197151012600007000080000
4569,EICK,51.8413,-8.49111,2024-05-29 00:30:00,,,,,9.0,1010.0,3491.1800525011863,8.0,6.0,230.0,10000.0,99999,,1.0,0.0,1116002306100902080301004491151010600007000080000
4570,EIDW,53.4213,-6.27007,2024-05-29 00:30:00,61.0,36.0,^,green,12.0,1007.0,1792.1756226145853,11.0,13.0,260.0,7000.0,99999,,0.6000000000000227,0.0,11140026131012020110300704792151006600007610080000
4571,EINN,52.702,-8.92482,2024-05-29 00:30:00,,,,,12.0,1009.0,1144.805016622826,11.0,9.0,250.0,10000.0,99999,,0.7999999999999545,0.1,11160025091012020110300904144851007600107000080000
4572,LFBT,43.1787,-0.00644,2024-05-29 00:30:00,,,,,13.0,1020.0,5684.379428665037,12.0,4.0,170.0,10000.0,99999,,-0.7999999999999545,0.0,11160017041013020120302004684351002600007000080000
4573,LFGJ,47.039,5.42725,2024-05-29 00:30:00,,,,,12.0,1019.0,3418.6998987906595,11.0,2.0,190.0,10000.0,99999,,-0.5,0.0,11160019021012020110301904418651005600007000080000
4574,LFKS,41.9244,9.406,2024-05-29 00:30:00,,,,,17.0,1014.0,1071.7524340602718,13.0,5.0,270.0,10000.0,99999,,-2.2000000000000455,0.0,11160027051017020130301404071751027600007000080000
4575,LFMC,43.3847,6.38714,2024-05-29 00:30:00,,,,,15.0,1015.0,1699.4063653591975,11.0,1.0,,10000.0,99999,,-0.20000000000004547,0.0,11160036011015020110301504699451007600007000080000
4576,LFMY,43.6064,5.10925,2024-05-29 00:30:00,,,,,17.0,1015.0,1444.1958527399677,9.0,6.0,340.0,10000.0,99999,,-1.1000000000000227,0.0,1116003406101702090301504444151018600007000080000
4577,LFOA,47.0533,2.6325,2024-05-29 00:30:00,,,,,13.0,1018.0,2956.113579342902,11.0,4.0,230.0,10000.0,99999,,-1.5,0.0,11160023041013020110301804956151015600007000080000
4578,LFOJ,47.9878,1.76056,2024-05-29 00:30:00,,,,,14.0,1016.0,2222.6692719292782,12.0,10.0,230.0,10000.0,99999,,-1.8999999999999773,0.0,11160023101014020120301604222651011600007000080000
4579,LFOP,49.3842,1.1748,2024-05-29 00:30:00,,,,,14.0,1014.0,2553.513357011725,13.0,11.0,230.0,10000.0,99999,,-1.5,0.0,11160023111014020130301404553551015600007000080000
4583,LFRJ,48.5303,-4.15164,2024-05-29 00:30:00,10.0,36.0,+,yellow,14.0,1015.0,2012.8354196346522,14.0,13.0,240.0,4400.0,99999,,-1.2999999999999545,0.2,11120024131014020140301504012851017600207100080000
4585,LFRM,47.9486,0.20167,2024-05-29 00:30:00,51.0,36.0,T,green,14.0,1017.0,1543.7663603755539,13.0,6.0,210.0,10000.0,99999,,-1.2999999999999545,0.0,11160021061014020130301704543751017600007510080000
4586,LFRQ,47.975,-4.16779,2024-05-29 00:30:00,58.0,36.0,[,green,14.0,1016.0,1853.7199416066344,14.0,11.0,230.0,6000.0,99999,,-1.3999999999999773,0.3,11130023111014020140301604853751016600307580080000
4587,LFRS,47.1532,-1.61073,2024-05-29 00:30:00,,,,,15.0,1017.0,1234.3843748430602,13.0,6.0,230.0,10000.0,99999,,-2.0,0.0,11160023061015020130301704234351020600007000080000
4588,LFRZ,47.3122,-2.14918,2024-05-29 00:30:00,,,,,16.0,1017.0,1045.4032409927545,13.0,11.0,240.0,10000.0,99999,,-1.8999999999999773,0.0,11160024111016020130301704045451011600007000080000
4589,LFSN,48.6921,6.23046,2024-05-29 00:30:00,,,,,15.0,1017.0,3225.528688869692,11.0,5.0,200.0,10000.0,99999,,-1.2999999999999545,0.0,11160020051015020110301704225551017600007000080000
4590,LEAB,38.9485,-1.86352,2024-05-29 00:30:00,,,,,17.0,1020.0,7678.828821420188,12.0,8.0,160.0,10000.0,99999,,2.3999999999999773,0.0,11160016081017020120302004678851023600007000080000
4591,LEAS,43.5636,-6.03462,2024-05-29 00:30:00,,,,,13.0,1021.0,2353.649834716411,12.0,4.0,240.0,10000.0,99999,,-2.0,0.0,11160024041013020120302104353651020600007000080000
4592,LEBA,37.842,-4.84888,2024-05-29 00:30:00,,,,,22.0,1017.0,1529.146523340728,15.0,4.0,250.0,10000.0,99999,,1.1000000000000227,0.0,11160025041022020150301704529151011600007000080000
4593,LECO,43.3021,-8.37726,2024-05-29 00:30:00,,,,,11.0,1022.0,2245.439714649026,10.0,4.0,170.0,10000.0,99999,,-1.1000000000000227,0.0,11160017041011020100302204245451018600007000080000
4594,LEGR,37.1887,-3.77736,2024-05-29 00:30:00,,,,,19.0,1019.0,5729.978094668546,15.0,4.0,250.0,10000.0,99999,,2.2999999999999545,0.0,11160025041019020150301904729951022600007000080000
4595,LEGT,40.2941,-3.72383,2024-05-29 00:30:00,,,,,20.0,1018.0,5916.427374879025,8.0,0.0,0.0,10000.0,99999,,1.7999999999999545,0.0,1116000000102002080301804916451017600007000080000
4596,LEJR,36.7446,-6.06011,2024-05-29 00:30:00,,,,,17.0,1016.0,1213.3175322523466,15.0,0.0,0.0,10000.0,99999,,-1.0,0.0,11160000001017020150301604213351010600007000080000
4597,LELO,42.46095,-2.32224,2024-05-29 00:30:00,,,,,13.0,1020.0,5282.292388957191,10.0,4.0,260.0,10000.0,99999,,-0.7000000000000455,0.0,11160026041013020100302004282251002600007000080000
4598,LEMG,36.6749,-4.49911,2024-05-29 00:30:00,,,,,19.0,1019.0,1118.0865111249009,17.0,2.0,,10000.0,99999,,-0.2999999999999545,0.0,11160036021019020170301904118051007600007000080000
4601,LESO,43.3565,-1.79061,2024-05-29 00:30:00,,,,,14.0,1021.0,1061.2045377436511,13.0,3.0,190.0,10000.0,99999,,-1.2999999999999545,0.0,11160019031014020130302104061251017600007000080000
4602,LETO,40.4967,-3.44587,2024-05-29 00:30:00,,,,,18.0,1018.0,6491.634572493464,9.0,6.0,30.0,10000.0,99999,,2.7999999999999545,0.0,1116000306101802090301804491651027600007000080000
4605,LFRI,46.7019,-1.37863,2024-05-29 00:30:00,,,,,15.0,1018.0,1801.6432879847862,12.0,6.0,230.0,10000.0,99999,,-2.0,0.0,11160023061015020120301804801651020600007000080000
4607,LRBM,47.6584,23.47,2024-05-29 00:30:00,,,,,13.0,1013.0,3036.7455912036444,10.0,3.0,40.0,10000.0,99999,,-0.8999999999999773,0.0,11160004031013020100301304036751001600007000080000
4608,LRBS,44.5032,26.1021,2024-05-29 00:30:00,,,,,12.0,1012.0,2002.1072416343532,11.0,4.0,250.0,10000.0,99999,,-1.3999999999999773,0.0,11160025041012020110301204002151016600007000080000
4609,LRCV,44.3181,23.8886,2024-05-29 00:30:00,,,,,11.0,1012.0,3555.695107151704,10.0,3.0,50.0,10000.0,99999,,-1.0,0.0,11160005031011020100301204555651010600007000080000
4610,URKA,45.0021,37.3473,2024-05-29 00:30:00,,,,,16.0,1009.0,1412.069387584409,14.0,2.0,120.0,10000.0,99999,,-1.7999999999999545,0.0,11160012021016020140300904412051012600007000080000
4611,UUEE,55.9726,37.4146,2024-05-29 00:30:00,,,,,13.0,1020.0,3123.226168870395,7.0,2.0,310.0,10000.0,99999,,-0.20000000000004547,0.0,1116003102101302070302004123251007600007000080000
4612,UUWW,55.5915,37.2615,2024-05-29 00:30:00,,,,,15.0,1020.0,3014.2197225276395,10.0,1.0,270.0,10000.0,99999,,-0.39999999999997726,0.0,11160027011015020100302004014251006600007000080000
4613,UWGG,56.2301,43.784,2024-05-29 00:30:00,,,,,10.0,1019.0,2054.226865230457,8.0,0.0,0.0,10000.0,99999,,-1.3999999999999773,0.0,1116000000101002080301904054251016600007000080000
4621,LERT,36.6452,-6.34946,2024-05-29 00:30:00,,,,,18.0,1016.0,1187.533258467682,17.0,2.0,40.0,10000.0,99999,,-0.7999999999999545,0.0,11160004021018020170301604187551002600007000080000
4622,LEMO,37.1749,-5.61594,2024-05-29 00:30:00,,,,,18.0,1017.0,1625.5585621181297,15.0,5.0,150.0,10000.0,99999,,0.39999999999997726,0.0,11160015051018020150301704625551003600007000080000
4626,LFRC,49.6501,-1.47028,2024-05-29 00:30:00,51.0,36.0,T,green,13.0,1013.0,2490.851669478466,13.0,17.0,260.0,6000.0,99999,,-1.2999999999999545,0.0,11130026171013020130301304490851017600007510080000
4627,LFRH,47.7606,-3.44,2024-05-29 00:30:00,,,,,15.0,1016.0,1413.5919153329748,14.0,15.0,240.0,3600.0,99999,,-1.7999999999999545,0.1,11120024151015020140301604413551012600107000080000
4628,LFRK,49.1733,-0.45,2024-05-29 00:30:00,,,,,15.0,1014.0,1672.4064362418328,13.0,7.0,220.0,10000.0,99999,,-1.3999999999999773,0.0,11160022071015020130301404672451016600007000080000
4635,ETNW,52.4573,9.42717,2024-05-29 00:40:00,61.0,36.0,^,green,13.0,1013.0,1559.2931817067556,12.0,5.0,160.0,9000.0,99999,,-1.8999999999999773,0.0,11150016051013020120301304559251011600007610080000
4636,EBFS,50.2433,4.64583,2024-05-29 00:42:00,,,,,13.0,1014.0,4339.332892725832,12.0,13.0,210.0,10000.0,99999,,-2.0,0.0,11160021131013020120301404339351020600007000080000
4637,EHEH,51.4501,5.37453,2024-05-29 00:36:00,80.0,36.0,q,green,15.0,1011.0,1187.4305015792688,14.0,7.0,180.0,10000.0,99999,,-3.2999999999999545,0.3,11160018071015020140301104187451037600307800080000
4638,EHGR,51.5674,4.93183,2024-05-29 00:42:00,63.0,36.0,',green,14.0,1011.0,1134.9579209910048,14.0,6.0,220.0,3900.0,99999,,-1.8999999999999773,0.0,11120022061014020140301104134951011600007630080000
4640,EHWO,51.4491,4.34203,2024-05-29 00:42:00,,,,,15.0,1010.0,1159.3151927458262,15.0,8.0,220.0,10000.0,99999,,-2.6000000000000227,0.3,11160022081015020150301004159351023600307000080000
4641,EHVK,51.6564,5.70861,2024-05-29 00:34:00,63.0,36.0,',green,15.0,1011.0,1182.5086083409617,14.0,7.0,190.0,10000.0,99999,,-2.8999999999999773,0.2,11160019071015020140301104182551021600207630080000
4643,ETAD,49.9727,6.6925,2024-05-29 00:37:00,,,,,13.0,29.98,5481.721568724313,12.0,11.0,230.0,10000.0,99999,,-987.62,0.2,11160023111013020120329944817519873600207000080000
4649,LIRM,41.0608,14.0819,2024-05-28 23:55:00,,,,,15.0,1016.0,1084.0622526353734,14.0,2.0,30.0,10000.0,99999,,0.6000000000000227,0.0,11160003021015020140301604084051006600007000080000
