,station,lat,lon,time,weather,weatherfont,weathersymbol,weathercolour,temperature,pressure,sl_pressure,dewpoint,windspeed,winddir,visibility,visual_range,cloudcover,pressure3h_change,rain,wwletter
22,EHWO,51.4491,4.34203,2024-05-24 11:47:00,95.0,36.0,2,red,14.0,1019.0,1180.7344584628406,14.0,2.0,,3900.0,99999,,0.0,0,11120036021014020140301904180751000600007950080000
57,EEEI,59.2603,24.2085,2024-05-24 11:50:00,,,,,28.0,1024.0,1106.5943556032485,10.0,12.0,210.0,10000.0,99999,,0.0,0,11160021121028020100302404106551000600007000080000
855,EKVD,55.4363,9.33092,2024-05-24 11:50:00,,,,,19.0,1021.0,1297.4771040819403,11.0,3.0,30.0,10000.0,99999,,0.0,0,11160003031019020110302104297451000600007000080000
874,EFRO,66.5648,25.8304,2024-05-24 11:50:00,,,,,19.0,1018.0,2431.024571051646,7.0,15.0,340.0,10000.0,99999,,0.0,0,1116003415101902070301804431051000600007000080000
906,LGKZ,40.2861,21.8408,2024-05-24 11:50:00,,,,,26.0,1018.0,4738.535511131416,5.0,0.0,0.0,10000.0,99999,,0.0,0,1116000000102602050301804738551000600007000080000
927,LIMW,45.7385,7.36872,2024-05-24 11:50:00,,,,,20.0,1017.0,5279.523818793261,8.0,7.0,90.0,10000.0,99999,,0.0,0,1116000907102002080301704279551000600007000080000
931,LIPK,44.1948,12.0701,2024-05-24 11:50:00,,,,,23.0,1018.0,1169.138916769989,10.0,8.0,110.0,10000.0,99999,,0.0,0,11160011081023020100301804169151000600007000080000
1121,LGLR,39.65628,22.34,2024-05-24 11:50:00,,,,,30.0,1015.0,1309.315354026235,8.0,5.0,240.0,10000.0,99999,,0.0,0,1116002405103002080301504309351000600007000080000
1126,LGSY,38.9676,24.4872,2024-05-24 11:50:00,,,,,23.0,1017.0,1084.4045571366908,16.0,5.0,360.0,10000.0,99999,,0.0,0,11160036051023020160301704084451000600007000080000
1127,LGTG,38.3398,23.565,2024-05-24 11:50:00,,,,,28.0,1016.0,1686.4636176997535,6.0,10.0,350.0,10000.0,99999,,0.0,0,1116003510102802060301604686451000600007000080000
1155,LSZL,46.1608,8.87861,2024-05-24 11:50:00,81.0,36.0,r,green,15.0,1019.0,2895.561626866787,12.0,1.0,,10000.0,99999,,0.0,0,11160036011015020120301904895551000600007810080000
1173,ETEK,49.6503,7.30007,2024-05-24 11:55:00,,,,,14.0,30.06,1030.06,9.2,0.0,0.0,10000.0,99999,,0.0,0,111600000010140209033004030051000600007000080000
1253,EGNX,52.8311,-1.32806,2024-05-24 11:50:00,,,,,13.0,1018.0,1959.8657335370478,8.0,6.0,230.0,10000.0,99999,,0.0,0,1116002306101302080301804959851000600007000080000
1349,LTAY,37.7856,29.7013,2024-05-24 11:50:00,,,,,16.0,1015.0,9.549019494709551,8.0,11.0,330.0,10000.0,99999,,0.0,0,11160033111016020803015049551000600007000080000
1352,LTBH,40.1377,26.4268,2024-05-24 11:50:00,,,,,27.0,1015.0,1044.728785270546,11.0,6.0,360.0,10000.0,99999,,0.0,0,11160036061027020110301504044751000600007000080000
1354,LTBY,39.8099,30.5194,2024-05-24 11:50:00,,,,,16.0,1015.0,8936.437465545958,10.0,14.0,310.0,10000.0,99999,,0.0,0,11160031141016020100301504936451000600007000080000
1356,LTCB,40.96667,38.08,2024-05-24 11:50:00,,,,,17.0,1010.0,1046.8247630718292,15.0,9.0,300.0,10000.0,99999,,0.0,0,11160030091017020150301004046851000600007000080000
1360,LTCN,37.53883,36.95352,2024-05-24 11:50:00,,,,,18.0,1009.0,5560.42465320783,14.0,9.0,260.0,10000.0,99999,,0.0,0,11160026091018020140300904560451000600007000080000
1361,LTCT,39.97663,43.87665,2024-05-24 11:50:00,,,,,21.0,1013.0,8235.246562514594,12.0,6.0,,10000.0,99999,,0.0,0,11160036061021020120301304235251000600007000080000
1362,LTDA,36.36278,36.28222,2024-05-24 11:50:00,,,,,25.0,1006.0,1403.3465612999435,17.0,23.0,210.0,10000.0,99999,,0.0,0,11160021231025020170300604403351000600007000080000
1363,LTFD,39.5546,27.0138,2024-05-24 11:50:00,,,,,26.0,1014.0,1081.5630023556728,11.0,6.0,300.0,10000.0,99999,,0.0,0,11160030061026020110301404081551000600007000080000
1364,LTFG,36.29922,32.3006,2024-05-24 11:50:00,,,,,27.0,1006.0,1118.0067877804036,11.0,11.0,240.0,10000.0,99999,,0.0,0,11160024111027020110300604118051000600007000080000
1366,LTAL,41.3142,33.7958,2024-05-24 11:50:00,,,,,19.0,1012.0,10.007791270971413,8.0,6.0,20.0,10000.0,99999,,0.0,0,111600020610190208030120410051000600007000080000
1367,LTAS,41.5064,32.0886,2024-05-24 11:50:00,,,,,21.0,1013.0,1078.15176266178,15.0,9.0,210.0,10000.0,99999,,0.0,0,11160021091021020150301304078151000600007000080000
1369,LTBD,37.815,27.8953,2024-05-24 11:50:00,,,,,27.0,1012.0,1146.18374448098,9.0,10.0,330.0,10000.0,99999,,0.0,0,1116003310102702090301204146151000600007000080000
1370,LTBO,38.6815,29.4717,2024-05-24 11:50:00,,,,,17.0,1015.0,9.348377684766012,8.0,7.0,320.0,10000.0,99999,,0.0,0,11160032071017020803015049351000600007000080000
1372,LTCL,37.9789,41.8404,2024-05-24 11:50:00,,,,,31.0,1007.0,3928.4413222816956,9.0,12.0,200.0,10000.0,99999,,0.0,0,1116002012103102090300704928451000600007000080000
1373,LTCM,42.0158,35.0664,2024-05-24 11:50:00,,,,,19.0,1011.0,1047.6440278776222,15.0,20.0,290.0,8000.0,99999,,0.0,0,11140029201019020150301104047651000600007000080000
1376,LTCR,37.2233,40.6317,2024-05-24 11:50:00,,,,,31.0,1006.0,3477.1724103200945,3.0,6.0,260.0,10000.0,99999,,0.0,0,1116002606103102030300604477151000600007000080000
1377,LTFB,37.9507,27.329,2024-05-24 11:50:00,,,,,27.0,1013.0,1025.8551123210073,12.0,8.0,10.0,10000.0,99999,,0.0,0,11160001081027020120301304025851000600007000080000
1378,LTFK,40.2045,25.8833,2024-05-24 11:50:00,,,,,27.0,1016.0,1111.6998010052303,13.0,5.0,290.0,10000.0,99999,,0.0,0,11160029051027020130301604111651000600007000080000
1407,EGYE,52.9622,-0.56163,2024-05-24 11:50:00,,,,,13.0,1018.0,2171.898552566656,9.0,7.0,230.0,10000.0,99999,,0.0,0,1116002307101302090301804171851000600007000080000
1460,EGQL,56.3729,-2.86844,2024-05-24 11:50:00,,,,,14.0,1015.0,1110.986888962539,11.0,7.0,110.0,10000.0,99999,,0.0,0,11160011071014020110301504110951000600007000080000
1477,ETIC,49.6987,11.9402,2024-05-24 11:55:00,,,,,15.4,30.04,5291.526400843425,11.6,6.0,140.0,10000.0,99999,,0.0,0,1116001406101542011433004291551000600007000080000
1485,LBPG,42.2904,24.714,2024-05-24 12:00:00,,,,,26.0,1016.0,1282.757831238137,11.0,4.0,20.0,10000.0,99999,,0.0,0,11160002041026020110301604282751000600007000080000
1486,LBIA,42.4549,26.3522,2024-05-24 12:00:00,,,,,27.0,1016.0,1751.58596209348,10.0,8.0,360.0,10000.0,99999,,0.0,0,11160036081027020100301604751551000600007000080000
1487,LBPL,43.4514,24.5028,2024-05-24 12:00:00,,,,,25.0,1017.0,1516.9048743839808,14.0,2.0,300.0,10000.0,99999,,0.0,0,11160030021025020140301704516951000600007000080000
1828,LTAB,39.935,32.7408,2024-05-24 11:50:00,,,,,16.0,1011.0,9.19506913933802,14.0,6.0,350.0,10000.0,99999,,0.0,0,111600350610160201403011049151000600007000080000
1829,LTAN,37.979,32.5619,2024-05-24 11:50:00,,,,,18.0,1011.0,10.114443655004548,6.0,8.0,330.0,10000.0,99999,,0.0,0,111600330810180206030110410151000600007000080000
1834,LTAW,40.30743,36.36741,2024-05-24 11:50:00,80.0,36.0,q,green,17.0,1010.0,6189.7997957657135,14.0,8.0,40.0,10000.0,99999,,0.0,0,11160004081017020140301004189751000600007800080000
1835,LTBF,39.6193,27.926,2024-05-24 11:50:00,,,,,25.0,1014.0,1528.712186031475,13.0,11.0,10.0,10000.0,99999,,0.0,0,11160001111025020130301404528751000600007000080000
1837,LTBT,38.8089,27.8339,2024-05-24 11:50:00,,,,,27.0,1013.0,1372.9746587648287,12.0,11.0,30.0,10000.0,99999,,0.0,0,11160003111027020120301304372951000600007000080000
1838,LTCA,38.6069,39.2914,2024-05-24 11:50:00,,,,,27.0,1006.0,6201.493610531904,5.0,16.0,190.0,10000.0,99999,,0.0,0,1116001916102702050300604201451000600007000080000
1841,LTFA,38.5176,26.9774,2024-05-24 11:50:00,,,,,27.0,1014.0,1030.7416772621254,13.0,17.0,300.0,10000.0,99999,,0.0,0,11160030171027020130301404030751000600007000080000
1942,LTAD,39.9498,32.6886,2024-05-24 11:50:00,,,,,16.0,1012.0,9.103562513101824,11.0,0.0,0.0,10000.0,99999,,0.0,0,111600000010160201103012049151000600007000080000
1944,LTAH,38.7264,30.6011,2024-05-24 11:50:00,,,,,14.0,1014.0,12.228291395233576,8.0,14.0,310.0,10000.0,99999,,0.0,0,111600311410140208030140412251000600007000080000
1945,LTBG,40.318,27.9777,2024-05-24 11:50:00,,,,,23.0,1015.0,1284.6889033506602,13.0,5.0,360.0,10000.0,99999,,0.0,0,11160036051023020130301504284651000600007000080000
1946,LTBQ,40.735,30.0833,2024-05-24 11:50:00,,,,,19.0,1015.0,1369.342166869852,14.0,9.0,260.0,10000.0,99999,,0.0,0,11160026091019020140301504369351000600007000080000
1948,LTCK,38.7478,41.6612,2024-05-24 11:50:00,,,,,18.0,1010.0,11.95768987273723,11.0,5.0,320.0,10000.0,99999,,0.0,0,1116003205101802011030100411951000600007000080000
2102,ULPB,61.8852,34.1547,2024-05-24 12:00:00,,,,,26.0,1025.0,1236.8038366746591,6.0,7.0,260.0,10000.0,99999,,0.0,0,1116002607102602060302504236851000600007000080000
2110,LTAE,40.0789,32.5656,2024-05-24 11:50:00,,,,,18.0,1011.0,8514.565877573692,12.0,7.0,240.0,10000.0,99999,,0.0,0,11160024071018020120301104514551000600007000080000
2157,LIPB,46.4602,11.3264,2024-05-24 11:50:00,,,,,22.0,1017.0,2527.2053599210376,10.0,4.0,170.0,10000.0,99999,,0.0,0,11160017041022020100301704527251000600007000080000
2181,LIMA,45.0864,7.60337,2024-05-24 11:50:00,,,,,18.0,1018.0,3346.164067044729,12.0,4.0,100.0,10000.0,99999,,0.0,0,11160010041018020120301804346151000600007000080000
2186,LIRI,40.6204,14.9113,2024-05-24 11:50:00,,,,,23.0,1018.0,1204.6154418103272,17.0,6.0,250.0,10000.0,99999,,0.0,0,11160025061023020170301804204651000600007000080000
2275,LRBM,47.6584,23.47,2024-05-24 12:00:00,,,,,29.0,1017.0,1840.1816648711022,8.0,8.0,170.0,10000.0,99999,,0.0,0,1116001708102902080301704840151000600007000080000
2459,LIPU,45.3958,11.8479,2024-05-24 11:50:00,,,,,22.0,1018.0,1088.58111741535,14.0,4.0,170.0,10000.0,99999,,0.0,0,11160017041022020140301804088551000600007000080000
2471,LPBJ,38.0789,-7.9324,2024-05-24 12:00:00,,,,,28.0,1015.0,1917.6512175471653,6.0,3.0,,10000.0,99999,,0.0,0,1116003603102802060301504917651000600007000080000
2480,UMII,55.1265,30.3496,2024-05-24 12:00:00,,,,,21.0,1029.0,2394.6857692446256,2.0,4.0,120.0,10000.0,99999,,0.0,0,1116001204102102020302904394651000600007000080000
2505,UWLW,54.401,48.8027,2024-05-24 12:00:00,,,,,17.0,1030.0,1603.8185385141942,-5.0,4.0,290.0,10000.0,99999,,0.0,0,1116002904101702150303004603851000600007000080000
2540,EGUL,52.4093,0.561,2024-05-24 11:55:00,,,,,17.0,30.07,1097.2309487895632,8.7,9.0,230.0,10000.0,99999,,0.0,0,111600230910170208033004097251000600007000080000
2542,EGVA,51.6822,-1.79003,2024-05-24 11:54:00,,,,,12.9,30.06,1921.828267384016,8.2,5.0,200.0,10000.0,99999,,0.0,0,111600200510129208933004921851000600007000080000
2575,EGEC,55.4372,-5.68639,2024-05-24 11:50:00,,,,,13.0,1015.0,1129.662285719101,11.0,9.0,290.0,10000.0,99999,,0.0,0,11160029091013020110301504129651000600007000080000
2586,EGWC,52.64,-2.30558,2024-05-24 11:50:00,,,,,12.0,1019.0,1923.1014613306286,9.0,6.0,200.0,10000.0,99999,,0.0,0,1116002006101202090301904923151000600007000080000
2645,LGHI,38.3432,26.1406,2024-05-24 11:50:00,,,,,25.0,1014.0,1034.8806727328865,12.0,11.0,20.0,10000.0,99999,,0.0,0,11160002111025020120301404034851000600007000080000
2646,LGKC,36.2743,23.017,2024-05-24 11:50:00,,,,,26.0,1018.0,2738.688423656212,13.0,8.0,140.0,10000.0,99999,,0.0,0,11160014081026020130301804738651000600007000080000
2647,LGNX,37.0811,25.3681,2024-05-24 11:50:00,,,,,25.0,1016.0,1029.9276429339814,17.0,8.0,360.0,10000.0,99999,,0.0,0,11160036081025020170301604029951000600007000080000
2649,LGSO,37.4228,24.9509,2024-05-24 11:50:00,,,,,25.0,1016.0,1365.2473439132284,14.0,10.0,20.0,10000.0,99999,,0.0,0,11160002101025020140301604365251000600007000080000
2650,LIMP,44.8245,10.2964,2024-05-24 11:50:00,,,,,22.0,1017.0,1284.4216611666245,12.0,6.0,140.0,10000.0,99999,,0.0,0,11160014061022020120301704284451000600007000080000
2655,LKKB,50.1214,14.5436,2024-05-24 12:00:00,61.0,36.0,^,green,16.0,1018.0,3668.1411558180575,14.0,9.0,80.0,7000.0,99999,,0.0,0,11140008091016020140301804668151000600007610080000
2657,LKLN,49.6752,13.2746,2024-05-24 12:00:00,61.0,36.0,^,green,15.0,1018.0,4738.940670371805,13.0,4.0,220.0,10000.0,99999,,0.0,0,11160022041015020130301804738951000600007610080000
2676,LTFH,41.2545,36.5671,2024-05-24 11:50:00,,,,,19.0,1011.0,1043.9546301738615,16.0,9.0,320.0,10000.0,99999,,0.0,0,11160032091019020160301104043951000600007000080000
2683,UMOO,53.9549,30.0951,2024-05-24 12:00:00,,,,,23.0,1029.0,2170.5951505686367,8.0,4.0,120.0,10000.0,99999,,0.0,0,1116001204102302080302904170551000600007000080000
2696,LIBC,38.9972,17.0802,2024-05-24 11:50:00,,,,,25.0,1019.0,1844.5831453947324,9.0,9.0,20.0,10000.0,99999,,0.0,0,1116000209102502090301904844551000600007000080000
2697,LICG,36.8165,11.9689,2024-05-24 11:50:00,,,,,28.0,1018.0,1910.7005311615667,2.0,11.0,80.0,10000.0,99999,,0.0,0,1116000811102802020301804910751000600007000080000
2699,LIMG,44.0506,8.12743,2024-05-24 11:50:00,,,,,20.0,1017.0,1287.5532815640743,14.0,12.0,40.0,10000.0,99999,,0.0,0,11160004121020020140301704287551000600007000080000
2702,LIQN,42.4272,12.8517,2024-05-24 11:50:00,,,,,24.0,1019.0,3393.2341388811196,9.0,5.0,310.0,10000.0,99999,,0.0,0,1116003105102402090301904393251000600007000080000
2708,LIRU,41.9519,12.4989,2024-05-24 11:50:00,,,,,26.0,1018.0,1092.7139834934108,8.0,3.0,150.0,10000.0,99999,,0.0,0,1116001503102602080301804092751000600007000080000
2715,LIBG,40.5175,17.4032,2024-05-24 11:50:00,,,,,28.0,1017.0,1298.2381282342244,13.0,5.0,,10000.0,99999,,0.0,0,11160036051028020130301704298251000600007000080000
2744,LIBF,41.4329,15.535,2024-05-24 11:52:00,,,,,27.0,1017.0,1381.3096543610673,12.0,10.0,90.0,10000.0,99999,,0.0,0,11160009101027020120301704381351000600007000080000
2765,LICT,37.9114,12.488,2024-05-24 11:55:00,,,,,27.0,1017.0,1049.3948839361517,10.0,8.0,290.0,10000.0,99999,,0.0,0,11160029081027020100301704049351000600007000080000
2766,LIBA,41.5414,15.7181,2024-05-24 11:55:00,,,,,26.0,1018.0,1274.9903936741136,14.0,13.0,90.0,10000.0,99999,,0.0,0,11160009131026020140301804274951000600007000080000
2767,LIBN,40.2392,18.1333,2024-05-24 11:55:00,,,,,27.0,1018.0,1227.2325635804489,16.0,9.0,50.0,10000.0,99999,,0.0,0,11160005091027020160301804227251000600007000080000
2768,LIBV,40.7678,16.9333,2024-05-24 11:55:00,,,,,24.0,1019.0,3201.1956606406684,13.0,12.0,20.0,10000.0,99999,,0.0,0,11160002121024020130301904201151000600007000080000
2770,LIED,39.3542,8.97248,2024-05-24 11:55:00,,,,,25.0,1017.0,1159.9957791549205,13.0,8.0,160.0,10000.0,99999,,0.0,0,11160016081025020130301704159951000600007000080000
2771,LIPF,44.816,11.6134,2024-05-24 11:55:00,,,,,26.0,1019.0,1045.9350967506932,15.0,2.0,160.0,10000.0,99999,,0.0,0,11160016021026020150301904045951000600007000080000
2772,LIPI,45.9787,13.0493,2024-05-24 11:55:00,,,,,22.0,1018.0,1317.1659257745102,14.0,4.0,170.0,10000.0,99999,,0.0,0,11160017041022020140301804317151000600007000080000
2773,LIPS,45.6849,12.0829,2024-05-24 11:55:00,,,,,22.0,1018.0,1244.177290508268,13.0,6.0,240.0,10000.0,99999,,0.0,0,11160024061022020130301804244151000600007000080000
2774,LIRE,41.6545,12.4452,2024-05-24 11:55:00,,,,,22.0,1019.0,1084.7698372640302,16.0,12.0,230.0,10000.0,99999,,0.0,0,11160023121022020160301904084751000600007000080000
2775,LIRG,41.9903,12.7408,2024-05-24 11:55:00,,,,,25.0,1019.0,1453.4763894502482,7.0,3.0,240.0,10000.0,99999,,0.0,0,1116002403102502070301904453451000600007000080000
2776,LIRL,41.5424,12.909,2024-05-24 11:55:00,,,,,26.0,1018.0,1147.0332923092287,14.0,99999.0,,10000.0,99999,,0.0,0,11160036999991026020140301804147051000600007000080000
2777,LIRS,42.7597,11.0719,2024-05-24 11:55:00,,,,,24.0,1018.0,1042.7674766548153,22.0,11.0,200.0,10000.0,99999,,0.0,0,11160020111024020220301804042751000600007000080000
2778,LIRV,42.4302,12.0642,2024-05-24 11:55:00,,,,,23.0,1019.0,2885.546016793753,8.0,8.0,250.0,10000.0,99999,,0.0,0,1116002508102302080301904885551000600007000080000
2779,LICZ,37.4017,14.9224,2024-05-24 11:55:00,,,,,27.0,1018.0,1121.9301972156863,12.0,15.0,100.0,10000.0,99999,,0.0,0,11160010151027020120301804121951000600007000080000
2783,LIRM,41.0608,14.0819,2024-05-24 11:55:00,,,,,24.0,1019.0,1061.444603707472,10.0,7.0,210.0,10000.0,99999,,0.0,0,11160021071024020100301904061451000600007000080000
2804,ETIH,49.2181,11.8361,2024-05-24 11:55:00,,,,,16.0,30.06,5421.361041716879,9.4,0.0,0.0,10000.0,99999,,0.0,0,111600000010160209033004421351000600007000080000
2819,ETAR,49.4369,7.60028,2024-05-24 11:55:00,,,,,18.2,30.02,2892.1809721655377,9.0,0.0,0.0,10000.0,99999,,0.0,0,111600000010181209133004892151000600007000080000
2822,LTCO,39.65454,43.02598,2024-05-24 12:08:00,95.0,36.0,2,red,17.0,1015.0,15.337945481586878,3.0,11.0,220.0,10000.0,99999,,0.0,0,111600221110170203030150415351000600007950080000
2833,LTAR,39.8138,36.9035,2024-05-24 12:05:00,,,,,12.0,1011.0,18.554052825896175,4.0,8.0,320.0,10000.0,99999,,0.0,0,111600320810120204030110418551000600007000080000
2843,LKKU,49.0294,17.4397,2024-05-24 12:00:00,80.0,36.0,q,green,18.0,1018.0,2359.7661180020054,15.0,3.0,340.0,10000.0,99999,,0.0,0,11160034031018020150301804359751000600007800080000
2844,LOAN,47.8433,16.2601,2024-05-24 12:00:00,95.0,36.0,2,red,99999.0,99999.0,99999.0,99999.0,8.0,30.0,10000.0,99999,,0.0,0,11160003081099999020999990399904999051000600007950080000
2853,LIMN,45.5296,8.66922,2024-05-24 11:55:00,,,,,17.0,1018.0,2463.312815211673,13.0,4.0,220.0,10000.0,99999,,0.0,0,11160022041017020130301804463351000600007000080000
2854,LIMS,44.9131,9.72333,2024-05-24 11:55:00,95.0,36.0,2,red,18.0,1017.0,2038.1884358212744,18.0,2.0,300.0,10000.0,99999,,0.0,0,11160030021018020180301704038151000600007950080000
2855,LIPA,46.0319,12.5965,2024-05-24 11:55:00,,,,,20.0,1018.0,1826.2265564582176,13.0,1.0,250.0,10000.0,99999,,0.0,0,11160025011020020130301804826251000600007000080000
2856,LIPC,44.2242,12.3072,2024-05-24 11:55:00,,,,,22.0,1019.0,1047.6592893791787,13.0,8.0,70.0,10000.0,99999,,0.0,0,11160007081022020130301904047651000600007000080000
2857,LIPL,45.4322,10.2677,2024-05-24 11:55:00,,,,,21.0,1017.0,1626.5531066720598,14.0,3.0,240.0,10000.0,99999,,0.0,0,11160024031021020140301704626551000600007000080000
2858,LIRH,41.6464,13.2998,2024-05-24 11:55:00,,,,,25.0,1018.0,1018.0,8.0,5.0,320.0,10000.0,99999,,0.0,0,1116003205102502080301804018051000600007000080000
2859,EGUN,52.3619,0.48641,2024-05-24 11:55:00,,,,,17.0,30.07,1099.358593605184,9.0,6.0,220.0,10000.0,99999,,0.0,0,111600220610170209033004099351000600007000080000
2877,LPOV,40.9159,-8.64592,2024-05-24 12:00:00,,,,,19.0,1017.0,1121.604595054936,15.0,6.0,280.0,10000.0,99999,,0.0,0,11160028061019020150301704121651000600007000080000
2879,ETOU,50.0498,8.3254,2024-05-24 11:55:00,,,,,16.4,30.04,2191.9710325894994,11.9,0.0,0.0,10000.0,99999,,0.0,0,1116000000101632011333004191951000600007000080000
2886,LTCP,37.7314,38.4689,2024-05-24 12:16:00,,,,,24.0,1007.0,5372.788841728104,11.0,15.0,270.0,10000.0,99999,,0.0,0,11160027151024020110300704372751000600007000080000
2887,LMML,35.8575,14.4775,2024-05-24 12:15:00,80.0,36.0,q,green,23.0,1018.0,1512.0174309224196,17.0,10.0,100.0,10000.0,99999,,0.0,0,11160010101023020170301804512051000600007800080000
2888,LPAR,38.8833,-9.0301,2024-05-24 12:00:00,,,,,25.0,1016.0,1031.3248687978517,12.0,5.0,160.0,10000.0,99999,,0.0,0,11160016051025020120301604031351000600007000080000
2889,LPMR,39.8312,-8.88726,2024-05-24 12:00:00,,,,,20.0,1017.0,1363.065868476595,14.0,8.0,300.0,10000.0,99999,,0.0,0,11160030081020020140301704363051000600007000080000
2890,LPMT,38.7039,-9.03592,2024-05-24 12:00:00,,,,,25.0,1016.0,1080.7336573577295,14.0,6.0,280.0,10000.0,99999,,0.0,0,11160028061025020140301604080751000600007000080000
2891,LPST,38.8311,-9.33955,2024-05-24 12:00:00,,,,,20.0,1017.0,1889.9639335804484,14.0,10.0,310.0,10000.0,99999,,0.0,0,11160031101020020140301704889951000600007000080000
2892,LWSK,41.9616,21.6214,2024-05-24 12:20:00,,,,,26.0,1017.0,2253.0589007235767,15.0,5.0,50.0,10000.0,99999,,0.0,0,11160005051026020150301704253051000600007000080000
2905,EVGA,56.7783,24.8539,2024-05-24 12:20:00,,,,,26.0,1024.0,1307.7052807538576,11.0,11.0,140.0,10000.0,99999,,0.0,0,11160014111026020110302404307751000600007000080000
2937,EYSA,55.8939,23.395,2024-05-24 12:20:00,,,,,26.0,1024.0,1687.7005908535155,14.0,14.0,120.0,10000.0,99999,,0.0,0,11160012141026020140302404687751000600007000080000
2940,EVVA,57.3578,21.5442,2024-05-24 12:20:00,,,,,24.0,1021.0,1048.7796182250177,16.0,5.0,300.0,10000.0,99999,,0.0,0,11160030051024020160302104048751000600007000080000
2950,LATI,41.4147,19.7206,2024-05-24 12:20:00,,,,,26.0,1018.0,1192.410690564596,16.0,8.0,290.0,10000.0,99999,,0.0,0,11160029081026020160301804192451000600007000080000
2962,LSZC,46.97444,8.39694,2024-05-24 12:20:00,,,,,18.0,1017.0,4878.767857494183,10.0,3.0,,10000.0,99999,,0.0,0,11160036031018020100301704878751000600007000080000
2964,EKRS,55.4258,11.8067,2024-05-24 12:20:00,,,,,19.0,1021.0,1237.2501603356145,12.0,3.0,,10000.0,99999,,0.0,0,11160036031019020120302104237251000600007000080000
2967,LSMA,46.9439,8.28417,2024-05-24 12:20:00,,,,,18.0,1017.0,4834.882964722273,11.0,9.0,80.0,10000.0,99999,,0.0,0,11160008091018020110301704834851000600007000080000
2968,LSMD,47.3986,8.64823,2024-05-24 12:20:00,,,,,18.0,1017.0,4864.138419641925,10.0,2.0,,10000.0,99999,,0.0,0,11160036021018020100301704864151000600007000080000
2969,LSMM,46.7433,8.11,2024-05-24 12:20:00,,,,,16.0,1018.0,6796.563828713798,10.0,11.0,280.0,10000.0,99999,,0.0,0,11160028111016020100301804796551000600007000080000
2970,LSMP,46.8432,6.91506,2024-05-24 12:20:00,,,,,17.0,1019.0,5111.778760504867,10.0,3.0,110.0,10000.0,99999,,0.0,0,11160011031017020100301904111751000600007000080000
3100,EDDG,52.1346,7.68483,2024-05-24 12:20:00,61.0,36.0,^,green,18.0,1018.0,1346.381984698536,14.0,4.0,340.0,10000.0,99999,,0.0,0,11160034041018020140301804346351000600007610080000
3108,EFHA,61.856,24.7866,2024-05-24 12:20:00,,,,,27.0,1023.0,1715.9641951642836,9.0,10.0,190.0,10000.0,99999,,0.0,0,1116001910102702090302304715951000600007000080000
3109,EFJO,62.6629,29.6075,2024-05-24 12:20:00,,,,,26.0,1023.0,1613.1177756730717,6.0,12.0,230.0,10000.0,99999,,0.0,0,1116002312102602060302304613151000600007000080000
3111,EFKS,65.9876,29.2394,2024-05-24 12:20:00,,,,,22.0,1017.0,2695.7219433953073,6.0,20.0,240.0,10000.0,99999,,0.0,0,1116002420102202060301704695751000600007000080000
3112,EFKT,67.701,24.8468,2024-05-24 12:20:00,,,,,15.0,1019.0,2875.823752207122,-5.0,9.0,320.0,10000.0,99999,,0.0,0,1116003209101502150301904875851000600007000080000
3113,EFLP,61.0446,28.1444,2024-05-24 12:20:00,,,,,25.0,1025.0,1560.163069567475,5.0,12.0,210.0,10000.0,99999,,0.0,0,1116002112102502050302504560151000600007000080000
3114,EFMI,61.6866,27.2018,2024-05-24 12:20:00,,,,,26.0,1024.0,1504.9991008360225,6.0,10.0,210.0,10000.0,99999,,0.0,0,1116002110102602060302404504951000600007000080000
3115,EFSA,61.9431,28.9451,2024-05-24 12:20:00,,,,,26.0,1024.0,1476.846538726656,7.0,11.0,220.0,10000.0,99999,,0.0,0,1116002211102602070302404476851000600007000080000
3116,EFSI,62.6921,22.8323,2024-05-24 12:20:00,80.0,36.0,q,green,16.0,1023.0,1764.6522026743462,14.0,6.0,310.0,10000.0,99999,,0.0,0,11160031061016020140302304764651000600007800080000
3117,EFUT,60.8964,26.9384,2024-05-24 12:20:00,,,,,26.0,1025.0,1522.2087096930743,7.0,12.0,180.0,10000.0,99999,,0.0,0,1116001812102602070302504522251000600007000080000
3121,EGCK,53.1042,-4.34028,2024-05-24 12:20:00,,,,,12.0,1018.0,1020.9005882586533,9.0,9.0,230.0,10000.0,99999,,0.0,0,1116002309101202090301804020951000600007000080000
3124,EGTK,51.8369,-1.32,2024-05-24 12:20:00,,,,,15.0,1018.0,1718.610985981736,7.0,8.0,250.0,10000.0,99999,,0.0,0,1116002508101502070301804718651000600007000080000
3125,EGHC,50.1028,-5.67056,2024-05-24 12:20:00,,,,,14.0,1019.0,2192.978094125034,5.0,3.0,20.0,10000.0,99999,,0.0,0,1116000203101402050301904192951000600007000080000
3127,EGHQ,50.4406,-4.99541,2024-05-24 12:20:00,16.0,36.0,1,,14.0,1019.0,2156.89552857357,6.0,7.0,300.0,10000.0,99999,,0.0,0,1116003007101402060301904156851000600007160080000
3131,EGNO,53.7451,-2.88306,2024-05-24 12:20:00,,,,,13.0,1018.0,1169.6321140487273,9.0,9.0,250.0,10000.0,99999,,0.0,0,1116002509101302090301804169651000600007000080000
3134,EGEO,56.4635,-5.39967,2024-05-24 12:20:00,,,,,13.0,1015.0,1068.9560158943032,10.0,6.0,280.0,10000.0,99999,,0.0,0,11160028061013020100301504068951000600007000080000
3189,ESNZ,63.1944,14.5003,2024-05-24 12:20:00,,,,,22.0,1019.0,3535.9999074154794,10.0,4.0,,10000.0,99999,,0.0,0,11160036041022020100301904535951000600007000080000
3200,ESOH,60.0201,13.5789,2024-05-24 12:20:00,,,,,19.0,1020.0,2026.8097521236266,14.0,5.0,140.0,10000.0,99999,,0.0,0,11160014051019020140302004026851000600007000080000
3201,ESCF,58.4023,15.5257,2024-05-24 12:20:00,,,,,18.0,1020.0,1684.1848876765348,16.0,5.0,20.0,10000.0,99999,,0.0,0,11160002051018020160302004684151000600007000080000
3232,EFET,68.3626,23.4243,2024-05-24 12:20:00,,,,,10.0,1020.0,5872.810683606347,-4.0,17.0,300.0,10000.0,99999,,0.0,0,1116003017101002140302004872851000600007000080000
3342,EVLA,56.5175,21.0969,2024-05-24 12:20:00,,,,,23.0,1021.0,1045.3935107490593,15.0,6.0,290.0,10000.0,99999,,0.0,0,11160029061023020150302104045351000600007000080000
3344,EYKA,54.9639,24.0848,2024-05-24 12:20:00,,,,,27.0,1023.0,1376.2891354176927,13.0,12.0,130.0,10000.0,99999,,0.0,0,11160013121027020130302304376251000600007000080000
3345,EYPA,55.9732,21.0939,2024-05-24 12:20:00,,,,,21.0,1021.0,1076.4510351857352,14.0,4.0,310.0,10000.0,99999,,0.0,0,11160031041021020140302104076451000600007000080000
3353,ESMV,57.2922,14.1372,2024-05-24 12:20:00,80.0,36.0,q,green,16.0,1020.0,2481.45585208142,15.0,3.0,280.0,10000.0,99999,,0.0,0,11160028031016020150302004481451000600007800080000
3354,ESPE,65.8753,20.1499,2024-05-24 12:20:00,,,,,24.0,1018.0,2019.5862357549188,7.0,8.0,340.0,10000.0,99999,,0.0,0,1116003408102402070301804019551000600007000080000
3355,ESIA,58.5138,14.5071,2024-05-24 12:20:00,,,,,17.0,1020.0,1727.0121567201245,15.0,5.0,100.0,10000.0,99999,,0.0,0,11160010051017020150302004727051000600007000080000
3356,ESCM,59.8973,17.5886,2024-05-24 12:20:00,,,,,21.0,1020.0,1135.494260335026,18.0,4.0,50.0,10000.0,99999,,0.0,0,11160005041021020180302004135451000600007000080000
3359,ESNV,64.5791,16.8336,2024-05-24 12:20:00,,,,,24.0,1019.0,3102.817614268651,8.0,8.0,210.0,10000.0,99999,,0.0,0,1116002108102402080301904102851000600007000080000
3361,ESST,60.1576,12.9913,2024-05-24 12:20:00,,,,,20.0,1020.0,1792.908489275396,15.0,10.0,150.0,10000.0,99999,,0.0,0,11160015101020020150302004792951000600007000080000
3362,ESUP,67.2456,23.0689,2024-05-24 12:20:00,,,,,16.0,1020.0,2439.85687194979,4.0,7.0,350.0,10000.0,99999,,0.0,0,1116003507101602040302004439851000600007000080000
3363,ESND,62.0478,14.4229,2024-05-24 12:20:00,,,,,22.0,1020.0,3411.6230274382547,10.0,6.0,100.0,10000.0,99999,,0.0,0,11160010061022020100302004411651000600007000080000
3399,LICB,36.9946,14.60718,2024-05-24 12:20:00,,,,,30.0,1017.0,1836.0276237822102,9.0,12.0,240.0,10000.0,99999,,0.0,0,1116002412103002090301704836051000600007000080000
3500,EEKA,58.9908,22.8307,2024-05-24 12:20:00,,,,,25.0,1023.0,1048.3012000304918,11.0,15.0,140.0,10000.0,99999,,0.0,0,11160014151025020110302304048351000600007000080000
3501,EEKE,58.2299,22.5095,2024-05-24 12:20:00,,,,,22.0,1023.0,1045.3486253156655,14.0,13.0,150.0,10000.0,99999,,0.0,0,11160015131022020140302304045351000600007000080000
3502,EETU,58.3075,26.6904,2024-05-24 12:20:00,,,,,26.0,1025.0,1337.401478403552,7.0,9.0,140.0,10000.0,99999,,0.0,0,1116001409102602070302504337451000600007000080000
3503,EEPU,58.419,24.4728,2024-05-24 12:20:00,,,,,26.0,1024.0,1088.083102657145,13.0,9.0,210.0,10000.0,99999,,0.0,0,11160021091026020130302404088051000600007000080000
3569,EDDV,52.4611,9.68508,2024-05-24 12:20:00,,,,,24.0,1017.0,1296.1806628791503,11.0,9.0,70.0,10000.0,99999,,0.0,0,11160007091024020110301704296151000600007000080000
3608,EDDB,52.36217,13.50067,2024-05-24 12:20:00,,,,,24.0,1018.0,1254.5034865472635,10.0,14.0,80.0,10000.0,99999,,0.0,0,11160008141024020100301804254551000600007000080000
3609,EDDC,51.1328,13.7672,2024-05-24 12:20:00,81.0,36.0,r,green,16.0,1018.0,3084.1440763913174,13.0,12.0,140.0,10000.0,99999,,0.0,0,11160014121016020130301804084151000600007810080000
3610,EDDE,50.9798,10.9581,2024-05-24 12:20:00,,,,,14.0,1018.0,4465.425503594435,13.0,7.0,180.0,2300.0,99999,,0.0,0,11110018071014020130301804465451000600007000080000
3611,EDDP,51.4324,12.2416,2024-05-24 12:20:00,95.0,36.0,2,red,18.0,1017.0,2060.718271881866,14.0,16.0,160.0,10000.0,99999,,0.0,0,11160016161018020140301704060751000600007950080000
3612,EDDR,49.2146,7.10951,2024-05-24 12:20:00,81.0,36.0,r,green,14.0,1018.0,4547.991301494707,13.0,4.0,260.0,10000.0,99999,,0.0,0,11160026041014020130301804547951000600007810080000
3643,LTBL,38.513,27.0101,2024-05-24 12:18:00,,,,,28.0,1014.0,1033.882231895705,12.0,15.0,310.0,10000.0,99999,,0.0,0,11160031151028020120301404033851000600007000080000
3651,EDDF,50.0264,8.54313,2024-05-24 12:20:00,,,,,18.0,1017.0,1812.3801397198417,13.0,3.0,180.0,10000.0,99999,,0.0,0,11160018031018020130301704812351000600007000080000
3652,EDDH,53.6304,9.98823,2024-05-24 12:20:00,,,,,22.0,1019.0,1104.3473241826493,14.0,10.0,60.0,10000.0,99999,,0.0,0,11160006101022020140301904104351000600007000080000
3653,EDDK,50.8659,7.14274,2024-05-24 12:20:00,80.0,36.0,q,green,15.0,1017.0,1808.5289001894566,14.0,8.0,180.0,10000.0,99999,,0.0,0,11160018081015020140301704808551000600007800080000
3654,EDDL,51.2895,6.76678,2024-05-24 12:20:00,81.0,36.0,r,green,16.0,1017.0,1356.7097245491495,15.0,4.0,340.0,10000.0,99999,,0.0,0,11160034041016020150301704356751000600007810080000
3657,EDDS,48.6899,9.22196,2024-05-24 12:20:00,80.0,36.0,q,green,15.0,1017.0,5043.260719152885,12.0,5.0,60.0,10000.0,99999,,0.0,0,11160006051015020120301704043251000600007800080000
3658,EDDW,53.0475,8.78667,2024-05-24 12:20:00,,,,,24.0,1018.0,1038.3782707557746,13.0,11.0,50.0,10000.0,99999,,0.0,0,11160005111024020130301804038351000600007000080000
3662,EDJA,47.9888,10.2395,2024-05-24 12:20:00,,,,,17.0,1018.0,6989.311180360206,9.0,5.0,,10000.0,99999,,0.0,0,1116003605101702090301804989351000600007000080000
3669,EDTY,49.11833,9.78389,2024-05-24 12:20:00,,,,,16.0,1018.0,4843.663324538307,11.0,3.0,,10000.0,99999,,0.0,0,11160036031016020110301804843651000600007000080000
3675,EKBI,55.7403,9.15178,2024-05-24 12:20:00,,,,,19.0,1021.0,1514.6978574270736,11.0,2.0,,10000.0,99999,,0.0,0,11160036021019020110302104514651000600007000080000
3676,EKCH,55.6179,12.656,2024-05-24 12:20:00,,,,,18.0,1022.0,1055.2096683923517,11.0,7.0,40.0,10000.0,99999,,0.0,0,11160004071018020110302204055251000600007000080000
3677,EKEB,55.5259,8.5534,2024-05-24 12:20:00,,,,,19.0,1021.0,1205.5973711001436,10.0,1.0,270.0,10000.0,99999,,0.0,0,11160027011019020100302104205551000600007000080000
3679,EKOD,55.4767,10.3309,2024-05-24 12:20:00,,,,,18.0,1021.0,1131.9762809474482,13.0,7.0,30.0,10000.0,99999,,0.0,0,11160003071018020130302104131951000600007000080000
3680,EKRK,55.5856,12.1314,2024-05-24 12:20:00,,,,,19.0,1021.0,1303.5617779463214,12.0,7.0,10.0,10000.0,99999,,0.0,0,11160001071019020120302104303551000600007000080000
3681,EKRN,55.0633,14.7596,2024-05-24 12:20:00,,,,,17.0,1021.0,1130.0715873851013,13.0,7.0,270.0,10000.0,99999,,0.0,0,11160027071017020130302104130051000600007000080000
3682,EKSB,54.9644,9.79173,2024-05-24 12:20:00,,,,,19.0,1021.0,1065.474972088527,15.0,5.0,80.0,10000.0,99999,,0.0,0,11160008051019020150302104065451000600007000080000
3683,EKSP,55.2256,9.26393,2024-05-24 12:20:00,,,,,20.0,1021.0,1279.1894710339182,11.0,3.0,300.0,10000.0,99999,,0.0,0,11160030031020020110302104279151000600007000080000
3685,LOWG,46.9911,15.4396,2024-05-24 12:20:00,81.0,36.0,r,green,19.0,1017.0,3664.368743784214,11.0,7.0,300.0,10000.0,99999,,0.0,0,11160030071019020110301704664351000600007810080000
3686,LOWI,47.2602,11.344,2024-05-24 12:20:00,,,,,19.0,1016.0,5840.123093175162,9.0,2.0,,10000.0,99999,,0.0,0,1116003602101902090301604840151000600007000080000
3687,LOWK,46.6425,14.3377,2024-05-24 12:20:00,,,,,20.0,1017.0,4434.813511584632,9.0,10.0,290.0,10000.0,99999,,0.0,0,1116002910102002090301704434851000600007000080000
3688,LOWL,48.2332,14.1875,2024-05-24 12:20:00,,,,,19.0,1018.0,3299.782820677977,10.0,6.0,,10000.0,99999,,0.0,0,11160036061019020100301804299751000600007000080000
3689,LOWS,47.7933,13.0043,2024-05-24 12:20:00,,,,,18.0,1018.0,4696.226336269678,11.0,5.0,170.0,10000.0,99999,,0.0,0,11160017051018020110301804696251000600007000080000
3690,LOWW,48.1103,16.5697,2024-05-24 12:20:00,,,,,21.0,1018.0,2187.541854248954,13.0,7.0,50.0,10000.0,99999,,0.0,0,11160005071021020130301804187551000600007000080000
3691,EETN,59.4133,24.8328,2024-05-24 12:20:00,,,,,28.0,1024.0,1193.1811947046237,10.0,11.0,190.0,10000.0,99999,,0.0,0,11160019111028020100302404193151000600007000080000
3692,EFHK,60.3172,24.9633,2024-05-24 12:20:00,,,,,26.0,1024.0,1276.6036960021927,12.0,13.0,150.0,10000.0,99999,,0.0,0,11160015131026020120302404276651000600007000080000
3693,EFIV,68.6073,27.4053,2024-05-24 12:20:00,,,,,14.0,1017.0,2455.5127812588303,-6.0,13.0,310.0,10000.0,99999,,0.0,0,1116003113101402160301704455551000600007000080000
3694,EFJY,62.3995,25.6783,2024-05-24 12:20:00,,,,,25.0,1023.0,1742.4886820521858,7.0,11.0,180.0,10000.0,99999,,0.0,0,1116001811102502070302304742451000600007000080000
3695,EFKE,65.7787,24.5821,2024-05-24 12:20:00,,,,,13.0,1018.0,1186.6993026313144,6.0,10.0,190.0,10000.0,99999,,0.0,0,1116001910101302060301804186651000600007000080000
3696,EFKK,63.7212,23.1431,2024-05-24 12:20:00,,,,,20.0,1022.0,1173.089234639836,10.0,11.0,240.0,10000.0,99999,,0.0,0,11160024111020020100302204173051000600007000080000
3698,EFMA,60.1222,19.8982,2024-05-24 12:20:00,,,,,18.0,1022.0,1055.2096683923517,14.0,6.0,170.0,10000.0,99999,,0.0,0,11160017061018020140302204055251000600007000080000
3699,EFOU,64.9301,25.3546,2024-05-24 12:20:00,,,,,24.0,1019.0,1088.1581763916934,9.0,11.0,270.0,10000.0,99999,,0.0,0,1116002711102402090301904088151000600007000080000
3700,EFPO,61.4617,21.8,2024-05-24 12:20:00,80.0,36.0,q,green,17.0,1023.0,1115.1694814382113,14.0,7.0,330.0,10000.0,99999,,0.0,0,11160033071017020140302304115151000600007800080000
3701,EFTP,61.4141,23.6044,2024-05-24 12:20:00,,,,,25.0,1022.0,1623.7674111730516,10.0,11.0,200.0,10000.0,99999,,0.0,0,11160020111025020100302204623751000600007000080000
3702,EFTU,60.5141,22.2628,2024-05-24 12:20:00,,,,,23.0,1023.0,1279.7777158468941,12.0,8.0,210.0,10000.0,99999,,0.0,0,11160021081023020120302304279751000600007000080000
3703,EFVA,63.0507,21.7622,2024-05-24 12:20:00,81.0,36.0,r,green,16.0,1023.0,1064.8702796715115,14.0,6.0,190.0,10000.0,99999,,0.0,0,11160019061016020140302304064851000600007810080000
3705,ENBR,60.2934,5.21814,2024-05-24 12:20:00,,,,,14.0,1021.0,1479.8526298443614,13.0,5.0,200.0,10000.0,99999,,0.0,0,11160020051014020130302104479851000600007000080000
3706,ENCN,58.2042,8.08537,2024-05-24 12:20:00,,,,,20.0,1020.0,1121.3785894321106,11.0,6.0,190.0,10000.0,99999,,0.0,0,11160019061020020110302004121351000600007000080000
3708,ENHD,59.3453,5.20836,2024-05-24 12:20:00,,,,,15.0,1021.0,1229.173859531594,8.0,9.0,210.0,10000.0,99999,,0.0,0,1116002109101502080302104229151000600007000080000
3711,ENVA,63.4578,10.924,2024-05-24 12:20:00,,,,,23.0,1018.0,1104.1883977930477,13.0,12.0,240.0,10000.0,99999,,0.0,0,11160024121023020130301804104151000600007000080000
3712,ENZV,58.8767,5.63778,2024-05-24 12:20:00,,,,,16.0,1021.0,1085.0674795408552,8.0,8.0,200.0,10000.0,99999,,0.0,0,1116002008101602080302104085051000600007000080000
3713,EVRA,56.9236,23.9711,2024-05-24 12:20:00,,,,,28.0,1023.0,1068.3651770046754,11.0,13.0,150.0,10000.0,99999,,0.0,0,11160015131028020110302304068351000600007000080000
3714,EYVI,54.6341,25.2858,2024-05-24 12:20:00,,,,,25.0,1024.0,2075.2051479558468,12.0,10.0,130.0,10000.0,99999,,0.0,0,11160013101025020120302404075251000600007000080000
3716,LGAL,40.8559,25.9563,2024-05-24 12:20:00,,,,,25.0,1015.0,1048.5292009650898,15.0,12.0,250.0,10000.0,99999,,0.0,0,11160025121025020150301504048551000600007000080000
3717,LGAV,37.9364,23.9445,2024-05-24 12:20:00,,,,,27.0,1016.0,1443.0919858266134,10.0,7.0,80.0,10000.0,99999,,0.0,0,11160008071027020100301604443051000600007000080000
3718,LGEL,38.0638,23.556,2024-05-24 12:20:00,,,,,28.0,1015.0,1198.5824400888716,12.0,12.0,180.0,10000.0,99999,,0.0,0,11160018121028020120301504198551000600007000080000
3719,LGIR,35.3397,25.1803,2024-05-24 12:20:00,,,,,24.0,1016.0,1188.047957936336,18.0,9.0,320.0,10000.0,99999,,0.0,0,11160032091024020180301604188051000600007000080000
3721,LGKL,37.0683,22.0255,2024-05-24 12:20:00,,,,,27.0,1016.0,1049.6665407897342,12.0,8.0,160.0,10000.0,99999,,0.0,0,11160016081027020120301604049651000600007000080000
3722,LGKO,36.7933,27.0917,2024-05-24 12:20:00,,,,,24.0,1013.0,1674.964814280753,14.0,19.0,320.0,10000.0,99999,,0.0,0,11160032191024020140301304674951000600007000080000
3723,LGKR,39.6019,19.9117,2024-05-24 12:20:00,,,,,28.0,1016.0,1023.4511366000374,14.0,7.0,260.0,10000.0,99999,,0.0,0,11160026071028020140301604023451000600007000080000
3724,LGKV,40.9133,24.6192,2024-05-24 12:20:00,,,,,25.0,1015.0,1040.1033411837236,15.0,7.0,240.0,10000.0,99999,,0.0,0,11160024071025020150301504040151000600007000080000
3725,LGLM,39.9171,25.2363,2024-05-24 12:20:00,,,,,25.0,1015.0,1034.5021846267357,12.0,7.0,60.0,10000.0,99999,,0.0,0,11160006071025020120301504034551000600007000080000
3726,LGMT,39.0567,26.5983,2024-05-24 12:20:00,,,,,28.0,1015.0,1090.4758848713575,14.0,10.0,350.0,10000.0,99999,,0.0,0,11160035101028020140301504090451000600007000080000
3727,LGRP,36.4054,28.0862,2024-05-24 12:20:00,,,,,26.0,1010.0,1032.6736696886799,16.0,20.0,250.0,10000.0,99999,,0.0,0,11160025201026020160301004032651000600007000080000
3728,LGSA,35.5317,24.1497,2024-05-24 12:20:00,,,,,28.0,1016.0,1694.018756611478,15.0,8.0,250.0,10000.0,99999,,0.0,0,11160025081028020150301604694051000600007000080000
3729,LGSM,37.69,26.9117,2024-05-24 12:20:00,,,,,27.0,1013.0,1037.483924236634,12.0,10.0,320.0,10000.0,99999,,0.0,0,11160032101027020120301304037451000600007000080000
3730,LGSR,36.3992,25.4793,2024-05-24 12:20:00,,,,,26.0,1016.0,1191.4948126179813,16.0,9.0,360.0,10000.0,99999,,0.0,0,11160036091026020160301604191451000600007000080000
3731,LGTS,40.5197,22.9709,2024-05-24 12:20:00,,,,,28.0,1015.0,1042.4075472674003,14.0,10.0,310.0,10000.0,99999,,0.0,0,11160031101028020140301504042451000600007000080000
3733,LGPZ,38.9255,20.7653,2024-05-24 12:20:00,,,,,25.0,1017.0,1032.339952330133,16.0,17.0,260.0,10000.0,99999,,0.0,0,11160026171025020160301704032351000600007000080000
3734,LGRX,38.1511,21.4256,2024-05-24 12:20:00,,,,,26.0,1017.0,1079.2738780550706,14.0,6.0,260.0,10000.0,99999,,0.0,0,11160026061026020140301704079251000600007000080000
3735,LGSK,39.1771,23.5037,2024-05-24 12:20:00,,,,,24.0,1015.0,1094.3095357879047,16.0,7.0,340.0,10000.0,99999,,0.0,0,11160034071024020160301504094351000600007000080000
3736,LGZA,37.7509,20.8843,2024-05-24 12:20:00,,,,,28.0,1017.0,1035.6898913731607,11.0,10.0,340.0,10000.0,99999,,0.0,0,11160034101028020110301704035651000600007000080000
3737,LIBD,41.1389,16.7606,2024-05-24 12:20:00,,,,,23.0,1018.0,1300.1715825120934,15.0,7.0,40.0,10000.0,99999,,0.0,0,11160004071023020150301804300151000600007000080000
3738,LIBP,42.4317,14.1811,2024-05-24 12:20:00,,,,,23.0,1018.0,1091.695131800751,15.0,13.0,70.0,10000.0,99999,,0.0,0,11160007131023020150301804091651000600007000080000
3739,LIBR,40.6576,17.947,2024-05-24 12:20:00,,,,,22.0,1018.0,1093.466118643615,17.0,10.0,80.0,10000.0,99999,,0.0,0,11160008101022020170301804093451000600007000080000
3740,LICA,38.9054,16.2423,2024-05-24 12:20:00,,,,,24.0,1018.0,1075.1947501621958,15.0,10.0,240.0,10000.0,99999,,0.0,0,11160024101024020150301804075151000600007000080000
3741,LICC,37.4668,15.0664,2024-05-24 12:20:00,,,,,26.0,1018.0,1070.7481279724395,13.0,11.0,70.0,10000.0,99999,,0.0,0,11160007111026020130301804070751000600007000080000
3742,LICJ,38.176,13.091,2024-05-24 12:20:00,,,,,26.0,1017.0,1105.4505219723192,13.0,17.0,60.0,10000.0,99999,,0.0,0,11160006171026020130301704105451000600007000080000
3743,LICR,38.0712,15.6516,2024-05-24 12:20:00,,,,,27.0,1018.0,1144.8458459940514,9.0,14.0,350.0,10000.0,99999,,0.0,0,1116003514102702090301804144851000600007000080000
3744,LIEA,40.6321,8.29077,2024-05-24 12:20:00,,,,,27.0,1017.0,1131.5775122428993,13.0,7.0,30.0,10000.0,99999,,0.0,0,11160003071027020130301704131551000600007000080000
3745,LIEE,39.2515,9.05428,2024-05-24 12:20:00,61.0,36.0,^,green,23.0,1018.0,1037.7428088163085,14.0,8.0,180.0,10000.0,99999,,0.0,0,11160018081023020140301804037751000600007610080000
3746,LIEO,40.8987,9.51763,2024-05-24 12:20:00,,,,,25.0,1018.0,1070.0373897491156,16.0,10.0,90.0,10000.0,99999,,0.0,0,11160009101025020160301804070051000600007000080000
3748,LIME,45.6739,9.70417,2024-05-24 12:20:00,,,,,20.0,1018.0,2685.57575423602,13.0,4.0,,10000.0,99999,,0.0,0,11160036041020020130301804685551000600007000080000
3749,LIMF,45.2008,7.64963,2024-05-24 12:20:00,,,,,19.0,1018.0,3329.110076748807,12.0,5.0,90.0,10000.0,99999,,0.0,0,11160009051019020120301804329151000600007000080000
3750,LIMJ,44.4133,8.8375,2024-05-24 12:20:00,16.0,36.0,1,,19.0,1018.0,1041.919822687173,15.0,17.0,140.0,10000.0,99999,,0.0,0,11160014171019020150301804041951000600007160080000
3751,LIML,45.4451,9.27674,2024-05-24 12:20:00,,,,,21.0,1018.0,1668.147382518433,13.0,4.0,,10000.0,99999,,0.0,0,11160036041021020130301804668151000600007000080000
3752,LIPE,44.5354,11.2887,2024-05-24 12:20:00,80.0,36.0,q,green,22.0,1017.0,1219.0168834839742,13.0,5.0,60.0,10000.0,99999,,0.0,0,11160006051022020130301704219051000600007800080000
3753,LIPH,45.6484,12.1944,2024-05-24 12:20:00,,,,,22.0,1018.0,1113.0974712185728,12.0,4.0,270.0,10000.0,99999,,0.0,0,11160027041022020120301804113051000600007000080000
3754,LIPO,45.4289,10.3306,2024-05-24 12:20:00,,,,,22.0,1018.0,1639.8431487077387,12.0,4.0,,10000.0,99999,,0.0,0,11160036041022020120301804639851000600007000080000
3755,LIPQ,45.8275,13.4722,2024-05-24 12:20:00,,,,,22.0,1018.0,1080.4598538517398,13.0,6.0,240.0,10000.0,99999,,0.0,0,11160024061022020130301804080451000600007000080000
3756,LIPR,44.0203,12.6117,2024-05-24 12:20:00,,,,,20.0,1018.0,1088.58111741535,14.0,7.0,70.0,10000.0,99999,,0.0,0,11160007071020020140301804088551000600007000080000
3758,LIPY,43.6163,13.3623,2024-05-24 12:20:00,,,,,22.0,1018.0,1096.7278742139117,13.0,9.0,70.0,10000.0,99999,,0.0,0,11160007091022020130301804096751000600007000080000
3759,LIPZ,45.5053,12.3519,2024-05-24 12:20:00,,,,,21.0,1018.0,1029.6235686073296,14.0,5.0,180.0,10000.0,99999,,0.0,0,11160018051021020140301804029651000600007000080000
3760,LIRA,41.7994,12.5949,2024-05-24 12:20:00,,,,,25.0,1018.0,1679.5672834272737,10.0,7.0,260.0,10000.0,99999,,0.0,0,11160026071025020100301804679551000600007000080000
3761,LIRF,41.8045,12.2508,2024-05-24 12:20:00,,,,,24.0,1019.0,1040.861916952405,13.0,12.0,240.0,10000.0,99999,,0.0,0,11160024121024020130301904040851000600007000080000
3762,LIRP,43.6839,10.3927,2024-05-24 12:15:00,,,,,23.0,1019.0,1028.1008290697682,16.0,8.0,240.0,10000.0,99999,,0.0,0,11160024081023020160301904028151000600007000080000
3763,LIRQ,43.81,11.2051,2024-05-24 12:20:00,,,,,25.0,1018.0,1223.5589310718817,11.0,4.0,,10000.0,99999,,0.0,0,11160036041025020110301804223551000600007000080000
3765,LICD,35.4979,12.6181,2024-05-24 12:20:00,,,,,23.0,1015.0,1122.875167667975,17.0,14.0,70.0,10000.0,99999,,0.0,0,11160007141023020170301504122851000600007000080000
3766,LIMC,45.6306,8.72811,2024-05-24 12:20:00,,,,,18.0,1018.0,2859.872148171665,12.0,6.0,260.0,10000.0,99999,,0.0,0,11160026061018020120301804859851000600007000080000
3767,LIPX,45.3957,10.8885,2024-05-24 12:20:00,,,,,22.0,1017.0,1422.8129702714073,11.0,4.0,190.0,10000.0,99999,,0.0,0,11160019041022020110301704422851000600007000080000
3768,LIRZ,43.0959,12.5132,2024-05-24 12:20:00,,,,,24.0,1018.0,2209.188483798434,12.0,2.0,,10000.0,99999,,0.0,0,11160036021024020120301804209151000600007000080000
3770,ENAL,62.5625,6.1197,2024-05-24 12:20:00,,,,,16.0,1020.0,1174.9509105966395,12.0,9.0,60.0,10000.0,99999,,0.0,0,11160006091016020120302004174951000600007000080000
3776,ENDU,69.0558,18.5404,2024-05-24 12:20:00,,,,,8.0,1025.0,2339.3016917529376,-0.0,10.0,290.0,10000.0,99999,,0.0,0,1116002910100802100302504339351000600007000080000
3780,ENHV,71.0097,25.9836,2024-05-24 12:20:00,,,,,5.0,1015.0,1338.9605381212068,-1.0,34.0,270.0,10000.0,99999,,0.0,0,1116002734100502110301504338951000600007000080000
3782,ENLK,68.1525,13.6094,2024-05-24 12:20:00,,,,,10.0,1026.0,1314.4365871995913,2.0,13.0,300.0,10000.0,99999,,0.0,0,1116003013101002020302604314451000600007000080000
3783,ENMH,71.0297,27.8267,2024-05-24 12:20:00,80.0,36.0,q,green,4.0,1014.0,1374.6930085872082,-1.0,31.0,280.0,10000.0,99999,,0.0,0,1116002831100402110301404374651000600007800080000
3787,ENNM,64.4722,11.5786,2024-05-24 12:20:00,,,,,22.0,1019.0,1030.1048966465387,11.0,5.0,210.0,10000.0,99999,,0.0,0,11160021051022020110301904030151000600007000080000
3788,ENNO,59.5657,9.21222,2024-05-24 12:20:00,80.0,36.0,q,green,20.0,1020.0,1132.2836756996307,15.0,1.0,,10000.0,99999,,0.0,0,11160036011020020150302004132251000600007800080000
3790,ENOV,62.18,6.0741,2024-05-24 12:20:00,,,,,23.0,1019.0,1413.7316367403087,11.0,6.0,250.0,10000.0,99999,,0.0,0,11160025061023020110301904413751000600007000080000
3793,ENRO,62.5784,11.3423,2024-05-24 12:20:00,16.0,36.0,1,,21.0,1020.0,5731.110136578723,8.0,5.0,80.0,10000.0,99999,,0.0,0,1116000805102102080302004731151000600007160080000
3795,ENRY,59.3789,10.7856,2024-05-24 12:20:00,,,,,16.0,1021.0,1428.863077030408,14.0,5.0,50.0,10000.0,99999,,0.0,0,11160005051016020140302104428851000600007000080000
3796,ENSD,61.83,6.10583,2024-05-24 12:20:00,,,,,23.0,1019.0,1333.4052914224653,11.0,2.0,,10000.0,99999,,0.0,0,11160036021023020110301904333451000600007000080000
3797,ENSG,61.1561,7.13778,2024-05-24 12:20:00,,,,,19.0,1021.0,1021.0,11.0,3.0,60.0,10000.0,99999,,0.0,0,11160006031019020110302104021051000600007000080000
3801,ENSR,69.7868,20.9594,2024-05-24 12:20:00,,,,,9.0,1022.0,1084.8861785602624,1.0,16.0,350.0,10000.0,99999,,0.0,0,1116003516100902010302204084851000600007000080000
3803,ENTO,59.1867,10.2586,2024-05-24 12:20:00,,,,,16.0,1020.0,1716.6541239252936,16.0,4.0,30.0,10000.0,99999,,0.0,0,11160003041016020160302004716651000600007000080000
3805,ESDF,56.2667,15.265,2024-05-24 12:20:00,,,,,17.0,1020.0,1441.8716200413305,16.0,5.0,270.0,10000.0,99999,,0.0,0,11160027051017020160302004441851000600007000080000
3806,ESGG,57.6628,12.2798,2024-05-24 12:20:00,,,,,15.0,1021.0,2435.5244982462177,11.0,8.0,290.0,10000.0,99999,,0.0,0,11160029081015020110302104435551000600007000080000
3807,ESGJ,57.7576,14.0687,2024-05-24 12:20:00,,,,,18.0,1020.0,2791.7414903878016,16.0,4.0,140.0,10000.0,99999,,0.0,0,11160014041018020160302004791751000600007000080000
3808,ESGP,57.7747,11.8704,2024-05-24 12:20:00,,,,,16.0,1021.0,1153.060261407046,10.0,8.0,290.0,10000.0,99999,,0.0,0,11160029081016020100302104153051000600007000080000
3809,ESKN,58.7886,16.9122,2024-05-24 12:20:00,,,,,18.0,1021.0,1307.1727670500873,13.0,9.0,120.0,10000.0,99999,,0.0,0,11160012091018020130302104307151000600007000080000
3810,ESMK,55.9217,14.0855,2024-05-24 12:20:00,,,,,21.0,1020.0,1149.4210401616706,12.0,7.0,290.0,10000.0,99999,,0.0,0,11160029071021020120302004149451000600007000080000
3811,ESMS,55.53631,13.3762,2024-05-24 12:20:00,,,,,18.0,1021.0,1519.2365509291665,11.0,8.0,310.0,10000.0,99999,,0.0,0,11160031081018020110302104519251000600007000080000
3812,ESMX,56.9291,14.728,2024-05-24 12:20:00,,,,,16.0,1020.0,2643.558688178505,16.0,4.0,210.0,6000.0,99999,,0.0,0,11130021041016020160302004643551000600007000080000
3813,ESNN,62.5281,17.4439,2024-05-24 12:20:00,,,,,18.0,1021.0,1052.2130637488913,11.0,14.0,130.0,10000.0,99999,,0.0,0,11160013141018020110302104052251000600007000080000
3814,ESNO,63.4083,18.99,2024-05-24 12:20:00,,,,,19.0,1021.0,1750.735118689202,11.0,15.0,180.0,10000.0,99999,,0.0,0,11160018151019020110302104750751000600007000080000
3815,ESNQ,67.822,20.3368,2024-05-24 12:20:00,,,,,12.0,1021.0,7189.525503379308,-2.0,12.0,30.0,10000.0,99999,,0.0,0,1116000312101202120302104189551000600007000080000
3816,ESNS,64.6248,21.0769,2024-05-24 12:20:00,16.0,36.0,1,,25.0,1018.0,1246.1710391033919,10.0,10.0,220.0,10000.0,99999,,0.0,0,11160022101025020100301804246151000600007160080000
3817,ESNU,63.7918,20.2828,2024-05-24 12:20:00,,,,,20.0,1021.0,1063.2320886591644,11.0,14.0,180.0,10000.0,99999,,0.0,0,11160018141020020110302104063251000600007000080000
3818,ESOK,59.4447,13.3374,2024-05-24 12:20:00,10.0,36.0,+,yellow,15.0,1020.0,1960.5176809834277,15.0,3.0,130.0,4500.0,99999,,0.0,0,11120013031015020150302004960551000600007100080000
3819,ESOW,59.5894,16.6336,2024-05-24 12:20:00,,,,,21.0,1020.0,1055.1084187309557,15.0,3.0,,10000.0,99999,,0.0,0,11160036031021020150302004055151000600007000080000
3820,ESPA,65.5438,22.122,2024-05-24 12:20:00,,,,,19.0,1017.0,1138.8147061258164,8.0,7.0,130.0,10000.0,99999,,0.0,0,1116001307101902080301704138851000600007000080000
3822,ESSB,59.3544,17.9417,2024-05-24 12:20:00,,,,,23.0,1020.0,1092.2793827419507,15.0,8.0,140.0,10000.0,99999,,0.0,0,11160014081023020150302004092251000600007000080000
3823,ESSD,60.422,15.5152,2024-05-24 12:20:00,,,,,17.0,1021.0,2241.009928826949,14.0,6.0,90.0,10000.0,99999,,0.0,0,11160009061017020140302104241051000600007000080000
3824,ESSP,58.5863,16.2506,2024-05-24 12:20:00,,,,,18.0,1020.0,1082.7631136315729,15.0,4.0,10.0,10000.0,99999,,0.0,0,11160001041018020150302004082751000600007000080000
3825,ESSV,57.6628,18.3462,2024-05-24 12:20:00,,,,,16.0,1021.0,1403.974486162401,12.0,8.0,290.0,10000.0,99999,,0.0,0,11160029081016020120302104403951000600007000080000
3826,LSGC,47.0839,6.79284,2024-05-24 12:20:00,,,,,12.0,1019.0,13.991432178401585,7.0,6.0,260.0,10000.0,99999,,0.0,0,111600260610120207030190413951000600007000080000
3827,LSGG,46.2381,6.10895,2024-05-24 12:20:00,,,,,17.0,1018.0,4939.220698673012,9.0,5.0,120.0,10000.0,99999,,0.0,0,1116001205101702090301804939251000600007000080000
3828,LSGS,46.2196,7.32676,2024-05-24 12:20:00,,,,,18.0,1016.0,5195.659997488122,9.0,5.0,270.0,10000.0,99999,,0.0,0,1116002705101802090301604195651000600007000080000
3829,LSZA,46.0043,8.91058,2024-05-24 12:20:00,,,,,14.0,1019.0,4017.3584578098166,13.0,2.0,,9000.0,99999,,0.0,0,11150036021014020130301904017351000600007000080000
3830,LSZB,46.9141,7.49715,2024-05-24 12:20:00,61.0,36.0,^,green,12.0,1019.0,7877.111485649655,9.0,10.0,270.0,10000.0,99999,,0.0,0,1116002710101202090301904877151000600007610080000
3831,LSZG,47.1816,7.41719,2024-05-24 12:20:00,17.0,36.0,2,red,14.0,1019.0,5882.073249226797,8.0,9.0,240.0,10000.0,99999,,0.0,0,1116002409101402080301904882051000600007170080000
3832,LSZH,47.4647,8.54917,2024-05-24 12:20:00,,,,,19.0,1017.0,4488.655395999117,9.0,3.0,330.0,10000.0,99999,,0.0,0,1116003303101902090301704488651000600007000080000
3833,LSZR,47.485,9.56077,2024-05-24 12:20:00,,,,,17.0,1017.0,4609.307113071049,11.0,2.0,,10000.0,99999,,0.0,0,11160036021017020110301704609351000600007000080000
3834,LSZS,46.5341,9.88411,2024-05-24 12:20:00,80.0,36.0,q,green,10.0,1019.0,21.398513567433266,3.0,13.0,220.0,10000.0,99999,,0.0,0,111600221310100203030190421351000600007800080000
3836,EGBB,52.4539,-1.74803,2024-05-24 12:20:00,,,,,13.0,1019.0,2034.1115293389666,7.0,5.0,260.0,10000.0,99999,,0.0,0,1116002605101302070301904034151000600007000080000
3839,EGGD,51.3827,-2.71909,2024-05-24 12:20:00,,,,,12.0,1019.0,3321.2553085746317,6.0,7.0,240.0,10000.0,99999,,0.0,0,1116002407101202060301904321251000600007000080000
3842,EGHH,50.78,-1.8425,2024-05-24 12:20:00,,,,,16.0,1019.0,1103.119440936509,9.0,6.0,310.0,10000.0,99999,,0.0,0,1116003106101602090301904103151000600007000080000
3843,EGHI,50.9503,-1.3568,2024-05-24 12:20:00,,,,,16.0,1019.0,1116.6574592917918,6.0,3.0,260.0,10000.0,99999,,0.0,0,1116002603101602060301904116651000600007000080000
3844,EGJB,49.435,-2.60197,2024-05-24 12:20:00,,,,,13.0,1020.0,2067.377465950392,7.0,7.0,220.0,10000.0,99999,,0.0,0,1116002207101302070302004067351000600007000080000
3845,EGJJ,49.2079,-2.19551,2024-05-24 12:20:00,,,,,16.0,1020.0,1692.7242997467495,8.0,8.0,270.0,10000.0,99999,,0.0,0,1116002708101602080302004692751000600007000080000
3848,EGKK,51.1481,-0.19028,2024-05-24 12:20:00,,,,,17.0,1019.0,1466.4434915550046,7.0,7.0,270.0,10000.0,99999,,0.0,0,1116002707101702070301904466451000600007000080000
3849,EGLF,51.2758,-0.77633,2024-05-24 12:20:00,,,,,16.0,1019.0,1588.8250249706832,7.0,8.0,300.0,10000.0,99999,,0.0,0,1116003008101602070301904588851000600007000080000
3851,EGMC,51.5714,0.69556,2024-05-24 12:20:00,,,,,18.0,1018.0,1114.5574355889473,8.0,5.0,,10000.0,99999,,0.0,0,1116003605101802080301804114551000600007000080000
3852,EGMD,50.9561,0.93917,2024-05-24 12:20:00,,,,,16.0,1019.0,1047.4590979071945,9.0,10.0,200.0,10000.0,99999,,0.0,0,1116002010101602090301904047451000600007000080000
3853,EGNH,53.7717,-3.02861,2024-05-24 12:20:00,,,,,13.0,1018.0,1110.698684213361,10.0,9.0,260.0,10000.0,99999,,0.0,0,11160026091013020100301804110651000600007000080000
3854,EGNJ,53.5744,-0.35083,2024-05-24 12:20:00,,,,,15.0,1018.0,1314.4726033930162,10.0,8.0,210.0,10000.0,99999,,0.0,0,11160021081015020100301804314451000600007000080000
3861,EGPA,58.9578,-2.905,2024-05-24 12:20:00,,,,,14.0,1016.0,1143.1756755617428,11.0,12.0,120.0,10000.0,99999,,0.0,0,11160012121014020110301604143151000600007000080000
3867,EGSH,52.6758,1.28278,2024-05-24 12:20:00,,,,,16.0,1019.0,1286.7297743485817,9.0,5.0,260.0,10000.0,99999,,0.0,0,1116002605101602090301904286751000600007000080000
3869,EGAC,54.6181,-5.8725,2024-05-24 12:20:00,,,,,13.0,1016.0,1056.395527179729,10.0,3.0,350.0,10000.0,99999,,0.0,0,11160035031013020100301604056351000600007000080000
3870,EGAE,55.0428,-7.16111,2024-05-24 12:20:00,,,,,13.0,1016.0,1075.4752236729094,11.0,3.0,310.0,10000.0,99999,,0.0,0,11160031031013020110301604075451000600007000080000
3872,EGGP,53.3336,-2.84972,2024-05-24 12:20:00,,,,,13.0,1018.0,1241.4029702724893,9.0,1.0,,10000.0,99999,,0.0,0,1116003601101302090301804241451000600007000080000
3873,EGGW,51.8747,-0.36833,2024-05-24 12:20:00,,,,,16.0,1019.0,2390.196187102465,8.0,9.0,260.0,10000.0,99999,,0.0,0,1116002609101602080301904390151000600007000080000
3874,EGHE,49.9133,-6.29167,2024-05-24 12:20:00,,,,,15.0,1019.0,1302.8998474638156,8.0,2.0,,10000.0,99999,,0.0,0,1116003602101502080301904302851000600007000080000
3877,EGNT,55.0375,-1.69167,2024-05-24 12:20:00,,,,,16.0,1016.0,1657.109973896604,12.0,0.0,0.0,10000.0,99999,,0.0,0,11160000001016020120301604657151000600007000080000
3879,EGPE,57.5425,-4.0475,2024-05-24 12:20:00,,,,,13.0,1015.0,1099.134146096889,11.0,4.0,340.0,10000.0,99999,,0.0,0,11160034041013020110301504099151000600007000080000
3880,EGPF,55.8719,-4.43306,2024-05-24 12:20:00,,,,,14.0,1015.0,1080.2803939799671,12.0,6.0,220.0,10000.0,99999,,0.0,0,11160022061014020120301504080251000600007000080000
3881,EGPL,57.4811,-7.36278,2024-05-24 12:20:00,,,,,12.0,1015.0,1070.547499808694,10.0,8.0,310.0,10000.0,99999,,0.0,0,11160031081012020100301504070551000600007000080000
3882,EGPN,56.4525,-3.02583,2024-05-24 12:20:00,,,,,15.0,1015.0,1054.6324912533921,11.0,0.0,0.0,10000.0,99999,,0.0,0,11160000001015020110301504054651000600007000080000
3886,EGTC,52.0722,-0.61667,2024-05-24 12:20:00,,,,,15.0,1018.0,1974.479357090642,9.0,9.0,250.0,10000.0,99999,,0.0,0,1116002509101502090301804974451000600007000080000
3894,EDGS,50.7077,8.08297,2024-05-24 12:20:00,,,,,14.0,1017.0,7908.113974378289,11.0,6.0,170.0,10000.0,99999,,0.0,0,11160017061014020110301704908151000600007000080000
3895,EDLV,51.6024,6.14217,2024-05-24 12:20:00,,,,,15.0,1018.0,1276.067131510003,15.0,6.0,310.0,3600.0,99999,,0.0,0,11120031061015020150301804276051000600007000080000
3898,EGNR,53.1781,-2.97778,2024-05-24 12:20:00,,,,,13.0,1018.0,1141.4119053001461,8.0,4.0,230.0,10000.0,99999,,0.0,0,1116002304101302080301804141451000600007000080000
3899,EGPI,55.6819,-6.25667,2024-05-24 12:20:00,,,,,13.0,1015.0,1169.0144312769733,10.0,8.0,280.0,10000.0,99999,,0.0,0,11160028081013020100301504169051000600007000080000
3902,ENBS,70.6005,29.6914,2024-05-24 12:20:00,16.0,36.0,1,,3.0,1013.0,8994.521861102488,1.0,34.0,270.0,10000.0,99999,,0.0,0,1116002734100302010301304994551000600007160080000
3903,ENSS,70.3554,31.0449,2024-05-24 12:20:00,,,,,7.0,1014.0,1230.7431229998654,0.0,21.0,280.0,10000.0,99999,,0.0,0,1116002821100702000301404230751000600007000080000
3904,ESGT,58.3181,12.345,2024-05-24 12:20:00,51.0,36.0,T,green,15.0,1021.0,1359.9213455143217,14.0,8.0,250.0,8000.0,99999,,0.0,0,11140025081015020140302104359951000600007510080000
3906,ESMQ,56.6855,16.2876,2024-05-24 12:20:00,,,,,17.0,1020.0,1055.1084187309557,15.0,5.0,130.0,10000.0,99999,,0.0,0,11160013051017020150302004055151000600007000080000
3907,ESMT,56.6911,12.8202,2024-05-24 12:20:00,,,,,17.0,1021.0,1237.016218821005,12.0,9.0,290.0,10000.0,99999,,0.0,0,11160029091017020120302104237051000600007000080000
3908,ESNG,67.1324,20.8146,2024-05-24 12:20:00,,,,,17.0,1020.0,3764.409155603363,-2.0,3.0,,10000.0,99999,,0.0,0,1116003603101702120302004764451000600007000080000
3909,ESNK,63.0486,17.7689,2024-05-24 12:20:00,,,,,22.0,1020.0,1074.4709883412686,13.0,11.0,170.0,10000.0,99999,,0.0,0,11160017111022020130302004074451000600007000080000
3910,ESNL,64.5483,18.7162,2024-05-24 12:20:00,,,,,25.0,1018.0,2170.4872088976704,8.0,6.0,230.0,10000.0,99999,,0.0,0,1116002306102502080301804170451000600007000080000
3911,ESNX,65.5903,19.2819,2024-05-24 12:20:00,,,,,23.0,1019.0,3438.096856606875,6.0,6.0,290.0,10000.0,99999,,0.0,0,1116002906102302060301904438051000600007000080000
3912,ESOE,59.2237,15.038,2024-05-24 12:20:00,,,,,17.0,1020.0,1434.807858511737,15.0,2.0,,10000.0,99999,,0.0,0,11160036021017020150302004434851000600007000080000
3913,ESSL,58.4062,15.6805,2024-05-24 12:20:00,,,,,19.0,1020.0,1355.4296042381536,15.0,4.0,80.0,10000.0,99999,,0.0,0,11160008041019020150302004355451000600007000080000
3914,ESTA,56.2961,12.8471,2024-05-24 12:20:00,,,,,17.0,1021.0,1164.5582010984992,13.0,10.0,290.0,10000.0,99999,,0.0,0,11160029101017020130302104164551000600007000080000
3915,ESTL,56.0828,13.2125,2024-05-24 12:20:00,,,,,18.0,1021.0,1307.1727670500873,11.0,7.0,320.0,10000.0,99999,,0.0,0,11160032071018020110302104307151000600007000080000
3916,ESUT,65.8061,15.0828,2024-05-24 12:20:00,,,,,19.0,1020.0,4743.251398676918,7.0,6.0,310.0,10000.0,99999,,0.0,0,1116003106101902070302004743251000600007000080000
3917,LGPA,37.0103,25.1281,2024-05-24 12:20:00,,,,,25.0,1015.0,1203.5251835944223,14.0,11.0,320.0,10000.0,99999,,0.0,0,11160032111025020140301504203551000600007000080000
3920,LIMZ,44.547,7.62322,2024-05-24 12:20:00,,,,,18.0,1018.0,4276.079543389952,13.0,5.0,40.0,10000.0,99999,,0.0,0,11160004051018020130301804276051000600007000080000
3921,LOXZ,47.2028,14.7442,2024-05-24 12:20:00,,,,,20.0,1017.0,6404.375635153283,9.0,11.0,80.0,10000.0,99999,,0.0,0,1116000811102002090301704404351000600007000080000
3925,EGPK,55.5094,-4.58667,2024-05-24 12:20:00,,,,,13.0,1016.0,1195.7792932344403,11.0,8.0,280.0,10000.0,99999,,0.0,0,11160028081013020110301604195751000600007000080000
3926,EGPO,58.2156,-6.33111,2024-05-24 12:20:00,,,,,13.0,1014.0,1084.3037849304176,11.0,3.0,170.0,10000.0,99999,,0.0,0,11160017031013020110301404084351000600007000080000
3927,EKAH,56.3,10.619,2024-05-24 12:20:00,,,,,18.0,1022.0,1186.274820391793,9.0,3.0,,10000.0,99999,,0.0,0,1116003603101802090302204186251000600007000080000
3928,EKKA,56.2975,9.12463,2024-05-24 12:20:00,,,,,19.0,1021.0,1352.637207961332,9.0,2.0,,10000.0,99999,,0.0,0,1116003602101902090302104352651000600007000080000
3929,EKYT,57.09276,9.84924,2024-05-24 12:20:00,,,,,17.0,1021.0,1041.6108084504049,11.0,5.0,310.0,10000.0,99999,,0.0,0,11160031051017020110302104041651000600007000080000
3930,ENAN,69.2925,16.1442,2024-05-24 12:20:00,,,,,7.0,1026.0,1250.7403397050562,1.0,12.0,300.0,10000.0,99999,,0.0,0,1116003012100702010302604250751000600007000080000
3931,ENBO,67.2692,14.3653,2024-05-24 12:20:00,,,,,10.0,1025.0,1176.5327451133385,4.0,16.0,20.0,10000.0,99999,,0.0,0,1116000216101002040302504176551000600007000080000
3932,ENGM,60.1939,11.1004,2024-05-24 12:20:00,,,,,20.0,1020.0,2448.162024144117,12.0,4.0,260.0,10000.0,99999,,0.0,0,11160026041020020120302004448151000600007000080000
3933,ENOL,63.6989,9.604,2024-05-24 12:20:00,,,,,20.0,1019.0,1068.2447557993587,13.0,10.0,340.0,10000.0,99999,,0.0,0,11160034101020020130301904068251000600007000080000
3934,ENTC,69.6833,18.9189,2024-05-24 12:20:00,16.0,36.0,1,,5.0,1025.0,1251.694699387042,1.0,18.0,280.0,10000.0,99999,,0.0,0,1116002818100502010302504251651000600007160080000
3935,ESSA,59.6519,17.9186,2024-05-24 12:20:00,,,,,22.0,1020.0,1246.6216466782253,15.0,7.0,120.0,10000.0,99999,,0.0,0,11160012071022020150302004246651000600007000080000
3939,EBAW,51.1894,4.46028,2024-05-24 12:20:00,81.0,36.0,r,green,13.0,1019.0,1125.7209334326424,12.0,7.0,120.0,3500.0,99999,,0.0,0,11120012071013020120301904125751000600007810080000
3940,EBBR,50.9014,4.48444,2024-05-24 12:20:00,,,,,14.0,1019.0,1517.555710203423,13.0,2.0,,3500.0,99999,,0.0,0,11120036021014020130301904517551000600007000080000
3941,EBCI,50.4592,4.45382,2024-05-24 12:20:00,61.0,36.0,^,green,13.0,1019.0,3089.3388478547663,12.0,8.0,40.0,9000.0,99999,,0.0,0,11150004081013020120301904089351000600007610080000
3942,EBLG,50.6374,5.44322,2024-05-24 12:20:00,61.0,36.0,^,green,14.0,1018.0,3078.343116935452,12.0,3.0,330.0,10000.0,99999,,0.0,0,11160033031014020120301804078351000600007610080000
3943,EBOS,51.1989,2.86222,2024-05-24 12:20:00,,,,,15.0,1020.0,1050.39805359301,10.0,8.0,340.0,10000.0,99999,,0.0,0,11160034081015020100302004050351000600007000080000
3945,EDHL,53.8054,10.7192,2024-05-24 12:20:00,,,,,21.0,1020.0,1109.5712491466766,14.0,11.0,60.0,10000.0,99999,,0.0,0,11160006111021020140302004109551000600007000080000
3947,EDLP,51.6141,8.61632,2024-05-24 12:20:00,,,,,17.0,1018.0,2783.8693578702296,13.0,1.0,,9000.0,99999,,0.0,0,11150036011017020130301804783851000600007000080000
3948,EDLW,51.5183,7.61224,2024-05-24 12:20:00,,,,,17.0,1017.0,2023.2104134556225,14.0,6.0,40.0,10000.0,99999,,0.0,0,11160004061017020140301704023251000600007000080000
3957,ELLX,49.6266,6.21152,2024-05-24 12:20:00,,,,,14.0,1018.0,5210.4928551241865,12.0,4.0,70.0,10000.0,99999,,0.0,0,11160007041014020120301804210451000600007000080000
3958,ESKM,60.9579,14.5114,2024-05-24 12:20:00,,,,,22.0,1020.0,2203.21313212318,12.0,7.0,120.0,10000.0,99999,,0.0,0,11160012071022020120302004203251000600007000080000
3965,ENAT,69.9761,23.3717,2024-05-24 12:20:00,,,,,8.0,1020.0,1059.532506970294,-1.0,11.0,270.0,10000.0,99999,,0.0,0,1116002711100802110302004059551000600007000080000
3966,ENBV,70.8714,29.0342,2024-05-24 12:20:00,16.0,36.0,1,,5.0,1014.0,1322.1574733516575,-1.0,30.0,280.0,10000.0,99999,,0.0,0,1116002830100502110301404322151000600007160080000
3967,ENEV,68.4913,16.6781,2024-05-24 12:20:00,,,,,11.0,1025.0,1306.81653182081,1.0,8.0,350.0,10000.0,99999,,0.0,0,1116003508101102010302504306851000600007000080000
3968,ENFL,61.5836,5.02472,2024-05-24 12:20:00,,,,,18.0,1021.0,1093.7840575474695,14.0,8.0,240.0,10000.0,99999,,0.0,0,11160024081018020140302104093751000600007000080000
3969,ENHF,70.6797,23.6686,2024-05-24 12:20:00,16.0,36.0,1,,4.0,1018.0,4072.9336861428965,-2.0,23.0,250.0,10000.0,99999,,0.0,0,1116002523100402120301804072951000600007160080000
3970,ENKB,63.1118,7.82452,2024-05-24 12:20:00,,,,,17.0,1020.0,1472.6303991131854,11.0,8.0,360.0,10000.0,99999,,0.0,0,11160036081017020110302004472651000600007000080000
3971,ENKR,69.7258,29.8913,2024-05-24 12:20:00,,,,,10.0,1016.0,2170.801815235588,-2.0,16.0,290.0,10000.0,99999,,0.0,0,1116002916101002120301604170851000600007000080000
3972,ENML,62.7447,7.2625,2024-05-24 12:20:00,,,,,22.0,1019.0,1034.8799029830116,13.0,9.0,220.0,10000.0,99999,,0.0,0,11160022091022020130301904034851000600007000080000
3973,ENMS,65.784,13.2149,2024-05-24 12:20:00,,,,,20.0,1020.0,1466.577941090804,8.0,10.0,340.0,10000.0,99999,,0.0,0,1116003410102002080302004466551000600007000080000
3974,ENNA,70.0688,24.9735,2024-05-24 12:20:00,,,,,9.0,1019.0,1117.6630091679442,-1.0,18.0,310.0,10000.0,99999,,0.0,0,1116003118100902110301904117651000600007000080000
3975,ENRA,66.3639,14.3014,2024-05-24 12:20:00,,,,,18.0,1021.0,1503.372844878616,7.0,11.0,300.0,10000.0,99999,,0.0,0,1116003011101802070302104503351000600007000080000
3976,ENRS,67.5278,12.1033,2024-05-24 12:20:00,,,,,8.0,1026.0,1056.8727313726574,3.0,12.0,20.0,10000.0,99999,,0.0,0,1116000212100802030302604056851000600007000080000
3978,ENSK,68.57883,15.03342,2024-05-24 12:20:00,,,,,8.0,1026.0,1074.6889240384446,2.0,12.0,270.0,10000.0,99999,,0.0,0,1116002712100802020302604074651000600007000080000
3979,ENSO,59.7919,5.34085,2024-05-24 12:20:00,,,,,14.0,1022.0,1452.4653852882755,13.0,2.0,170.0,10000.0,99999,,0.0,0,11160017021014020130302204452451000600007000080000
3980,ENST,65.9568,12.4689,2024-05-24 12:20:00,,,,,15.0,1021.0,1154.7436945714057,8.0,13.0,30.0,10000.0,99999,,0.0,0,1116000313101502080302104154751000600007000080000
3981,ENVD,70.0653,29.8447,2024-05-24 12:20:00,,,,,9.0,1015.0,1551.1367804314573,-1.0,29.0,280.0,10000.0,99999,,0.0,0,1116002829100902110301504551151000600007000080000
3982,LGKF,38.1201,20.5005,2024-05-24 12:20:00,,,,,27.0,1018.0,1095.2172967091274,12.0,12.0,310.0,10000.0,99999,,0.0,0,11160031121027020120301804095251000600007000080000
3983,LGMK,37.4351,25.3481,2024-05-24 12:20:00,,,,,24.0,1016.0,1667.6266825162772,13.0,14.0,360.0,10000.0,99999,,0.0,0,11160036141024020130301604667651000600007000080000
4003,EDLN,51.23028,6.50444,2024-05-24 12:20:00,,,,,15.0,1017.0,1323.4877094776082,14.0,6.0,320.0,3500.0,99999,,0.0,0,11120032061015020140301704323451000600007000080000
4019,EDAC,50.98195,12.50639,2024-05-24 12:20:00,61.0,36.0,^,green,15.0,1018.0,2859.872148171665,13.0,3.0,150.0,4500.0,99999,,0.0,0,11120015031015020130301804859851000600007610080000
4022,EDFM,49.47306,8.51417,2024-05-24 12:20:00,,,,,19.0,1017.0,1641.3392744641314,13.0,4.0,,10000.0,99999,,0.0,0,11160036041019020130301704641351000600007000080000
4025,EDMA,48.42528,10.93167,2024-05-24 12:20:00,,,,,16.0,1018.0,5558.822351754195,10.0,6.0,280.0,10000.0,99999,,0.0,0,11160028061016020100301804558851000600007000080000
4026,EDMO,48.0814,11.2831,2024-05-24 12:20:00,,,,,17.0,1018.0,6594.181874863804,10.0,3.0,,10000.0,99999,,0.0,0,11160036031017020100301804594151000600007000080000
4027,EDNY,47.6713,9.51149,2024-05-24 12:20:00,,,,,19.0,1017.0,4353.443369612314,10.0,3.0,260.0,10000.0,99999,,0.0,0,11160026031019020100301704353451000600007000080000
4028,EDQM,50.28861,11.85639,2024-05-24 12:20:00,80.0,36.0,q,green,15.0,1018.0,7420.070356976813,12.0,3.0,80.0,10000.0,99999,,0.0,0,11160008031015020120301804420051000600007800080000
4029,EDSB,48.7794,8.0805,2024-05-24 12:20:00,16.0,36.0,1,,18.0,1017.0,1919.3269736734535,12.0,4.0,,10000.0,99999,,0.0,0,11160036041018020120301704919351000600007160080000
4031,EDVE,52.3192,10.5561,2024-05-24 12:20:00,,,,,17.0,1018.0,1691.1184680384085,14.0,8.0,170.0,10000.0,99999,,0.0,0,11160017081017020140301804691151000600007000080000
4040,EDAH,53.8787,14.1523,2024-05-24 12:20:00,,,,,19.0,1021.0,1197.7358989435174,13.0,10.0,40.0,10000.0,99999,,0.0,0,11160004101019020130302104197751000600007000080000
4043,EDHK,54.37944,10.14528,2024-05-24 12:20:00,,,,,18.0,1021.0,1226.6626211034336,12.0,11.0,70.0,10000.0,99999,,0.0,0,11160007111018020120302104226651000600007000080000
4044,EDTL,48.3693,7.82772,2024-05-24 12:20:00,,,,,18.0,1017.0,2177.0148538599856,12.0,2.0,,10000.0,99999,,0.0,0,11160036021018020120301704177051000600007000080000
4046,EDXW,54.9132,8.34047,2024-05-24 12:20:00,,,,,19.0,1021.0,1116.46439693915,12.0,6.0,40.0,10000.0,99999,,0.0,0,11160004061019020120302104116451000600007000080000
4059,EDFH,49.9487,7.26389,2024-05-24 12:20:00,,,,,14.0,1017.0,6756.230551255992,10.0,4.0,350.0,10000.0,99999,,0.0,0,11160035041014020100301704756251000600007000080000
4060,EDHI,53.53528,9.83556,2024-05-24 12:20:00,,,,,23.0,1019.0,1054.073998712592,12.0,7.0,50.0,10000.0,99999,,0.0,0,11160005071023020120301904054051000600007000080000
4061,EDVK,51.40833,9.3775,2024-05-24 12:20:00,,,,,18.0,1017.0,3247.369708875751,14.0,2.0,,10000.0,99999,,0.0,0,11160036021018020140301704247351000600007000080000
4062,ENBL,61.3911,5.75694,2024-05-24 12:20:00,,,,,21.0,1020.0,3222.0573853931933,10.0,3.0,250.0,10000.0,99999,,0.0,0,11160025031021020100302004222051000600007000080000
4063,ENBN,65.4611,12.2175,2024-05-24 12:20:00,,,,,14.0,1021.0,1084.1086695097886,8.0,15.0,350.0,10000.0,99999,,0.0,0,1116003515101402080302104084151000600007000080000
4064,ENRM,64.8383,11.1461,2024-05-24 12:20:00,,,,,14.0,1020.0,1055.1084187309557,9.0,16.0,10.0,10000.0,99999,,0.0,0,1116000116101402090302004055151000600007000080000
4077,LGBL,39.2196,22.7943,2024-05-24 12:20:00,,,,,28.0,1015.0,1120.0104559451675,13.0,12.0,110.0,10000.0,99999,,0.0,0,11160011121028020130301504120051000600007000080000
4089,EGSC,52.205,0.175,2024-05-24 12:20:00,,,,,17.0,1018.0,1116.0934034197426,9.0,8.0,260.0,10000.0,99999,,0.0,0,1116002608101702090301804116051000600007000080000
4093,LOAV,47.965,16.26,2024-05-24 12:24:00,95.0,36.0,2,red,17.0,99999.0,99999.0,13.0,10.0,300.0,8000.0,99999,,0.0,0,11140030101017020130399904999051000600007950080000
4100,EHLE,52.4603,5.52722,2024-05-24 12:25:00,61.0,36.0,^,green,19.0,1019.0,995.2958235528616,13.0,3.0,140.0,10000.0,99999,,0.0,0,11160014031019020130301904995251000600007610080000
4103,EGPB,59.8789,-1.29556,2024-05-24 12:20:00,,,,,14.0,1018.0,1068.2106919016628,12.0,7.0,110.0,10000.0,99999,,0.0,0,11160011071014020120301804068251000600007000080000
4105,ETHB,52.2785,9.08217,2024-05-24 12:20:00,,,,,22.0,1017.0,1406.569445473912,12.0,8.0,80.0,10000.0,99999,,0.0,0,11160008081022020120301704406551000600007000080000
4107,ETHF,51.1146,9.286,2024-05-24 12:20:00,,,,,19.0,1017.0,4292.832502230306,12.0,1.0,120.0,10000.0,99999,,0.0,0,11160012011019020120301704292851000600007000080000
4112,ETNH,54.3122,9.53817,2024-05-24 12:20:00,,,,,20.0,1020.0,1088.9274004229708,13.0,9.0,60.0,10000.0,99999,,0.0,0,11160006091020020130302004088951000600007000080000
4118,ETSN,48.711,11.2115,2024-05-24 12:20:00,,,,,17.0,1017.0,4433.271147300268,10.0,3.0,310.0,10000.0,99999,,0.0,0,11160031031017020100301704433251000600007000080000
4130,EFKI,64.2855,27.6924,2024-05-24 12:20:00,,,,,25.0,1020.0,1778.6475733202815,8.0,14.0,270.0,10000.0,99999,,0.0,0,1116002714102502080302004778651000600007000080000
4131,EFKU,63.0071,27.7978,2024-05-24 12:20:00,,,,,26.0,1022.0,1492.6720859372324,6.0,9.0,260.0,10000.0,99999,,0.0,0,1116002609102602060302204492651000600007000080000
4132,ESIB,58.4264,12.7144,2024-05-24 12:20:00,,,,,18.0,1020.0,1394.8975716113173,14.0,8.0,360.0,10000.0,99999,,0.0,0,11160036081018020140302004394851000600007000080000
4140,LGAD,37.9207,21.2926,2024-05-24 12:20:00,,,,,27.0,1017.0,1088.836365383134,13.0,8.0,300.0,10000.0,99999,,0.0,0,11160030081027020130301704088851000600007000080000
4141,LGKP,35.4214,27.146,2024-05-24 12:20:00,,,,,25.0,1015.0,1108.311449321616,19.0,18.0,280.0,10000.0,99999,,0.0,0,11160028181025020190301504108351000600007000080000
4160,EHDL,52.0606,5.87306,2024-05-24 12:25:00,58.0,36.0,[,green,16.0,1018.0,1385.0392084092884,14.0,4.0,320.0,6000.0,99999,,0.0,0,11130032041016020140301804385051000600007580080000
4162,EHLW,53.2286,5.76056,2024-05-24 12:25:00,,,,,21.0,1019.0,1023.9794907680655,12.0,3.0,70.0,10000.0,99999,,0.0,0,11160007031021020120301904023951000600007000080000
4163,EHRD,51.9569,4.43722,2024-05-24 12:25:00,95.0,36.0,2,red,18.0,1019.0,990.1615311081355,12.0,8.0,120.0,10000.0,99999,,0.0,0,11160012081018020120301904990151000600007950080000
4166,EGAA,54.6575,-6.21583,2024-05-24 12:20:00,,,,,12.0,1016.0,1902.7546195778311,10.0,6.0,300.0,10000.0,99999,,0.0,0,11160030061012020100301604902751000600007000080000
4167,EGBJ,51.8942,-2.16722,2024-05-24 12:20:00,,,,,15.0,1018.0,1263.3650133808064,8.0,5.0,190.0,10000.0,99999,,0.0,0,1116001905101502080301804263351000600007000080000
4168,EGCC,53.3537,-2.27495,2024-05-24 12:20:00,,,,,13.0,1018.0,1794.544711796353,9.0,2.0,,10000.0,99999,,0.0,0,1116003602101302090301804794551000600007000080000
4170,EGFF,51.3967,-3.34333,2024-05-24 12:20:00,,,,,15.0,1019.0,1580.191100677714,7.0,7.0,260.0,10000.0,99999,,0.0,0,1116002607101502070301904580151000600007000080000
4171,EGJA,49.7061,-2.21472,2024-05-24 12:20:00,,,,,14.0,1020.0,1839.1574241969172,9.0,8.0,230.0,10000.0,99999,,0.0,0,1116002308101402090302004839151000600007000080000
4172,EGKA,50.8356,-0.29722,2024-05-24 12:20:00,,,,,16.0,1019.0,1034.2825111455886,11.0,11.0,200.0,10000.0,99999,,0.0,0,11160020111016020110301904034251000600007000080000
4173,EGKB,51.3308,0.0325,2024-05-24 12:20:00,,,,,16.0,1019.0,2604.7608039593692,6.0,5.0,180.0,10000.0,99999,,0.0,0,1116001805101602060301904604751000600007000080000
4174,EGLC,51.5053,0.05528,2024-05-24 12:20:00,,,,,17.0,1019.0,1058.2335472319467,7.0,5.0,270.0,10000.0,99999,,0.0,0,1116002705101702070301904058251000600007000080000
4175,EGLL,51.4706,-0.46194,2024-05-24 12:20:00,,,,,17.0,1019.0,1194.9288109295596,7.0,7.0,280.0,10000.0,99999,,0.0,0,1116002807101702070301904194951000600007000080000
4176,EGNM,53.8659,-1.66057,2024-05-24 12:20:00,,,,,13.0,1017.0,3342.6604489453375,10.0,8.0,240.0,10000.0,99999,,0.0,0,11160024081013020100301704342651000600007000080000
4177,EGNS,54.0833,-4.62389,2024-05-24 12:20:00,,,,,12.0,1017.0,1172.2634458364146,10.0,7.0,230.0,10000.0,99999,,0.0,0,11160023071012020100301704172251000600007000080000
4178,EGNV,54.5092,-1.42941,2024-05-24 12:20:00,,,,,17.0,1016.0,1273.2612619870547,12.0,10.0,180.0,10000.0,99999,,0.0,0,11160018101017020120301604273251000600007000080000
4180,EGPC,58.4589,-3.09306,2024-05-24 12:20:00,,,,,13.0,1016.0,1375.1388337064843,11.0,4.0,110.0,10000.0,99999,,0.0,0,11160011041013020110301604375151000600007000080000
4181,EGPD,57.2019,-2.19778,2024-05-24 12:20:00,,,,,13.0,1015.0,1651.8475182453453,13.0,1.0,,8000.0,99999,,0.0,0,11140036011013020130301504651851000600007000080000
4182,EGSS,51.885,0.235,2024-05-24 12:20:00,,,,,16.0,1019.0,1882.6853451366073,8.0,6.0,230.0,10000.0,99999,,0.0,0,1116002306101602080301904882651000600007000080000
4183,EGTE,50.7344,-3.41389,2024-05-24 12:20:00,,,,,15.0,1019.0,1267.1449349750276,6.0,6.0,290.0,10000.0,99999,,0.0,0,1116002906101502060301904267151000600007000080000
4255,ETHN,49.39194,9.95889,2024-05-24 12:20:00,,,,,16.0,1018.0,4975.476656670958,12.0,6.0,250.0,10000.0,99999,,0.0,0,11160025061016020120301804975451000600007000080000
4256,ETMN,53.7677,8.6585,2024-05-24 12:20:00,,,,,21.0,1019.0,1143.0685404810713,12.0,13.0,50.0,10000.0,99999,,0.0,0,11160005131021020120301904143051000600007000080000
4286,ETIK,49.4739,10.3881,2024-05-24 12:25:00,,,,,17.0,30.04,3961.6831470327893,12.0,0.0,0.0,10000.0,99999,,0.0,0,1116000000101702012033004961651000600007000080000
4307,EDDM,48.3538,11.7861,2024-05-24 12:20:00,,,,,18.0,1018.0,4918.71443787325,11.0,4.0,,10000.0,99999,,0.0,0,11160036041018020110301804918751000600007000080000
4308,EDDN,49.4987,11.0669,2024-05-24 12:20:00,16.0,36.0,1,,18.0,1017.0,3634.9192651722346,11.0,4.0,200.0,10000.0,99999,,0.0,0,11160020041018020110301704634951000600007160080000
4318,EGDY,51.0094,-2.63882,2024-05-24 12:20:00,,,,,16.0,1019.0,1187.6865423887887,6.0,7.0,260.0,10000.0,99999,,0.0,0,1116002607101602060301904187651000600007000080000
4319,EGOS,52.7982,-2.66804,2024-05-24 12:20:00,,,,,12.0,1018.0,1837.1068560094475,8.0,8.0,230.0,10000.0,99999,,0.0,0,1116002308101202080301804837151000600007000080000
4327,EGUB,51.6164,-1.09583,2024-05-24 12:20:00,,,,,15.0,1019.0,1596.7830080407118,8.0,6.0,260.0,10000.0,99999,,0.0,0,1116002606101502080301904596751000600007000080000
4328,EGUW,52.1273,0.95626,2024-05-24 12:20:00,,,,,16.0,1018.0,1707.970916947038,9.0,4.0,280.0,10000.0,99999,,0.0,0,1116002804101602090301804707951000600007000080000
4333,EGVP,51.1394,-1.56861,2024-05-24 12:20:00,,,,,15.0,1019.0,1797.6391084648033,6.0,4.0,250.0,10000.0,99999,,0.0,0,1116002504101502060301904797651000600007000080000
4335,EGXC,53.093,-0.16601,2024-05-24 12:20:00,,,,,15.0,1018.0,1076.678683055841,9.0,9.0,220.0,10000.0,99999,,0.0,0,1116002209101502090301804076651000600007000080000
4339,EGYD,53.0303,-0.48324,2024-05-24 12:20:00,,,,,14.0,1018.0,1616.220333271323,8.0,10.0,220.0,10000.0,99999,,0.0,0,1116002210101402080301804616251000600007000080000
4348,LIRN,40.886,14.2908,2024-05-24 12:20:00,,,,,25.0,1018.0,1460.0823713420173,14.0,6.0,180.0,10000.0,99999,,0.0,0,11160018061025020140301804460051000600007000080000
4349,EHKD,52.9234,4.78062,2024-05-24 12:25:00,,,,,19.0,1019.0,1024.5042531484319,14.0,6.0,310.0,10000.0,99999,,0.0,0,11160031061019020140301904024551000600007000080000
4390,LTCS,37.44566,38.89559,2024-05-24 12:20:00,,,,,27.0,1007.0,5787.376808944132,3.0,12.0,260.0,10000.0,99999,,0.0,0,1116002612102702030300704787351000600007000080000
4394,LTFM,41.27533,28.752,2024-05-24 12:20:00,,,,,20.0,1016.0,1641.3782945830926,16.0,13.0,20.0,10000.0,99999,,0.0,0,11160002131020020160301604641351000600007000080000
4396,ETHC,52.5912,10.0221,2024-05-24 12:20:00,,,,,24.0,1017.0,1210.937442171708,10.0,8.0,60.0,10000.0,99999,,0.0,0,11160006081024020100301704210951000600007000080000
4397,ETHL,48.2203,9.91002,2024-05-24 12:20:00,,,,,18.0,1017.0,5730.101272996338,10.0,3.0,340.0,10000.0,99999,,0.0,0,11160034031018020100301704730151000600007000080000
4398,ETHS,52.9194,10.1975,2024-05-24 12:20:00,,,,,23.0,1017.0,1414.4077881201806,11.0,9.0,60.0,10000.0,99999,,0.0,0,11160006091023020110301704414451000600007000080000
4399,ETNL,53.9182,12.2783,2024-05-24 12:20:00,,,,,20.0,1020.0,1272.204313199441,14.0,11.0,40.0,10000.0,99999,,0.0,0,11160004111020020140302004272251000600007000080000
4400,ETNN,50.8312,6.65817,2024-05-24 12:20:00,61.0,36.0,^,green,13.0,1017.0,2222.8282506623527,13.0,10.0,260.0,10000.0,99999,,0.0,0,11160026101013020130301704222851000600007610080000
4401,ETNW,52.4573,9.42717,2024-05-24 12:20:00,,,,,23.0,1017.0,1315.6430806655476,12.0,5.0,90.0,10000.0,99999,,0.0,0,11160009051023020120301704315651000600007000080000
4402,ETSH,51.7678,13.1677,2024-05-24 12:20:00,,,,,24.0,1017.0,1429.9037915172355,10.0,10.0,70.0,10000.0,99999,,0.0,0,11160007101024020100301704429951000600007000080000
4403,ETSI,48.7157,11.534,2024-05-24 12:20:00,,,,,17.0,1017.0,4288.45940475358,11.0,3.0,30.0,10000.0,99999,,0.0,0,11160003031017020110301704288451000600007000080000
4405,ENSH,68.2433,14.6692,2024-05-24 12:20:00,,,,,10.0,1026.0,1122.5068467077326,2.0,11.0,340.0,10000.0,99999,,0.0,0,1116003411101002020302604122551000600007000080000
4410,EGDM,51.1522,-1.74741,2024-05-24 12:20:00,,,,,14.0,1019.0,2212.7320503835144,6.0,8.0,260.0,10000.0,99999,,0.0,0,1116002608101402060301904212751000600007000080000
4416,EGWU,51.553,-0.41817,2024-05-24 12:20:00,,,,,17.0,1019.0,1286.0252596208609,7.0,7.0,250.0,10000.0,99999,,0.0,0,1116002507101702070301904286051000600007000080000
4418,EGYM,52.6484,0.55069,2024-05-24 12:20:00,,,,,16.0,1018.0,1186.5210011303109,8.0,6.0,240.0,10000.0,99999,,0.0,0,1116002406101602080301804186551000600007000080000
4422,LOXT,48.3167,16.1167,2024-05-24 12:20:00,,,,,21.0,1018.0,2130.844402566008,13.0,5.0,240.0,25.0,99999,,0.0,0,11100024051021020130301804130851000600007000080000
4423,LWOH,41.18,20.7423,2024-05-24 12:20:00,,,,,21.0,1018.0,6366.008722589411,12.0,6.0,170.0,10000.0,99999,,0.0,0,11160017061021020120301804366051000600007000080000
4448,LTBA,40.9769,28.8146,2024-05-24 12:20:00,,,,,22.0,1015.0,1285.368678138658,14.0,6.0,20.0,10000.0,99999,,0.0,0,11160002061022020140301504285351000600007000080000
4450,LTBS,36.7131,28.7925,2024-05-24 12:20:00,,,,,29.0,1009.0,1032.897953933291,9.0,18.0,330.0,10000.0,99999,,0.0,0,1116003318102902090300904032851000600007000080000
4456,LTCC,37.8939,40.201,2024-05-24 12:20:00,,,,,30.0,1006.0,4466.431211172918,4.0,17.0,210.0,10000.0,99999,,0.0,0,1116002117103002040300604466451000600007000080000
4460,LTFE,37.2506,27.6643,2024-05-24 12:20:00,,,,,29.0,1011.0,1036.1488686219677,10.0,14.0,310.0,10000.0,99999,,0.0,0,11160031141029020100301104036151000600007000080000
4464,LDLO,44.5658,14.3931,2024-05-24 12:30:00,,,,,22.0,1018.0,1268.324406791546,13.0,5.0,260.0,10000.0,99999,,0.0,0,11160026051022020130301804268351000600007000080000
4465,LTAZ,38.7719,34.5345,2024-05-24 12:20:00,,,,,16.0,1010.0,10.369922779344629,13.0,8.0,250.0,10000.0,99999,,0.0,0,1116002508101602013030100410351000600007000080000
4466,LTBR,40.2552,29.5626,2024-05-24 12:20:00,,,,,19.0,1015.0,2731.502928571462,14.0,7.0,280.0,10000.0,99999,,0.0,0,11160028071019020140301504731551000600007000080000
4468,LTFC,37.8554,30.3684,2024-05-24 12:20:00,,,,,15.0,1014.0,10.197294230693092,8.0,15.0,330.0,10000.0,99999,,0.0,0,111600331510150208030140410151000600007000080000
4469,LTFJ,40.8986,29.3092,2024-05-24 12:20:00,,,,,19.0,1015.0,1646.9250830558858,15.0,8.0,240.0,10000.0,99999,,0.0,0,11160024081019020150301504646951000600007000080000
4493,LFCK,43.5563,2.28918,2024-05-24 12:30:00,,,,,17.0,1020.0,3048.4604174745937,9.0,5.0,290.0,10000.0,99999,,0.0,0,1116002905101702090302004048451000600007000080000
4494,LFLP,45.9292,6.09876,2024-05-24 12:30:00,,,,,18.0,1018.0,5018.329795472715,10.0,5.0,290.0,10000.0,99999,,0.0,0,11160029051018020100301804018351000600007000080000
4495,LFLU,44.9216,4.9699,2024-05-24 12:30:00,,,,,20.0,1017.0,2079.550107506919,12.0,14.0,320.0,10000.0,99999,,0.0,0,11160032141020020120301704079551000600007000080000
4501,LFQA,49.2087,4.15658,2024-05-24 12:30:00,,,,,19.0,1017.0,1652.3805793422198,12.0,6.0,310.0,10000.0,99999,,0.0,0,11160031061019020120301704652351000600007000080000
4546,LFLH,46.8261,4.81763,2024-05-24 12:30:00,,,,,19.0,1018.0,2383.823216732442,11.0,5.0,200.0,10000.0,99999,,0.0,0,11160020051019020110301804383851000600007000080000
4552,LFGA,48.1099,7.35901,2024-05-24 12:30:00,,,,,16.0,1017.0,2690.2097249953017,11.0,10.0,240.0,10000.0,99999,,0.0,0,11160024101016020110301704690251000600007000080000
4553,LFJR,47.5603,-0.31222,2024-05-24 12:30:00,,,,,18.0,1019.0,1422.1893590861973,10.0,4.0,320.0,10000.0,99999,,0.0,0,11160032041018020100301904422151000600007000080000
4555,LFRU,48.6032,-3.81578,2024-05-24 12:30:00,,,,,16.0,1020.0,1679.479861423466,5.0,3.0,,10000.0,99999,,0.0,0,1116003603101602050302004679451000600007000080000
4557,LHKE,46.9175,19.7492,2024-05-24 12:15:00,,,,,19.0,1019.0,1797.1835302387035,16.0,4.0,230.0,10000.0,99999,,0.0,0,11160023041019020160301904797151000600007000080000
4558,LHPA,47.3636,17.5008,2024-05-24 12:15:00,17.0,36.0,2,red,24.0,1017.0,1777.5774928085182,12.0,7.0,170.0,10000.0,99999,,0.0,0,11160017071024020120301704777551000600007170080000
4560,LHPR,47.6244,17.8136,2024-05-24 12:15:00,,,,,21.0,1018.0,1812.7851190841482,16.0,11.0,130.0,10000.0,99999,,0.0,0,11160013111021020160301804812751000600007000080000
4561,LHSM,46.6864,17.1591,2024-05-24 12:15:00,,,,,25.0,1017.0,1645.9293229266077,11.0,7.0,180.0,10000.0,99999,,0.0,0,11160018071025020110301704645951000600007000080000
4562,LHSN,47.1229,20.2355,2024-05-24 12:15:00,80.0,36.0,q,green,19.0,1019.0,1675.608385506814,15.0,3.0,320.0,10000.0,99999,,0.0,0,11160032031019020150301904675651000600007800080000
4569,EPBY,53.0968,17.9777,2024-05-24 12:30:00,,,,,20.0,1020.0,1462.5481039700715,16.0,10.0,30.0,10000.0,99999,,0.0,0,11160003101020020160302004462551000600007000080000
4573,EPRA,51.38883,21.21167,2024-05-24 12:30:00,,,,,27.0,1018.0,1939.2466552408323,14.0,10.0,130.0,10000.0,99999,,0.0,0,11160013101027020140301804939251000600007000080000
4575,EPSY,53.48194,20.93778,2024-05-24 12:30:00,,,,,28.0,1019.0,1659.74579253407,8.0,10.0,150.0,10000.0,99999,,0.0,0,1116001510102802080301904659751000600007000080000
4577,EPZG,52.1385,15.7986,2024-05-24 12:30:00,,,,,23.0,1018.0,1328.7220393111602,14.0,9.0,60.0,10000.0,99999,,0.0,0,11160006091023020140301804328751000600007000080000
4580,LTAC,40.1281,32.9951,2024-05-24 12:20:00,,,,,19.0,1011.0,9.031023384418777,11.0,6.0,110.0,10000.0,99999,,0.0,0,111600110610190201103011049051000600007000080000
4581,LTAF,36.9822,35.2804,2024-05-24 12:20:00,95.0,36.0,2,red,20.0,1006.0,1120.3372370928164,17.0,8.0,320.0,10000.0,99999,,0.0,0,11160032081020020170300604120351000600007950080000
4582,LTAG,37.0021,35.4259,2024-05-24 12:20:00,95.0,36.0,2,red,21.0,1006.0,1425.9571994262924,15.0,8.0,320.0,10000.0,99999,,0.0,0,11160032081021020150300604425951000600007950080000
4583,LTAJ,36.9472,37.4787,2024-05-24 12:20:00,,,,,21.0,1008.0,6308.38998704678,12.0,17.0,290.0,10000.0,99999,,0.0,0,11160029171021020120300804308351000600007000080000
4585,LTAT,38.4353,38.091,2024-05-24 12:20:00,,,,,18.0,1007.0,8644.187356691315,10.0,17.0,240.0,10000.0,99999,,0.0,0,11160024171018020100300704644151000600007000080000
4586,LTBJ,38.2924,27.157,2024-05-24 12:20:00,,,,,27.0,1013.0,1595.344408580269,12.0,17.0,330.0,10000.0,99999,,0.0,0,11160033171027020120301304595351000600007000080000
4587,LTBU,41.1382,27.9191,2024-05-24 12:20:00,,,,,25.0,1015.0,1928.4922296856073,11.0,10.0,30.0,10000.0,99999,,0.0,0,11160003101025020110301504928451000600007000080000
4590,LTCJ,37.929,41.1166,2024-05-24 12:20:00,,,,,31.0,1005.0,3625.7036731286103,6.0,13.0,240.0,10000.0,99999,,0.0,0,1116002413103102060300504625751000600007000080000
4591,ETNG,50.9608,6.04242,2024-05-24 12:29:00,,,,,14.0,1018.0,1854.2470404149067,13.0,8.0,290.0,4000.0,99999,,0.0,0,11120029081014020130301804854251000600007000080000
4592,LTAI,36.8987,30.8005,2024-05-24 12:21:00,,,,,27.0,1008.0,1244.267208419663,10.0,27.0,340.0,10000.0,99999,,0.0,0,11160034271027020100300804244251000600007000080000
4602,EHAM,52.3086,4.76389,2024-05-24 12:25:00,61.0,36.0,^,green,19.0,1018.0,997.9466461370909,13.0,5.0,170.0,10000.0,99999,,0.0,0,11160017051019020130301804997951000600007610080000
4603,EHBK,50.9117,5.77014,2024-05-24 12:25:00,61.0,36.0,^,green,15.0,1018.0,2025.199804225982,13.0,5.0,320.0,10000.0,99999,,0.0,0,11160032051015020130301804025151000600007610080000
4604,EHGG,53.1197,6.57944,2024-05-24 12:25:00,,,,,21.0,1018.0,1046.326416644774,12.0,5.0,70.0,10000.0,99999,,0.0,0,11160007051021020120301804046351000600007000080000
4611,LBGO,43.1514,25.7129,2024-05-24 12:30:00,,,,,25.0,1017.0,1444.2159322956375,13.0,5.0,310.0,10000.0,99999,,0.0,0,11160031051025020130301704444251000600007000080000
4645,LYBT,44.9353,20.2575,2024-05-24 12:30:00,,,,,21.0,1019.0,1496.2376634173263,15.0,3.0,70.0,10000.0,99999,,0.0,0,11160007031021020150301904496251000600007000080000
4646,LYKV,43.8183,20.5872,2024-05-24 12:30:00,,,,,22.0,1019.0,2310.7309708982234,12.0,9.0,50.0,10000.0,99999,,0.0,0,11160005091022020120301904310751000600007000080000
4650,LYVR,45.1469,21.3099,2024-05-24 12:30:00,,,,,21.0,1020.0,1519.044969977911,17.0,7.0,50.0,10000.0,99999,,0.0,0,11160005071021020170302004519051000600007000080000
4661,LFBY,43.6892,-1.06889,2024-05-24 12:30:00,,,,,20.0,1019.0,1214.2550784285525,12.0,3.0,,10000.0,99999,,0.0,0,11160036031020020120301904214251000600007000080000
4720,LFPM,48.6047,2.67112,2024-05-24 12:30:00,,,,,19.0,1017.0,1628.1238746952638,12.0,4.0,310.0,10000.0,99999,,0.0,0,11160031041019020120301704628151000600007000080000
4737,LFRL,48.2817,-4.44502,2024-05-24 12:30:00,,,,,16.0,1020.0,1719.3200735263774,7.0,5.0,300.0,10000.0,99999,,0.0,0,1116003005101602070302004719351000600007000080000
4747,EGXV,53.8758,-0.435,2024-05-24 12:20:00,,,,,14.0,1017.0,1108.0231998614388,10.0,6.0,200.0,10000.0,99999,,0.0,0,11160020061014020100301704108051000600007000080000
4777,EBCV,50.5758,3.831,2024-05-24 12:25:00,,,,,17.0,1018.0,1446.1072646446362,13.0,8.0,50.0,10000.0,99999,,0.0,0,11160005081017020130301804446151000600007000080000
4781,EBLB,50.4817,6.18194,2024-05-24 12:25:00,,,,,13.0,1018.0,7932.934133914871,10.0,7.0,340.0,10000.0,99999,,0.0,0,11160034071013020100301804932951000600007000080000
4789,EPLL,51.7219,19.3981,2024-05-24 12:30:00,,,,,25.0,1017.0,1985.6164257417975,15.0,8.0,90.0,10000.0,99999,,0.0,0,11160009081025020150301704985651000600007000080000
4790,EPWR,51.1027,16.8858,2024-05-24 12:30:00,,,,,23.0,1017.0,1698.450971002577,13.0,6.0,70.0,10000.0,99999,,0.0,0,11160007061023020130301704698451000600007000080000
4791,LFBE,44.8253,0.51861,2024-05-24 12:30:00,,,,,20.0,1019.0,1334.5038636890833,11.0,4.0,230.0,10000.0,99999,,0.0,0,11160023041020020110301904334551000600007000080000
4792,LFBG,45.6583,-0.3175,2024-05-24 12:30:00,,,,,19.0,1019.0,1213.0725014753468,10.0,2.0,,10000.0,99999,,0.0,0,11160036021019020100301904213051000600007000080000
4793,LFCR,44.4079,2.48267,2024-05-24 12:30:00,,,,,15.0,1019.0,7260.747202261972,8.0,4.0,280.0,10000.0,99999,,0.0,0,1116002804101502080301904260751000600007000080000
4798,LFMO,44.1405,4.86672,2024-05-24 12:30:00,,,,,22.0,1018.0,1348.9427754825479,12.0,11.0,170.0,10000.0,99999,,0.0,0,11160017111022020120301804348951000600007000080000
4800,LFOK,48.7761,4.18449,2024-05-24 12:30:00,,,,,20.0,1017.0,2221.2310289371508,11.0,5.0,280.0,10000.0,99999,,0.0,0,11160028051020020110301704221251000600007000080000
4801,LHDC,47.4889,21.6153,2024-05-24 12:15:00,95.0,36.0,2,red,23.0,1018.0,1617.7749475300309,13.0,11.0,250.0,10000.0,99999,,0.0,0,11160025111023020130301804617751000600007950080000
4802,LHPP,45.9909,18.241,2024-05-24 12:15:00,,,,,23.0,1018.0,2899.8716041432226,12.0,6.0,200.0,10000.0,99999,,0.0,0,11160020061023020120301804899851000600007000080000
4807,LZPP,48.6252,17.8284,2024-05-24 12:30:00,,,,,19.0,1019.0,2194.8819611074,15.0,8.0,120.0,10000.0,99999,,0.0,0,11160012081019020150301904194851000600007000080000
4808,LZZI,49.2315,18.6135,2024-05-24 12:30:00,61.0,36.0,^,green,17.0,1019.0,3739.4450855596638,15.0,6.0,250.0,10000.0,99999,,0.0,0,11160025061017020150301904739451000600007610080000
4809,EGDR,50.0861,-5.25571,2024-05-24 12:20:00,,,,,14.0,1019.0,1766.1974378491936,6.0,6.0,250.0,10000.0,99999,,0.0,0,1116002506101402060301904766151000600007000080000
4812,EGQS,57.7052,-3.33917,2024-05-24 12:20:00,,,,,13.0,1015.0,1129.662285719101,10.0,9.0,80.0,10000.0,99999,,0.0,0,11160008091013020100301504129651000600007000080000
4813,EGVN,51.75,-1.58362,2024-05-24 12:20:00,,,,,14.0,1019.0,1831.130041137394,7.0,4.0,250.0,10000.0,99999,,0.0,0,1116002504101402070301904831151000600007000080000
4814,EGVO,51.2341,-0.94283,2024-05-24 12:20:00,,,,,15.0,1019.0,2117.732609039935,6.0,6.0,230.0,10000.0,99999,,0.0,0,1116002306101502060301904117751000600007000080000
4815,EGXE,54.2924,-1.5354,2024-05-24 12:20:00,,,,,15.0,1016.0,1340.2797110651686,10.0,9.0,220.0,10000.0,99999,,0.0,0,11160022091015020100301604340251000600007000080000
4834,LQMO,43.2829,17.8459,2024-05-24 12:30:00,,,,,27.0,1016.0,1224.821497640212,10.0,5.0,90.0,10000.0,99999,,0.0,0,11160009051027020100301604224851000600007000080000
4852,LJCE,45.9,15.5302,2024-05-24 12:30:00,80.0,36.0,q,green,19.0,1018.0,2108.4703006665545,14.0,5.0,180.0,10000.0,99999,,0.0,0,11160018051019020140301804108451000600007800080000
4862,LFAQ,49.9715,2.69766,2024-05-24 12:30:00,,,,,18.0,1018.0,1814.1622244196647,11.0,4.0,340.0,10000.0,99999,,0.0,0,11160034041018020110301804814151000600007000080000
4863,LFBU,45.7292,0.22146,2024-05-24 12:30:00,,,,,17.0,1019.0,2056.3520623475115,9.0,3.0,240.0,10000.0,99999,,0.0,0,1116002403101702090301904056351000600007000080000
4866,LFOV,48.0314,-0.74299,2024-05-24 12:30:00,,,,,18.0,1019.0,1734.534861786962,9.0,4.0,250.0,10000.0,99999,,0.0,0,1116002504101802090301904734551000600007000080000
4870,LFRV,47.7233,-2.71856,2024-05-24 12:30:00,,,,,16.0,1019.0,2157.7136552422544,7.0,3.0,,10000.0,99999,,0.0,0,1116003603101602070301904157751000600007000080000
4871,LFSG,48.325,6.06998,2024-05-24 12:30:00,,,,,17.0,1017.0,3926.7812395113037,11.0,6.0,230.0,10000.0,99999,,0.0,0,11160023061017020110301704926751000600007000080000
4874,LFOZ,47.8969,2.16333,2024-05-24 12:30:00,,,,,16.0,1018.0,2013.9774426717108,12.0,7.0,260.0,10000.0,99999,,0.0,0,11160026071016020120301804013951000600007000080000
4875,LFPT,49.0966,2.04083,2024-05-24 12:30:00,,,,,19.0,1018.0,1680.6353040173665,12.0,9.0,310.0,10000.0,99999,,0.0,0,11160031091019020120301804680651000600007000080000
4879,LFSM,47.487,6.79054,2024-05-24 12:30:00,,,,,18.0,1018.0,3624.2175355449995,11.0,9.0,240.0,10000.0,99999,,0.0,0,11160024091018020110301804624251000600007000080000
4903,LEMI,37.803,-1.125,2024-05-24 12:30:00,,,,,24.0,1016.0,2083.159316341307,13.0,14.0,90.0,10000.0,99999,,0.0,0,11160009141024020130301604083151000600007000080000
4905,LECH,40.21417,0.07333,2024-05-24 12:30:00,,,,,21.0,1018.0,3544.8306874070595,13.0,12.0,100.0,10000.0,99999,,0.0,0,11160010121021020130301804544851000600007000080000
4932,UWKS,56.0903,47.3473,2024-05-24 12:30:00,,,,,18.0,1029.0,2324.8346278751164,-4.0,7.0,280.0,10000.0,99999,,0.0,0,1116002807101802140302904324851000600007000080000
4934,UUBW,55.5533,38.15,2024-05-24 12:30:00,,,,,20.0,1032.0,1779.0894405358094,1.0,3.0,160.0,10000.0,99999,,0.0,0,1116001603102002010303204779051000600007000080000
4935,UUOL,52.7028,39.5378,2024-05-24 12:30:00,,,,,19.0,1031.0,2316.936619800411,-4.0,4.0,80.0,10000.0,99999,,0.0,0,1116000804101902140303104316951000600007000080000
4936,ULWC,59.27667,38.02833,2024-05-24 12:30:00,,,,,24.0,1028.0,1637.866518345789,5.0,4.0,240.0,10000.0,99999,,0.0,0,1116002404102402050302804637851000600007000080000
4937,UUBC,54.55,36.36667,2024-05-24 12:30:00,,,,,19.0,1032.0,2499.872473193653,-0.0,4.0,120.0,10000.0,99999,,0.0,0,1116001204101902100303204499851000600007000080000
4938,UUOB,50.6438,36.5901,2024-05-24 12:30:00,,,,,23.0,1027.0,2365.4252330400345,4.0,7.0,80.0,10000.0,99999,,0.0,0,1116000807102302040302704365451000600007000080000
4939,UUOK,51.7506,36.2956,2024-05-24 12:30:00,,,,,22.0,1028.0,2331.1397822211716,3.0,5.0,110.0,10000.0,99999,,0.0,0,1116001105102202030302804331151000600007000080000
4942,UWPS,54.12513,45.21226,2024-05-24 12:30:00,,,,,17.0,1031.0,2752.5752765670222,-5.0,2.0,350.0,10000.0,99999,,0.0,0,1116003502101702150303104752551000600007000080000
4951,URMG,43.3883,45.6986,2024-05-24 12:30:00,,,,,25.0,1016.0,1016.0,7.0,11.0,100.0,10000.0,99999,,0.0,0,1116001011102502070301604016051000600007000080000
4955,URMO,43.2051,44.6066,2024-05-24 12:30:00,,,,,21.0,1017.0,4758.843421221223,7.0,6.0,90.0,10000.0,99999,,0.0,0,1116000906102102070301704758851000600007000080000
4957,URRP,47.50083,39.93361,2024-05-24 12:30:00,,,,,25.0,1022.0,1446.4938774078573,4.0,12.0,80.0,10000.0,99999,,0.0,0,1116000812102502040302204446451000600007000080000
4964,UUDL,57.5607,40.1574,2024-05-24 12:30:00,,,,,23.0,1029.0,1505.1541141791681,5.0,4.0,250.0,10000.0,99999,,0.0,0,1116002504102302050302904505151000600007000080000
4967,UUMO,55.5117,37.5072,2024-05-24 12:30:00,,,,,20.0,1032.0,2209.641443395377,1.0,2.0,140.0,10000.0,99999,,0.0,0,1116001402102002010303204209651000600007000080000
4968,LPCS,38.725,-9.35523,2024-05-24 12:30:00,,,,,24.0,1016.0,1529.344315724462,13.0,5.0,,10000.0,99999,,0.0,0,11160036051024020130301604529351000600007000080000
4988,LFBF,43.5456,1.3675,2024-05-24 12:30:00,,,,,20.0,1019.0,2106.350020473863,9.0,3.0,20.0,10000.0,99999,,0.0,0,1116000203102002090301904106351000600007000080000
4991,LFLW,44.8914,2.42194,2024-05-24 12:30:00,,,,,15.0,1019.0,7888.816533928033,6.0,3.0,230.0,10000.0,99999,,0.0,0,1116002303101502060301904888851000600007000080000
5004,LFBX,45.1981,0.81556,2024-05-24 12:30:00,,,,,20.0,1019.0,1652.5298489762176,9.0,3.0,,10000.0,99999,,0.0,0,1116003603102002090301904652551000600007000080000
5005,LFHP,45.0807,3.76289,2024-05-24 12:30:00,,,,,15.0,1018.0,9.920247079610997,6.0,5.0,300.0,10000.0,99999,,0.0,0,11160030051015020603018049951000600007000080000
5006,LFLN,46.4125,4.01326,2024-05-24 12:30:00,,,,,18.0,1018.0,2936.6420319146964,9.0,5.0,360.0,10000.0,99999,,0.0,0,1116003605101802090301804936651000600007000080000
5017,LFYR,47.3208,1.68889,2024-05-24 12:30:00,,,,,18.0,1018.0,1636.4567891881147,12.0,4.0,230.0,10000.0,99999,,0.0,0,11160023041018020120301804636451000600007000080000
5045,LEHC,42.0761,-0.31667,2024-05-24 12:30:00,,,,,19.0,1018.0,5469.3913760753785,10.0,5.0,140.0,10000.0,99999,,0.0,0,11160014051019020100301804469351000600007000080000
5046,LESU,42.3386,1.40917,2024-05-24 12:30:00,,,,,11.0,1020.0,12.390206896039812,10.0,3.0,230.0,10000.0,99999,,0.0,0,1116002303101102010030200412351000600007000080000
5049,LESB,39.5989,2.70278,2024-05-24 12:30:00,,,,,27.0,1015.0,1225.0045406188008,9.0,10.0,110.0,10000.0,99999,,0.0,0,1116001110102702090301504225051000600007000080000
5067,LEBG,42.3576,-3.62076,2024-05-24 12:30:00,,,,,17.0,1018.0,9.509099335241475,8.0,4.0,30.0,10000.0,99999,,0.0,0,11160003041017020803018049551000600007000080000
5086,LRSB,45.7856,24.0913,2024-05-24 12:30:00,16.0,36.0,1,,25.0,1018.0,3727.5215179620327,12.0,11.0,110.0,10000.0,99999,,0.0,0,11160011111025020120301804727551000600007160080000
5087,LRSV,47.6875,26.3541,2024-05-24 12:30:00,,,,,27.0,1020.0,3278.5057827330893,6.0,12.0,110.0,10000.0,99999,,0.0,0,1116001112102702060302004278551000600007000080000
5097,LFKS,41.9244,9.406,2024-05-24 12:30:00,,,,,23.0,1018.0,1060.7235901565696,16.0,8.0,130.0,10000.0,99999,,0.0,0,11160013081023020160301804060751000600007000080000
5098,LFMC,43.3847,6.38714,2024-05-24 12:30:00,,,,,23.0,1018.0,1450.5152677411431,10.0,4.0,,10000.0,99999,,0.0,0,11160036041023020100301804450551000600007000080000
5107,LRBC,46.5219,26.9103,2024-05-24 12:30:00,,,,,28.0,1019.0,1879.547604482145,3.0,7.0,140.0,10000.0,99999,,0.0,0,1116001407102802030301904879551000600007000080000
5109,LRCL,46.7852,23.6862,2024-05-24 12:30:00,,,,,28.0,1018.0,2584.16506745795,10.0,3.0,100.0,10000.0,99999,,0.0,0,11160010031028020100301804584151000600007000080000
5110,LRCV,44.3181,23.8886,2024-05-24 12:30:00,,,,,26.0,1017.0,1981.9101806602582,12.0,8.0,230.0,10000.0,99999,,0.0,0,11160023081026020120301704981951000600007000080000
5111,LRIA,47.1785,27.6206,2024-05-24 12:30:00,,,,,29.0,1019.0,1539.9263228062143,4.0,12.0,130.0,10000.0,99999,,0.0,0,1116001312102902040301904539951000600007000080000
5112,LRSM,47.7033,22.8857,2024-05-24 12:30:00,,,,,29.0,1017.0,1548.2126552455502,7.0,7.0,160.0,10000.0,99999,,0.0,0,1116001607102902070301704548251000600007000080000
5126,LELO,42.46095,-2.32224,2024-05-24 12:30:00,,,,,21.0,1017.0,3490.243841109149,7.0,4.0,,10000.0,99999,,0.0,0,1116003604102102070301704490251000600007000080000
5139,LROD,47.0253,21.9025,2024-05-24 12:30:00,17.0,36.0,2,red,25.0,1018.0,1744.2385694058214,15.0,13.0,250.0,10000.0,99999,,0.0,0,11160025131025020150301804744251000600007170080000
5141,GEML,35.2798,-2.95626,2024-05-24 12:30:00,,,,,20.0,1015.0,1300.3441871418956,17.0,8.0,80.0,10000.0,99999,,0.0,0,11160008081020020170301504300351000600007000080000
5142,EPGD,54.3776,18.4662,2024-05-24 12:30:00,,,,,18.0,1021.0,2129.502484045209,13.0,8.0,60.0,10000.0,99999,,0.0,0,11160006081018020130302104129551000600007000080000
5143,EPKK,50.0777,19.7848,2024-05-24 12:30:00,95.0,36.0,2,red,16.0,1019.0,3200.1460572277256,12.0,12.0,250.0,10000.0,99999,,0.0,0,11160025121016020120301904200151000600007950080000
5144,EPKT,50.4743,19.08,2024-05-24 12:30:00,95.0,36.0,2,red,18.0,1018.0,3493.270210617157,14.0,11.0,190.0,8000.0,99999,,0.0,0,11140019111018020140301804493251000600007950080000
5145,EPLB,51.24028,22.71361,2024-05-24 12:30:00,,,,,27.0,1019.0,1957.606901493381,8.0,10.0,140.0,10000.0,99999,,0.0,0,1116001410102702080301904957651000600007000080000
5146,EPMO,52.4511,20.6518,2024-05-24 12:30:00,,,,,28.0,1018.0,1476.9460601630515,12.0,8.0,130.0,10000.0,99999,,0.0,0,11160013081028020120301804476951000600007000080000
5147,EPPO,52.421,16.8263,2024-05-24 12:30:00,,,,,23.0,1019.0,1527.7054553293856,14.0,8.0,20.0,10000.0,99999,,0.0,0,11160002081023020140301904527751000600007000080000
5148,EPRZ,50.11,22.019,2024-05-24 12:30:00,95.0,36.0,2,red,21.0,1019.0,2355.745672074408,12.0,18.0,160.0,10000.0,99999,,0.0,0,11160016181021020120301904355751000600007950080000
5149,EPSC,53.5847,14.9022,2024-05-24 12:30:00,,,,,22.0,1020.0,1276.024702017431,12.0,8.0,30.0,10000.0,99999,,0.0,0,11160003081022020120302004276051000600007000080000
5150,EPWA,52.1657,20.9671,2024-05-24 12:30:00,,,,,28.0,1018.0,1507.340679011991,11.0,13.0,100.0,10000.0,99999,,0.0,0,11160010131028020110301804507351000600007000080000
5152,LBBG,42.5696,27.5152,2024-05-24 12:30:00,,,,,24.0,1015.0,1217.8947658337274,14.0,10.0,140.0,10000.0,99999,,0.0,0,11160014101024020140301504217851000600007000080000
5153,LBPD,42.0678,24.8508,2024-05-24 12:30:00,,,,,26.0,1016.0,1930.4602273516655,12.0,6.0,260.0,10000.0,99999,,0.0,0,11160026061026020120301604930451000600007000080000
5154,LBSF,42.69669,23.41144,2024-05-24 12:30:00,,,,,21.0,1019.0,4941.559058433955,11.0,2.0,,10000.0,99999,,0.0,0,11160036021021020110301904941551000600007000080000
5155,LBWN,43.2321,27.8251,2024-05-24 12:30:00,,,,,25.0,1015.0,1354.5292309089887,15.0,6.0,,10000.0,99999,,0.0,0,11160036061025020150301504354551000600007000080000
5156,LHBP,47.4369,19.2556,2024-05-24 12:30:00,,,,,19.0,1019.0,2074.695369246128,17.0,3.0,,10000.0,99999,,0.0,0,11160036031019020170301904074651000600007000080000
5157,LRAR,46.1766,21.262,2024-05-24 12:30:00,,,,,22.0,1019.0,1635.7353239939982,15.0,5.0,300.0,10000.0,99999,,0.0,0,11160030051022020150301904635751000600007000080000
5158,LRBS,44.5032,26.1021,2024-05-24 12:30:00,,,,,28.0,1017.0,1412.6203211221446,7.0,12.0,60.0,10000.0,99999,,0.0,0,1116000612102802070301704412651000600007000080000
5159,LRCK,44.3622,28.4883,2024-05-24 12:30:00,,,,,24.0,1017.0,1578.811702894367,11.0,18.0,70.0,10000.0,99999,,0.0,0,11160007181024020110301704578851000600007000080000
5160,LROP,44.5722,26.1022,2024-05-24 12:30:00,,,,,28.0,1017.0,1436.7916920685748,2.0,12.0,70.0,10000.0,99999,,0.0,0,1116000712102802020301704436751000600007000080000
5161,LRTC,45.0625,28.7143,2024-05-24 12:30:00,,,,,28.0,1017.0,1277.7211503897067,7.0,18.0,50.0,10000.0,99999,,0.0,0,1116000518102802070301704277751000600007000080000
5162,LRTM,46.4677,24.4125,2024-05-24 12:30:00,,,,,28.0,1017.0,2457.206242911673,12.0,3.0,70.0,10000.0,99999,,0.0,0,11160007031028020120301704457251000600007000080000
5163,LRTR,45.8099,21.3379,2024-05-24 12:30:00,,,,,21.0,1019.0,1659.74579253407,16.0,5.0,360.0,10000.0,99999,,0.0,0,11160036051021020160301904659751000600007000080000
5164,LUKK,46.9277,28.931,2024-05-24 12:30:00,,,,,31.0,1019.0,1506.4765663384485,6.0,10.0,90.0,10000.0,99999,,0.0,0,1116000910103102060301904506451000600007000080000
5165,LDDU,42.5614,18.2682,2024-05-24 12:30:00,,,,,22.0,1018.0,1978.3979768441664,16.0,7.0,240.0,10000.0,99999,,0.0,0,11160024071022020160301804978351000600007000080000
5166,LDOS,45.4627,18.8102,2024-05-24 12:30:00,17.0,36.0,2,red,21.0,1018.0,1543.3301857844785,16.0,14.0,130.0,10000.0,99999,,0.0,0,11160013141021020160301804543351000600007170080000
5167,LDPL,44.8935,13.9222,2024-05-24 12:30:00,,,,,22.0,1018.0,1488.1037684177434,12.0,6.0,300.0,10000.0,99999,,0.0,0,11160030061022020120301804488151000600007000080000
5168,LDRI,45.2169,14.5703,2024-05-24 12:30:00,,,,,23.0,1018.0,1473.2488942589907,13.0,1.0,,10000.0,99999,,0.0,0,11160036011023020130301804473251000600007000080000
5169,LDSP,43.5389,16.298,2024-05-24 12:30:00,,,,,26.0,1018.0,1126.0119089649322,11.0,10.0,220.0,10000.0,99999,,0.0,0,11160022101026020110301804126051000600007000080000
5170,LDZA,45.7429,16.0688,2024-05-24 12:30:00,61.0,36.0,^,green,23.0,1017.0,1605.3252318117338,12.0,6.0,190.0,10000.0,99999,,0.0,0,11160019061023020120301704605351000600007610080000
5171,LDZD,44.1083,15.3467,2024-05-24 12:30:00,,,,,26.0,1018.0,1434.2526855313497,8.0,8.0,270.0,10000.0,99999,,0.0,0,1116002708102602080301804434251000600007000080000
5172,LJLJ,46.2237,14.4576,2024-05-24 12:30:00,,,,,21.0,1018.0,3767.7325101048054,10.0,11.0,270.0,10000.0,99999,,0.0,0,11160027111021020100301804767751000600007000080000
5173,LJMB,46.4799,15.6861,2024-05-24 12:30:00,,,,,23.0,1017.0,2633.947671668731,8.0,8.0,230.0,10000.0,99999,,0.0,0,1116002308102302080301704633951000600007000080000
5174,LJPZ,45.4734,13.615,2024-05-24 12:30:00,,,,,22.0,1018.0,1029.0939988088091,14.0,5.0,320.0,10000.0,99999,,0.0,0,11160032051022020140301804029051000600007000080000
5175,LKMT,49.6963,18.1111,2024-05-24 12:30:00,,,,,21.0,1018.0,2738.599166273139,15.0,12.0,240.0,10000.0,99999,,0.0,0,11160024121021020150301804738551000600007000080000
5176,LKPR,50.1008,14.26,2024-05-24 12:30:00,81.0,36.0,r,green,15.0,1018.0,4946.251794506131,14.0,7.0,100.0,6000.0,99999,,0.0,0,11130010071015020140301804946251000600007810080000
5177,LKTB,49.1513,16.6944,2024-05-24 12:30:00,16.0,36.0,1,,19.0,1018.0,2775.5426442254397,13.0,3.0,160.0,10000.0,99999,,0.0,0,11160016031019020130301804775551000600007160080000
5178,LQSA,43.8246,18.3315,2024-05-24 12:30:00,,,,,24.0,1018.0,4316.810270144133,6.0,7.0,,10000.0,99999,,0.0,0,1116003607102402060301804316851000600007000080000
5179,LYBE,44.8184,20.3091,2024-05-24 12:30:00,,,,,21.0,1019.0,1633.7399735487725,13.0,7.0,100.0,10000.0,99999,,0.0,0,11160010071021020130301904633751000600007000080000
5180,LYNI,43.3373,21.8537,2024-05-24 12:30:00,95.0,36.0,2,red,19.0,1019.0,2448.3835026114866,16.0,5.0,30.0,10000.0,99999,,0.0,0,11160003051019020160301904448351000600007950080000
5181,LYPG,42.3594,19.2519,2024-05-24 12:30:00,,,,,26.0,1017.0,1212.734637122885,16.0,6.0,160.0,10000.0,99999,,0.0,0,11160016061026020160301704212751000600007000080000
5182,LYTV,42.4047,18.7233,2024-05-24 12:30:00,,,,,24.0,1018.0,1047.1645639591295,17.0,6.0,,10000.0,99999,,0.0,0,11160036061024020170301804047151000600007000080000
5183,LZIB,48.1702,17.2127,2024-05-24 12:30:00,,,,,21.0,1018.0,1837.6254926375743,14.0,5.0,120.0,10000.0,99999,,0.0,0,11160012051021020140301804837651000600007000080000
5184,LZKZ,48.6631,21.2411,2024-05-24 12:30:00,,,,,24.0,1018.0,2321.378186417906,15.0,8.0,270.0,10000.0,99999,,0.0,0,11160027081024020150301804321351000600007000080000
5185,LZTT,49.0736,20.2411,2024-05-24 12:30:00,95.0,36.0,2,red,16.0,1020.0,8271.512989472993,11.0,11.0,120.0,10000.0,99999,,0.0,0,11160012111016020110302004271551000600007950080000
5190,LFAC,50.9621,1.95476,2024-05-24 12:30:00,,,,,16.0,1019.0,1045.2580659846865,9.0,6.0,340.0,10000.0,99999,,0.0,0,1116003406101602090301904045251000600007000080000
5191,LFAT,50.5174,1.62059,2024-05-24 12:30:00,,,,,16.0,1019.0,1098.6220856826353,7.0,9.0,320.0,10000.0,99999,,0.0,0,1116003209101602070301904098651000600007000080000
5192,LFBD,44.8283,-0.71556,2024-05-24 12:30:00,,,,,21.0,1019.0,1302.166254097697,8.0,4.0,100.0,10000.0,99999,,0.0,0,1116001004102102080301904302151000600007000080000
5193,LFBH,46.1792,-1.19528,2024-05-24 12:30:00,,,,,18.0,1019.0,1166.3683795992956,10.0,6.0,310.0,10000.0,99999,,0.0,0,11160031061018020100301904166351000600007000080000
5195,LFBI,46.5877,0.30667,2024-05-24 12:30:00,,,,,17.0,1019.0,2021.9005143196916,11.0,4.0,330.0,10000.0,99999,,0.0,0,11160033041017020110301904021951000600007000080000
5196,LFBO,43.6291,1.36382,2024-05-24 12:30:00,,,,,19.0,1019.0,2084.236382654161,9.0,3.0,,10000.0,99999,,0.0,0,1116003603101902090301904084251000600007000080000
5197,LFBP,43.38,-0.41861,2024-05-24 12:30:00,,,,,20.0,1019.0,2292.913017429519,10.0,3.0,,10000.0,99999,,0.0,0,11160036031020020100301904292951000600007000080000
5198,LFBT,43.1787,-0.00644,2024-05-24 12:30:00,,,,,18.0,1019.0,4259.906355210933,9.0,4.0,20.0,10000.0,99999,,0.0,0,1116000204101802090301904259951000600007000080000
5199,LFBZ,43.4684,-1.52332,2024-05-24 12:30:00,,,,,17.0,1019.0,1569.6500993678874,13.0,8.0,340.0,10000.0,99999,,0.0,0,11160034081017020130301904569651000600007000080000
5201,LFKB,42.5527,9.48373,2024-05-24 12:30:00,,,,,22.0,1018.0,1059.4645867654533,14.0,9.0,110.0,10000.0,99999,,0.0,0,11160011091022020140301804059451000600007000080000
5202,LFKC,42.5308,8.79319,2024-05-24 12:30:00,,,,,19.0,1018.0,1429.6474213840963,12.0,12.0,10.0,10000.0,99999,,0.0,0,11160001121019020120301804429651000600007000080000
5203,LFKJ,41.9236,8.80292,2024-05-24 12:30:00,,,,,24.0,1018.0,1044.2322975195395,14.0,8.0,210.0,10000.0,99999,,0.0,0,11160021081024020140301804044251000600007000080000
5204,LFLB,45.6381,5.88023,2024-05-24 12:30:00,,,,,21.0,1017.0,2586.2006483545024,12.0,7.0,360.0,10000.0,99999,,0.0,0,11160036071021020120301704586251000600007000080000
5205,LFLC,45.7867,3.16917,2024-05-24 12:30:00,,,,,18.0,1018.0,3764.453218757762,10.0,3.0,,10000.0,99999,,0.0,0,11160036031018020100301804764451000600007000080000
5206,LFLL,45.7264,5.09083,2024-05-24 12:30:00,,,,,18.0,1018.0,3005.546480559923,11.0,6.0,60.0,10000.0,99999,,0.0,0,11160006061018020110301804005551000600007000080000
5208,LFLS,45.3629,5.32937,2024-05-24 12:30:00,,,,,18.0,1017.0,4373.6610671291755,12.0,10.0,350.0,10000.0,99999,,0.0,0,11160035101018020120301704373651000600007000080000
5210,LFLY,45.7272,4.94427,2024-05-24 12:30:00,,,,,20.0,1018.0,2391.3837181587187,11.0,2.0,,10000.0,99999,,0.0,0,11160036021020020110301804391351000600007000080000
5211,LFMD,43.542,6.95348,2024-05-24 12:30:00,,,,,20.0,1018.0,1040.7181987757942,16.0,7.0,170.0,10000.0,99999,,0.0,0,11160017071020020160301804040751000600007000080000
5213,LFMH,45.5406,4.29639,2024-05-24 12:30:00,,,,,19.0,1018.0,4241.9572966201595,11.0,5.0,30.0,10000.0,99999,,0.0,0,11160003051019020110301804241951000600007000080000
5215,LFML,43.43927,5.22142,2024-05-24 12:30:00,61.0,36.0,^,green,16.0,1019.0,1185.3673374945934,14.0,4.0,170.0,10000.0,99999,,0.0,0,11160017041016020140301904185351000600007610080000
5216,LFMN,43.6584,7.21587,2024-05-24 12:30:00,,,,,20.0,1018.0,1038.9630422505704,16.0,8.0,190.0,10000.0,99999,,0.0,0,11160019081020020160301804038951000600007000080000
5217,LFMP,42.7404,2.87067,2024-05-24 12:30:00,,,,,19.0,1019.0,1296.9585378352708,13.0,2.0,,10000.0,99999,,0.0,0,11160036021019020130301904296951000600007000080000
5218,LFMT,43.5762,3.96301,2024-05-24 12:30:00,,,,,18.0,1018.0,1051.0796892597004,12.0,7.0,180.0,10000.0,99999,,0.0,0,11160018071018020120301804051051000600007000080000
5219,LFOB,49.4544,2.11278,2024-05-24 12:30:00,,,,,18.0,1018.0,1802.1242559582063,11.0,6.0,350.0,10000.0,99999,,0.0,0,11160035061018020110301804802151000600007000080000
5220,LFOH,49.5339,0.08806,2024-05-24 12:30:00,,,,,15.0,1020.0,1845.8107922559523,8.0,6.0,350.0,10000.0,99999,,0.0,0,1116003506101502080302004845851000600007000080000
5222,LFOT,47.4322,0.72761,2024-05-24 12:30:00,,,,,17.0,1018.0,1848.0082494086041,11.0,9.0,340.0,10000.0,99999,,0.0,0,11160034091017020110301804848051000600007000080000
5225,LFPN,48.7519,2.10619,2024-05-24 12:30:00,,,,,19.0,1018.0,2175.799698992008,12.0,9.0,340.0,10000.0,99999,,0.0,0,11160034091019020120301804175751000600007000080000
5226,LFPO,48.7253,2.35944,2024-05-24 12:30:00,,,,,19.0,1018.0,1605.5704449182,11.0,5.0,320.0,10000.0,99999,,0.0,0,11160032051019020110301804605551000600007000080000
5232,LFRG,49.3653,0.15431,2024-05-24 12:30:00,,,,,15.0,1020.0,2348.2136843268004,8.0,5.0,320.0,10000.0,99999,,0.0,0,1116003205101502080302004348251000600007000080000
5233,LFRK,49.1733,-0.45,2024-05-24 12:30:00,,,,,15.0,1019.0,1680.6530163021969,8.0,5.0,30.0,10000.0,99999,,0.0,0,1116000305101502080301904680651000600007000080000
5236,LFRQ,47.975,-4.16779,2024-05-24 12:30:00,,,,,15.0,1020.0,1799.4032292778206,6.0,5.0,330.0,10000.0,99999,,0.0,0,1116003305101502060302004799451000600007000080000
5239,LFRZ,47.3122,-2.14918,2024-05-24 12:30:00,,,,,17.0,1019.0,1045.7757786099482,8.0,2.0,340.0,10000.0,99999,,0.0,0,1116003402101702080301904045751000600007000080000
5241,LFSB,47.5896,7.52991,2024-05-24 12:30:00,,,,,19.0,1017.0,3050.7543729681306,11.0,8.0,250.0,10000.0,99999,,0.0,0,11160025081019020110301704050751000600007000080000
5243,LFSN,48.6921,6.23046,2024-05-24 12:30:00,,,,,19.0,1017.0,2703.6177225149027,12.0,4.0,170.0,10000.0,99999,,0.0,0,11160017041019020120301704703651000600007000080000
5245,LFST,48.5383,7.62823,2024-05-24 12:30:00,17.0,36.0,2,red,20.0,1017.0,2034.4407748732513,12.0,5.0,310.0,10000.0,99999,,0.0,0,11160031051020020120301704034451000600007170080000
5246,LFTW,43.7574,4.41635,2024-05-24 12:30:00,,,,,20.0,1019.0,1612.7412083012484,13.0,9.0,220.0,10000.0,99999,,0.0,0,11160022091020020130301904612751000600007000080000
5247,LFBA,44.1747,0.59056,2024-05-24 12:30:00,,,,,20.0,1019.0,1399.2442320472412,9.0,2.0,,10000.0,99999,,0.0,0,1116003602102002090301904399251000600007000080000
5248,LFBC,44.5333,-1.125,2024-05-24 12:30:00,,,,,20.0,1019.0,1169.6457241663334,12.0,7.0,250.0,10000.0,99999,,0.0,0,11160025071020020120301904169651000600007000080000
5250,LFBL,45.8628,1.17944,2024-05-24 12:30:00,,,,,14.0,1019.0,5464.450908128019,10.0,3.0,,10000.0,99999,,0.0,0,11160036031014020100301904464451000600007000080000
5251,LFBM,43.9117,-0.5075,2024-05-24 12:30:00,,,,,19.0,1019.0,1418.4640021547125,11.0,3.0,250.0,10000.0,99999,,0.0,0,11160025031019020110301904418451000600007000080000
5252,LFKF,41.5006,9.09778,2024-05-24 12:30:00,,,,,26.0,1018.0,1137.203337465004,11.0,7.0,130.0,10000.0,99999,,0.0,0,11160013071026020110301804137251000600007000080000
5254,LFLV,46.1697,3.40374,2024-05-24 12:30:00,,,,,18.0,1018.0,2994.4996359822635,11.0,5.0,320.0,10000.0,99999,,0.0,0,11160032051018020110301804994451000600007000080000
5255,LFOE,49.0287,1.21986,2024-05-24 12:30:00,,,,,17.0,1019.0,2131.147087404478,10.0,6.0,340.0,10000.0,99999,,0.0,0,11160034061017020100301904131151000600007000080000
5256,LFOP,49.3842,1.1748,2024-05-24 12:30:00,,,,,16.0,1019.0,2349.039355118534,10.0,2.0,,10000.0,99999,,0.0,0,11160036021016020100301904349051000600007000080000
5257,LFPB,48.9694,2.44139,2024-05-24 12:30:00,,,,,19.0,1018.0,1448.5885119240597,12.0,5.0,320.0,10000.0,99999,,0.0,0,11160032051019020120301804448551000600007000080000
5258,LFPG,49.0128,2.55,2024-05-24 12:30:00,,,,,19.0,1018.0,1831.9503929351367,10.0,7.0,320.0,10000.0,99999,,0.0,0,11160032071019020100301804831951000600007000080000
5259,LFPV,48.7744,2.20154,2024-05-24 12:30:00,,,,,17.0,1018.0,2457.7278413492154,11.0,9.0,310.0,10000.0,99999,,0.0,0,11160031091017020110301804457751000600007000080000
5261,LFQB,48.3221,4.0167,2024-05-24 12:30:00,,,,,18.0,1018.0,1874.74413576845,12.0,9.0,270.0,10000.0,99999,,0.0,0,11160027091018020120301804874751000600007000080000
5263,LFQQ,50.5619,3.08944,2024-05-24 12:30:00,,,,,17.0,1018.0,1359.913863939445,11.0,6.0,340.0,10000.0,99999,,0.0,0,11160034061017020110301804359951000600007000080000
5267,LFSD,47.2689,5.09,2024-05-24 12:30:00,61.0,36.0,^,green,14.0,1018.0,3319.2023433260165,11.0,7.0,320.0,10000.0,99999,,0.0,0,11160032071014020110301804319251000600007610080000
5268,LFSI,48.636,4.89942,2024-05-24 12:30:00,,,,,20.0,1017.0,1929.6379873405133,10.0,7.0,300.0,10000.0,99999,,0.0,0,11160030071020020100301704929651000600007000080000
5269,LFSL,45.03967,1.4855,2024-05-24 12:30:00,,,,,17.0,1019.0,3727.295994553567,7.0,5.0,340.0,10000.0,99999,,0.0,0,1116003405101702070301904727251000600007000080000
5271,LFSO,48.5831,5.955,2024-05-24 12:30:00,,,,,20.0,1017.0,3490.9731001462806,8.0,6.0,270.0,10000.0,99999,,0.0,0,1116002706102002080301704490951000600007000080000
5273,LFSX,47.7831,6.36406,2024-05-24 12:30:00,,,,,19.0,1018.0,3127.4479817001184,11.0,6.0,250.0,10000.0,99999,,0.0,0,11160025061019020110301804127451000600007000080000
5275,LFTH,43.0973,6.14603,2024-05-24 12:30:00,61.0,36.0,^,green,19.0,1018.0,1030.8503880720596,16.0,10.0,230.0,10000.0,99999,,0.0,0,11160023101019020160301804030851000600007610080000
5280,LPFR,37.0144,-7.96591,2024-05-24 12:30:00,,,,,23.0,1016.0,1052.502630391687,8.0,7.0,170.0,10000.0,99999,,0.0,0,1116001707102302080301604052551000600007000080000
5281,LPMA,32.6979,-16.7745,2024-05-24 12:30:00,,,,,21.0,1021.0,1360.2947923577535,13.0,6.0,70.0,10000.0,99999,,0.0,0,11160007061021020130302104360251000600007000080000
5282,LPPR,41.2481,-8.68139,2024-05-24 12:30:00,,,,,20.0,1016.0,1442.7958576326132,13.0,5.0,280.0,10000.0,99999,,0.0,0,11160028051020020130301604442751000600007000080000
5283,LPPS,33.0734,-16.35,2024-05-24 12:30:00,,,,,21.0,1021.0,1648.9549282979867,11.0,4.0,,10000.0,99999,,0.0,0,11160036041021020110302104648951000600007000080000
5285,ULAA,64.6003,40.7167,2024-05-24 12:30:00,,,,,24.0,1017.0,1108.4522217774202,8.0,8.0,310.0,10000.0,99999,,0.0,0,1116003108102402080301704108451000600007000080000
5286,UMBB,52.1083,23.8981,2024-05-24 12:30:00,,,,,27.0,1021.0,1695.268935435418,13.0,4.0,80.0,10000.0,99999,,0.0,0,11160008041027020130302104695251000600007000080000
5287,UMGG,52.527,31.0167,2024-05-24 12:30:00,,,,,24.0,1028.0,1807.6974263581553,13.0,6.0,120.0,10000.0,99999,,0.0,0,11160012061024020130302804807651000600007000080000
5288,UMMG,53.602,24.0538,2024-05-24 12:30:00,,,,,27.0,1021.0,1656.085468805598,10.0,7.0,120.0,10000.0,99999,,0.0,0,11160012071027020100302104656051000600007000080000
5289,UMMS,53.8825,28.0307,2024-05-24 12:30:00,,,,,24.0,1026.0,2174.4584555935635,8.0,6.0,140.0,10000.0,99999,,0.0,0,1116001406102402080302604174451000600007000080000
5292,ULMM,68.7817,32.7508,2024-05-24 12:30:00,,,,,15.0,1015.0,1702.2311557688242,-7.0,7.0,300.0,10000.0,99999,,0.0,0,1116003007101502170301504702251000600007000080000
5293,UUDD,55.4088,37.9063,2024-05-24 12:30:00,,,,,20.0,1032.0,2256.3337807897096,0.0,3.0,150.0,10000.0,99999,,0.0,0,1116001503102002000303204256351000600007000080000
5296,URKA,45.0021,37.3473,2024-05-24 12:30:00,,,,,27.0,1011.0,1243.7854805461454,12.0,15.0,80.0,10000.0,99999,,0.0,0,11160008151027020120301104243751000600007000080000
5297,URKK,45.0347,39.1705,2024-05-24 12:30:00,,,,,27.0,1013.0,1169.0137257843132,10.0,11.0,70.0,10000.0,99999,,0.0,0,11160007111027020100301304169051000600007000080000
5299,URMN,43.5129,43.6366,2024-05-24 12:30:00,,,,,22.0,1016.0,4060.2035169331234,8.0,4.0,190.0,10000.0,99999,,0.0,0,1116001904102202080301604060251000600007000080000
5300,URMT,45.1092,42.1128,2024-05-24 12:30:00,,,,,23.0,1017.0,3970.584473847959,7.0,10.0,80.0,10000.0,99999,,0.0,0,1116000810102302070301704970551000600007000080000
5302,URWA,46.2833,48.0063,2024-05-24 12:30:00,,,,,24.0,1022.0,929.3248752196079,-2.0,7.0,50.0,10000.0,99999,,0.0,0,1116000507102402120302204929351000600007000080000
5303,URWI,46.3739,44.3309,2024-05-24 12:30:00,,,,,24.0,1021.0,1847.984849775078,2.0,12.0,80.0,10000.0,99999,,0.0,0,1116000812102402020302104847951000600007000080000
5304,URWW,48.7825,44.3455,2024-05-24 12:30:00,,,,,20.0,1027.0,2002.437407765542,-5.0,10.0,80.0,10000.0,99999,,0.0,0,1116000810102002150302704002451000600007000080000
5306,UUOO,51.8142,39.2296,2024-05-24 12:30:00,,,,,20.0,1030.0,2080.967629594084,-3.0,5.0,90.0,10000.0,99999,,0.0,0,1116000905102002130303004080951000600007000080000
5307,UUWW,55.5915,37.2615,2024-05-24 12:30:00,,,,,20.0,1031.0,2484.1668394300204,1.0,4.0,190.0,10000.0,99999,,0.0,0,1116001904102002010303104484151000600007000080000
5308,UUYY,61.647,50.8451,2024-05-24 12:30:00,,,,,21.0,1016.0,1642.8742971005108,5.0,4.0,250.0,10000.0,99999,,0.0,0,1116002504102102050301604642851000600007000080000
5310,UWKD,55.6062,49.2787,2024-05-24 12:30:00,,,,,18.0,1028.0,1947.5295227872164,-6.0,7.0,300.0,10000.0,99999,,0.0,0,1116003007101802160302804947551000600007000080000
5311,UWKE,55.5647,52.0925,2024-05-24 12:30:00,,,,,17.0,1026.0,2644.440937085731,-4.0,8.0,310.0,10000.0,99999,,0.0,0,1116003108101702140302604644451000600007000080000
5312,UWWW,53.5049,50.1643,2024-05-24 12:30:00,,,,,17.0,1029.0,2187.3983116985055,-5.0,5.0,350.0,10000.0,99999,,0.0,0,1116003505101702150302904187351000600007000080000
5313,LEAL,38.2822,-0.55816,2024-05-24 12:30:00,,,,,23.0,1016.0,1239.7205296122575,13.0,16.0,80.0,10000.0,99999,,0.0,0,11160008161023020130301604239751000600007000080000
5314,LEAM,36.8439,-2.3701,2024-05-24 12:30:00,,,,,22.0,1015.0,1127.886746531728,16.0,11.0,200.0,10000.0,99999,,0.0,0,11160020111022020160301504127851000600007000080000
5315,LEAS,43.5636,-6.03462,2024-05-24 12:30:00,,,,,16.0,1018.0,2070.2784979966386,12.0,7.0,40.0,10000.0,99999,,0.0,0,11160004071016020120301804070251000600007000080000
5316,LEBB,43.3011,-2.91061,2024-05-24 12:30:00,,,,,20.0,1018.0,1269.7097949382655,12.0,9.0,20.0,10000.0,99999,,0.0,0,11160002091020020120301804269751000600007000080000
5317,LEBL,41.2971,2.07846,2024-05-24 12:30:00,,,,,20.0,1018.0,1038.9630422505704,13.0,13.0,90.0,10000.0,99999,,0.0,0,11160009131020020130301804038951000600007000080000
5318,LECO,43.3021,-8.37726,2024-05-24 12:30:00,,,,,18.0,1017.0,1721.654248691796,12.0,6.0,360.0,10000.0,99999,,0.0,0,11160036061018020120301704721651000600007000080000
5319,LEDA,41.72819,0.53502,2024-05-24 12:30:00,,,,,22.0,1017.0,3383.110857178499,9.0,7.0,150.0,10000.0,99999,,0.0,0,1116001507102202090301704383151000600007000080000
5320,LEGE,41.901,2.76055,2024-05-24 12:30:00,,,,,20.0,1018.0,1953.710798494302,12.0,5.0,110.0,10000.0,99999,,0.0,0,11160011051020020120301804953751000600007000080000
5321,LEGR,37.1887,-3.77736,2024-05-24 12:30:00,,,,,28.0,1016.0,4061.2166848834295,5.0,5.0,260.0,10000.0,99999,,0.0,0,1116002605102802050301604061251000600007000080000
5322,LEIB,38.8729,1.37312,2024-05-24 12:30:00,,,,,23.0,1016.0,1052.502630391687,17.0,13.0,70.0,10000.0,99999,,0.0,0,11160007131023020170301604052551000600007000080000
5323,LEJR,36.7446,-6.06011,2024-05-24 12:30:00,,,,,30.0,1014.0,1123.8133421713271,7.0,3.0,,10000.0,99999,,0.0,0,1116003603103002070301404123851000600007000080000
5324,LELC,37.775,-0.81239,2024-05-24 12:30:00,,,,,24.0,1016.0,1031.9655344061466,17.0,13.0,70.0,10000.0,99999,,0.0,0,11160007131024020170301604031951000600007000080000
5325,LELL,41.5209,2.10508,2024-05-24 12:30:00,,,,,21.0,1018.0,1940.1848581963782,11.0,12.0,130.0,10000.0,99999,,0.0,0,11160013121021020110301804940151000600007000080000
5326,LEMD,40.4936,-3.56676,2024-05-24 12:30:00,,,,,25.0,1016.0,4773.794362847914,4.0,6.0,240.0,10000.0,99999,,0.0,0,1116002406102502040301604773751000600007000080000
5327,LEMG,36.6749,-4.49911,2024-05-24 12:30:00,,,,,23.0,1015.0,1096.256292221068,12.0,13.0,160.0,10000.0,99999,,0.0,0,11160016131023020120301504096251000600007000080000
5328,LEMH,39.8626,4.21865,2024-05-24 12:30:00,,,,,23.0,1017.0,1514.0713447667572,14.0,14.0,80.0,10000.0,99999,,0.0,0,11160008141023020140301704514051000600007000080000
5329,LEPA,39.5517,2.73881,2024-05-24 12:30:00,,,,,28.0,1015.0,1048.6799252544738,10.0,12.0,90.0,10000.0,99999,,0.0,0,11160009121028020100301504048651000600007000080000
5330,LEPP,42.77,-1.64633,2024-05-24 12:30:00,,,,,20.0,1018.0,4528.467735166543,7.0,3.0,360.0,10000.0,99999,,0.0,0,1116003603102002070301804528451000600007000080000
5331,LERS,41.1474,1.16717,2024-05-24 12:30:00,,,,,21.0,1018.0,1433.4481920494663,14.0,10.0,140.0,10000.0,99999,,0.0,0,11160014101021020140301804433451000600007000080000
5332,LESO,43.3565,-1.79061,2024-05-24 12:30:00,,,,,18.0,1019.0,1050.151921606386,13.0,6.0,10.0,10000.0,99999,,0.0,0,11160001061018020130301904050151000600007000080000
5333,LEST,42.8963,-8.41514,2024-05-24 12:30:00,,,,,21.0,1017.0,3616.991360329747,10.0,2.0,,10000.0,99999,,0.0,0,11160036021021020100301704616951000600007000080000
5335,LEVC,39.4893,-0.48162,2024-05-24 12:30:00,,,,,23.0,1017.0,1405.7865154642946,13.0,11.0,70.0,10000.0,99999,,0.0,0,11160007111023020130301704405751000600007000080000
5336,LEVD,41.7061,-4.85194,2024-05-24 12:30:00,,,,,20.0,1018.0,7834.2734242584065,6.0,2.0,,10000.0,99999,,0.0,0,1116003602102002060301804834251000600007000080000
5337,LEVT,42.8828,-2.72447,2024-05-24 12:30:00,,,,,19.0,1018.0,5230.720053120793,7.0,3.0,30.0,10000.0,99999,,0.0,0,1116000303101902070301804230751000600007000080000
5338,LEVX,42.2318,-8.62677,2024-05-24 12:30:00,,,,,22.0,1016.0,2671.060042805087,12.0,3.0,,10000.0,99999,,0.0,0,11160036031022020120301604671051000600007000080000
5339,LEXJ,43.4271,-3.82001,2024-05-24 12:30:00,,,,,17.0,1019.0,1051.996831505311,12.0,6.0,50.0,10000.0,99999,,0.0,0,11160005061017020120301904051951000600007000080000
5340,LEZG,41.6662,-1.04155,2024-05-24 12:30:00,,,,,22.0,1017.0,2689.10759966343,7.0,4.0,340.0,10000.0,99999,,0.0,0,1116003404102202070301704689151000600007000080000
5341,LEZL,37.418,-5.89311,2024-05-24 12:30:00,,,,,29.0,1014.0,1151.5280730826562,6.0,4.0,,10000.0,99999,,0.0,0,1116003604102902060301404151551000600007000080000
5345,LEBA,37.842,-4.84888,2024-05-24 12:30:00,,,,,30.0,1014.0,1380.578609182063,7.0,4.0,230.0,10000.0,99999,,0.0,0,1116002304103002070301404380551000600007000080000
5347,LEGA,37.1332,-3.63569,2024-05-24 12:30:00,,,,,28.0,1016.0,4878.772964369913,4.0,3.0,,10000.0,99999,,0.0,0,1116003603102802040301604878751000600007000080000
5348,LELN,42.589,-5.65556,2024-05-24 12:30:00,,,,,17.0,1018.0,9.677093113288288,6.0,4.0,110.0,10000.0,99999,,0.0,0,11160011041017020603018049651000600007000080000
5350,LESA,40.9521,-5.50199,2024-05-24 12:30:00,,,,,22.0,1017.0,6764.9511313776,4.0,4.0,,10000.0,99999,,0.0,0,1116003604102202040301704764951000600007000080000
5352,LFJL,48.9821,6.25132,2024-05-24 12:30:00,,,,,16.0,1018.0,3447.1894577671924,13.0,6.0,10.0,10000.0,99999,,0.0,0,11160001061016020130301804447151000600007000080000
5353,LFLX,46.8622,1.73067,2024-05-24 12:30:00,,,,,17.0,1018.0,2305.468993667102,11.0,5.0,310.0,10000.0,99999,,0.0,0,11160031051017020110301804305451000600007000080000
5354,LFMI,43.5227,4.92384,2024-05-24 12:30:00,,,,,18.0,1019.0,1182.792604676357,14.0,5.0,240.0,10000.0,99999,,0.0,0,11160024051018020140301904182751000600007000080000
5355,LFMK,43.216,2.30632,2024-05-24 12:30:00,63.0,36.0,',green,16.0,1019.0,2120.581092895268,12.0,5.0,260.0,10000.0,99999,,0.0,0,11160026051016020120301904120551000600007630080000
5356,LFMU,43.3235,3.3539,2024-05-24 12:30:00,,,,,17.0,1019.0,1136.4226886799481,13.0,5.0,190.0,10000.0,99999,,0.0,0,11160019051017020130301904136451000600007000080000
5357,LFMV,43.9073,4.90183,2024-05-24 12:30:00,,,,,21.0,1018.0,1232.010099884739,13.0,10.0,220.0,10000.0,99999,,0.0,0,11160022101021020130301804232051000600007000080000
5358,LFOA,47.0533,2.6325,2024-05-24 12:30:00,,,,,19.0,1018.0,2277.927127908388,11.0,5.0,230.0,10000.0,99999,,0.0,0,11160023051019020110301804277951000600007000080000
5360,LKCV,49.9397,15.3818,2024-05-24 12:30:00,,,,,17.0,1018.0,3060.088104912207,14.0,2.0,,10000.0,99999,,0.0,0,11160036021017020140301804060051000600007000080000
5361,LKNA,49.1658,16.1249,2024-05-24 12:30:00,,,,,16.0,1019.0,5669.689090603091,12.0,6.0,150.0,10000.0,99999,,0.0,0,11160015061016020120301904669651000600007000080000
5362,LKPD,50.0134,15.7386,2024-05-24 12:30:00,,,,,18.0,1018.0,2786.2674874654726,13.0,2.0,,10000.0,99999,,0.0,0,11160036021018020130301804786251000600007000080000
5363,ULOO,57.7839,28.3956,2024-05-24 12:30:00,,,,,25.0,1027.0,1252.6125200734605,8.0,4.0,130.0,10000.0,99999,,0.0,0,1116001304102502080302704252651000600007000080000
5364,UMKK,54.89,20.5926,2024-05-24 12:30:00,,,,,26.0,1020.0,1076.9641209051983,16.0,4.0,140.0,10000.0,99999,,0.0,0,11160014041026020160302004076951000600007000080000
5365,URML,42.8168,47.6523,2024-05-24 12:30:00,,,,,20.0,1018.0,1038.9630422505704,13.0,5.0,140.0,10000.0,99999,,0.0,0,11160014051020020130301804038951000600007000080000
5366,UWLL,54.2683,48.2267,2024-05-24 12:30:00,,,,,17.0,1030.0,2151.4387237786646,-5.0,3.0,310.0,10000.0,99999,,0.0,0,1116003103101702150303004151451000600007000080000
5368,LKKV,50.203,12.915,2024-05-24 12:30:00,,,,,16.0,1018.0,7099.014329978114,12.0,7.0,130.0,10000.0,99999,,0.0,0,11160013071016020120301804099051000600007000080000
5369,LQBK,44.9414,17.2975,2024-05-24 12:30:00,,,,,25.0,1018.0,1634.1300881510208,14.0,5.0,120.0,10000.0,99999,,0.0,0,11160012051025020140301804634151000600007000080000
5370,LQTZ,44.4587,18.7248,2024-05-24 12:30:00,95.0,36.0,2,red,18.0,1018.0,2903.6873110477836,13.0,3.0,,10000.0,99999,,0.0,0,11160036031018020130301804903651000600007950080000
5372,EIDL,55.0442,-8.341,2024-05-24 12:30:00,10.0,36.0,+,yellow,11.0,1017.0,1113.644957641318,10.0,8.0,310.0,4900.0,99999,,0.0,0,11130031081011020100301704113651000600007100080000
5373,EIKY,52.1809,-9.52378,2024-05-24 12:30:00,,,,,14.0,1018.0,1311.8983913602208,5.0,4.0,220.0,10000.0,99999,,0.0,0,1116002204101402050301804311851000600007000080000
5374,EIME,53.3017,-6.45133,2024-05-24 12:30:00,51.0,36.0,T,green,11.0,1017.0,2205.0997235940013,10.0,9.0,270.0,10000.0,99999,,0.0,0,11160027091011020100301704205051000600007510080000
5375,EISG,54.2802,-8.59921,2024-05-24 12:30:00,,,,,12.0,1018.0,1050.1003259687486,99999.0,8.0,290.0,10000.0,99999,,0.0,0,11160029081012020999990301804050151000600007000080000
5376,EIWF,52.1872,-7.08696,2024-05-24 12:30:00,,,,,14.0,1018.0,1331.252760304773,6.0,10.0,220.0,10000.0,99999,,0.0,0,1116002210101402060301804331251000600007000080000
5382,ENHK,70.4867,22.1397,2024-05-24 12:20:00,,,,,5.0,1021.0,1171.941397815335,0.0,24.0,270.0,10000.0,99999,,0.0,0,1116002724100502000302104171951000600007000080000
5383,LTAP,40.8294,35.522,2024-05-24 12:24:00,80.0,36.0,q,green,19.0,1009.0,5393.542232862585,12.0,8.0,10.0,10000.0,99999,,0.0,0,11160001081019020120300904393551000600007800080000
5385,LTAV,39.4515,31.3653,2024-05-24 12:19:00,95.0,36.0,2,red,26.0,1013.0,6971.536496705414,7.0,9.0,220.0,10000.0,99999,,0.0,0,1116002209102602070301304971551000600007950080000
5386,LTCE,39.9565,41.1702,2024-05-24 12:27:00,95.0,36.0,2,red,18.0,1012.0,15.25571031718025,6.0,13.0,160.0,10000.0,99999,,0.0,0,111600161310180206030120415251000600007950080000
5387,EBBE,50.7586,4.76833,2024-05-24 12:25:00,61.0,36.0,^,green,14.0,1018.0,2089.68934427739,12.0,3.0,80.0,7000.0,99999,,0.0,0,11140008031014020120301804089651000600007610080000
5388,EBDT,50.9992,5.06556,2024-05-24 12:25:00,61.0,36.0,^,green,14.0,1018.0,1278.9775133694409,13.0,4.0,310.0,10000.0,99999,,0.0,0,11160031041014020130301804278951000600007610080000
5389,EBFN,51.0903,2.65278,2024-05-24 12:25:00,,,,,15.0,1019.0,1065.8774029340943,9.0,8.0,360.0,10000.0,99999,,0.0,0,1116003608101502090301904065851000600007000080000
5390,EBFS,50.2433,4.64583,2024-05-24 12:25:00,,,,,14.0,1018.0,4087.827010140573,12.0,5.0,10.0,10000.0,99999,,0.0,0,11160001051014020120301804087851000600007000080000
5391,EGOM,55.05,-2.55,2024-05-24 12:20:00,,,,,13.0,1015.0,4872.093689143554,12.0,7.0,250.0,10000.0,99999,,0.0,0,11160025071013020120301504872051000600007000080000
5393,EGQK,57.6494,-3.56064,2024-05-24 12:20:00,,,,,13.0,1015.0,1074.4166850669321,11.0,9.0,10.0,10000.0,99999,,0.0,0,11160001091013020110301504074451000600007000080000
5394,EGXT,52.6126,-0.47645,2024-05-24 12:20:00,,,,,14.0,1018.0,1782.9187670596543,9.0,6.0,250.0,10000.0,99999,,0.0,0,1116002506101402090301804782951000600007000080000
5395,EGXW,53.1662,-0.52381,2024-05-24 12:20:00,,,,,14.0,1018.0,1655.1119738740456,8.0,10.0,210.0,10000.0,99999,,0.0,0,1116002110101402080301804655151000600007000080000
5396,EGXZ,54.2055,-1.38209,2024-05-24 12:20:00,,,,,15.0,1017.0,1239.4096716118804,10.0,10.0,180.0,10000.0,99999,,0.0,0,11160018101015020100301704239451000600007000080000
5403,LFRB,48.4479,-4.41854,2024-05-24 12:30:00,,,,,15.0,1020.0,1880.8688006065545,6.0,5.0,290.0,10000.0,99999,,0.0,0,1116002905101502060302004880851000600007000080000
5404,LPPT,38.7813,-9.13592,2024-05-24 12:30:00,,,,,26.0,1016.0,1563.9110292340215,10.0,3.0,,10000.0,99999,,0.0,0,11160036031026020100301604563951000600007000080000
5405,LXGB,36.1512,-5.34966,2024-05-24 12:20:00,,,,,21.0,1016.0,1040.9276130730036,14.0,9.0,100.0,10000.0,99999,,0.0,0,11160010091021020140301604040951000600007000080000
5407,LSME,47.0924,8.30512,2024-05-24 12:20:00,,,,,18.0,1017.0,4659.473309616553,11.0,5.0,,10000.0,99999,,0.0,0,11160036051018020110301704659451000600007000080000
5411,LTCG,40.9951,39.7897,2024-05-24 12:33:00,80.0,36.0,q,green,18.0,1011.0,1218.7938327896206,16.0,11.0,300.0,10000.0,99999,,0.0,0,11160030111018020160301104218751000600007800080000
5413,EGPH,55.95,-3.3725,2024-05-24 12:20:00,,,,,14.0,1015.0,1371.846449524795,12.0,5.0,30.0,10000.0,99999,,0.0,0,11160003051014020120301504371851000600007000080000
5414,EICK,51.8413,-8.49111,2024-05-24 12:30:00,,,,,13.0,1018.0,2662.0902071722444,4.0,5.0,360.0,10000.0,99999,,0.0,0,1116003605101302040301804662051000600007000080000
5415,EIDW,53.4213,-6.27007,2024-05-24 12:30:00,58.0,36.0,[,green,11.0,1017.0,1889.9639335804484,10.0,8.0,270.0,6000.0,99999,,0.0,0,11130027081011020100301704889951000600007580080000
5416,EIKN,53.9103,-8.81849,2024-05-24 12:30:00,,,,,12.0,1017.0,3496.9296029883362,6.0,4.0,300.0,10000.0,99999,,0.0,0,1116003004101202060301704496951000600007000080000
5417,EINN,52.702,-8.92482,2024-05-24 12:30:00,,,,,14.0,1018.0,1135.0014106630297,6.0,5.0,230.0,10000.0,99999,,0.0,0,1116002305101402060301804135051000600007000080000
5419,LEAB,38.9485,-1.86352,2024-05-24 12:30:00,,,,,25.0,1016.0,5407.479614569914,3.0,4.0,,10000.0,99999,,0.0,0,1116003604102502030301604407451000600007000080000
5420,LEBZ,38.8913,-6.82133,2024-05-24 12:30:00,,,,,29.0,1014.0,1840.7469203343069,6.0,3.0,200.0,10000.0,99999,,0.0,0,1116002003102902060301404840751000600007000080000
5421,LEGT,40.2941,-3.72383,2024-05-24 12:30:00,,,,,26.0,1016.0,4672.628663211068,6.0,2.0,210.0,10000.0,99999,,0.0,0,1116002102102602060301604672651000600007000080000
5423,LERI,37.9511,-1.23032,2024-05-24 12:30:00,,,,,27.0,1015.0,1356.8415844536785,6.0,8.0,50.0,10000.0,99999,,0.0,0,1116000508102702060301504356851000600007000080000
5425,LETO,40.4967,-3.44587,2024-05-24 12:30:00,,,,,25.0,1016.0,4826.388233678997,4.0,6.0,250.0,10000.0,99999,,0.0,0,1116002506102502040301604826351000600007000080000
5429,LEMO,37.1749,-5.61594,2024-05-24 12:30:00,,,,,29.0,1014.0,1377.736089484624,6.0,2.0,210.0,10000.0,99999,,0.0,0,1116002102102902060301404377751000600007000080000
5430,LERT,36.6452,-6.34946,2024-05-24 12:30:00,,,,,23.0,1015.0,1148.1694820584073,14.0,11.0,220.0,10000.0,99999,,0.0,0,11160022111023020140301504148151000600007000080000
5433,LFRC,49.6501,-1.47028,2024-05-24 12:30:00,,,,,14.0,1020.0,2388.3292308978266,6.0,3.0,,10000.0,99999,,0.0,0,1116003603101402060302004388351000600007000080000
5434,LFRD,48.5877,-2.07996,2024-05-24 12:30:00,,,,,16.0,1020.0,1541.349044050753,8.0,6.0,10.0,10000.0,99999,,0.0,0,1116000106101602080302004541351000600007000080000
5435,LFRH,47.7606,-3.44,2024-05-24 12:30:00,,,,,16.0,1020.0,1392.7000085025434,8.0,9.0,240.0,10000.0,99999,,0.0,0,1116002409101602080302004392751000600007000080000
5437,LFRJ,48.5303,-4.15164,2024-05-24 12:30:00,,,,,14.0,1020.0,2022.7508650515717,7.0,3.0,,10000.0,99999,,0.0,0,1116003603101402070302004022751000600007000080000
5438,LFRM,47.9486,0.20167,2024-05-24 12:30:00,,,,,19.0,1018.0,1398.287435185351,11.0,5.0,280.0,10000.0,99999,,0.0,0,11160028051019020110301804398251000600007000080000
5439,LFRN,48.0695,-1.73479,2024-05-24 12:30:00,,,,,17.0,1019.0,1286.0252596208609,8.0,4.0,280.0,10000.0,99999,,0.0,0,1116002804101702080301904286051000600007000080000
5440,LFRO,48.7544,-3.47166,2024-05-24 12:30:00,,,,,14.0,1020.0,1839.1574241969172,6.0,5.0,310.0,10000.0,99999,,0.0,0,1116003105101402060302004839151000600007000080000
5441,LFRS,47.1532,-1.61073,2024-05-24 12:30:00,,,,,19.0,1019.0,1189.518794024621,10.0,6.0,330.0,10000.0,99999,,0.0,0,11160033061019020100301904189551000600007000080000
5442,LFRT,48.5378,-2.85444,2024-05-24 12:30:00,,,,,15.0,1020.0,2267.213613102306,5.0,3.0,80.0,10000.0,99999,,0.0,0,1116000803101502050302004267251000600007000080000
5443,ULLI,59.8003,30.2625,2024-05-24 12:30:00,,,,,26.0,1027.0,1134.5587817814758,6.0,5.0,190.0,10000.0,99999,,0.0,0,1116001905102602060302704134551000600007000080000
5444,URMM,44.2251,43.0819,2024-05-24 12:30:00,,,,,24.0,1016.0,2915.788247547627,7.0,9.0,90.0,10000.0,99999,,0.0,0,1116000909102402070301604915751000600007000080000
5445,URSS,43.4499,39.9566,2024-05-24 12:30:00,,,,,26.0,1008.0,1128.8098267066591,12.0,4.0,290.0,10000.0,99999,,0.0,0,11160029041026020120300804128851000600007000080000
5446,UUEE,55.9726,37.4146,2024-05-24 12:30:00,,,,,21.0,1031.0,2264.4024116195747,2.0,3.0,90.0,10000.0,99999,,0.0,0,1116000903102102020303104264451000600007000080000
5447,UWGG,56.2301,43.784,2024-05-24 12:30:00,,,,,20.0,1030.0,1519.8207004918115,0.0,3.0,220.0,10000.0,99999,,0.0,0,1116002203102002000303004519851000600007000080000
5452,EHEH,51.4501,5.37453,2024-05-24 12:34:00,61.0,36.0,^,green,15.0,1018.0,1195.652077752419,14.0,5.0,300.0,9000.0,99999,,0.0,0,11150030051015020140301804195651000600007610080000
5458,EHGR,51.5674,4.93183,2024-05-24 12:39:00,61.0,36.0,^,green,15.0,1018.0,1134.3078354054926,14.0,3.0,260.0,7000.0,99999,,0.0,0,11140026031015020140301804134351000600007610080000
5460,ETAD,49.9727,6.6925,2024-05-24 12:40:00,,,,,17.0,30.02,4327.780866960669,10.0,6.0,240.0,10000.0,99999,,0.0,0,1116002406101702010033004327751000600007000080000
5461,EGOV,53.2481,-4.53534,2024-05-24 12:40:00,16.0,36.0,1,,12.0,1018.0,1127.641139631021,10.0,9.0,220.0,10000.0,99999,,0.0,0,11160022091012020100301804127651000600007160080000
5464,LTCF,40.5622,43.115,2024-05-24 12:34:00,95.0,36.0,2,red,13.0,1016.0,19.05283769598975,9.0,16.0,60.0,10000.0,99999,,0.0,0,111600061610130209030160419051000600007950080000
5465,LTAU,38.7704,35.4954,2024-05-24 12:33:00,95.0,36.0,2,red,11.0,1011.0,15.064341587739179,10.0,7.0,220.0,8000.0,99999,,0.0,0,1114002207101102010030110415051000600007950080000
5471,LFMY,43.6064,5.10925,2024-05-24 12:30:00,,,,,18.0,1019.0,1424.403028108958,12.0,9.0,230.0,10000.0,99999,,0.0,0,11160023091018020120301904424451000600007000080000
5473,LFRI,46.7019,-1.37863,2024-05-24 12:30:00,,,,,18.0,1019.0,1661.4177070155768,9.0,3.0,,10000.0,99999,,0.0,0,1116003603101802090301904661451000600007000080000
5474,LFGJ,47.039,5.42725,2024-05-24 12:30:00,,,,,18.0,1018.0,2528.2416426303353,12.0,7.0,260.0,6000.0,99999,,0.0,0,11130026071018020120301804528251000600007000080000
5475,LFOJ,47.9878,1.76056,2024-05-24 12:30:00,63.0,36.0,',green,14.0,1018.0,2227.044605141737,12.0,7.0,170.0,10000.0,99999,,0.0,0,11160017071014020120301804227051000600007630080000
5477,LTCD,39.7102,39.527,2024-05-24 12:41:00,95.0,36.0,2,red,19.0,1009.0,10.596656476592512,8.0,12.0,180.0,10000.0,99999,,0.0,0,111600181210190208030090410551000600007950080000
5479,LTCI,38.4682,43.3323,2024-05-24 12:37:00,16.0,36.0,1,,18.0,1014.0,14.759322363407701,10.0,6.0,,10000.0,99999,,0.0,0,1116003606101802010030140414751000600007160080000
5480,EHVK,51.6564,5.70861,2024-05-24 12:43:00,,,,,15.0,1018.0,1190.696106123738,14.0,6.0,300.0,7000.0,99999,,0.0,0,11140030061015020140301804190651000600007000080000
5482,LRCT,46.5023,23.8859,2024-05-24 12:00:00,,,,,27.0,1018.0,2734.7319911309355,8.0,9.0,130.0,10000.0,99999,,0.0,0,1116001309102702080301804734751000600007000080000
5486,EKVJ,55.9901,8.35391,2024-05-24 12:20:00,,,,,18.0,1021.0,1054.177173609189,8.0,5.0,290.0,10000.0,99999,,0.0,0,1116002905101802080302104054151000600007000080000
