,station,lat,lon,time,weather,weatherfont,weathersymbol,weathercolour,temperature,pressure,sl_pressure,dewpoint,windspeed,winddir,visibility,visual_range,cloudcover,pressure3h_change,rain,wwletter
441,EEEI,59.2603,24.2085,2024-05-28 11:50:00,,,,,28.0,1019.0,1101.1910628512794,6.0,9.0,230.0,10000.0,99999,,0.0,0,1116002309102802060301904101151000600007000080000
685,EKVD,55.4363,9.33092,2024-05-28 11:50:00,,,,,13.0,1015.0,1425.4343150342415,11.0,9.0,280.0,10000.0,99999,,0.0,0,11160028091013020110301504425451000600007000080000
686,EKVJ,55.9901,8.35391,2024-05-28 11:50:00,,,,,14.0,1014.0,1056.4462112663682,9.0,7.0,280.0,10000.0,99999,,0.0,0,1116002807101402090301404056451000600007000080000
757,LIMW,45.7385,7.36872,2024-05-28 11:50:00,,,,,24.0,1016.0,4489.41591190307,5.0,9.0,240.0,10000.0,99999,,0.0,0,1116002409102402050301604489451000600007000080000
814,ESGG,57.6628,12.2798,2024-05-28 11:50:00,,,,,20.0,1011.0,2024.6732546284607,14.0,8.0,120.0,10000.0,99999,,0.0,0,11160012081020020140301104024651000600007000080000
830,ESSB,59.3544,17.9417,2024-05-28 11:50:00,,,,,26.0,1016.0,1079.582453417636,10.0,6.0,210.0,10000.0,99999,,0.0,0,11160021061026020100301604079551000600007000080000
993,EGJJ,49.2079,-2.19551,2024-05-28 11:50:00,,,,,15.0,1016.0,1735.1168729855142,14.0,13.0,220.0,10000.0,99999,,0.0,0,11160022131015020140301604735151000600007000080000
1029,ETNG,50.9608,6.04242,2024-05-28 11:50:00,,,,,18.0,1017.0,1651.1524946145419,7.0,10.0,230.0,10000.0,99999,,0.0,0,1116002310101802070301704651151000600007000080000
1068,LIPK,44.1948,12.0701,2024-05-28 11:50:00,16.0,36.0,1,,23.0,1014.0,1164.5450506923073,16.0,9.0,340.0,8000.0,99999,,0.0,0,11140034091023020160301404164551000600007160080000
1085,LGSK,39.1771,23.5037,2024-05-28 11:50:00,,,,,23.0,1013.0,1095.6515567509462,13.0,2.0,,10000.0,99999,,0.0,0,11160036021023020130301304095651000600007000080000
1103,EGPU,56.4992,-6.86917,2024-05-28 11:50:00,58.0,36.0,[,green,12.0,1002.0,1112.8986047165463,11.0,17.0,130.0,4400.0,99999,,0.0,0,11120013171012020110300204112851000600007580080000
1231,LGLR,39.65628,22.34,2024-05-28 11:50:00,,,,,29.0,1012.0,1316.0955508746406,8.0,8.0,80.0,10000.0,99999,,0.0,0,1116000808102902080301204316051000600007000080000
1235,LGSY,38.9676,24.4872,2024-05-28 11:50:00,,,,,22.0,1014.0,1084.3037849304176,11.0,10.0,80.0,10000.0,99999,,0.0,0,11160008101022020110301404084351000600007000080000
1236,LGTG,38.3398,23.565,2024-05-28 11:50:00,,,,,28.0,1013.0,1681.4839022931599,0.0,9.0,40.0,10000.0,99999,,0.0,0,1116000409102802000301304681451000600007000080000
1396,LTAL,41.3142,33.7958,2024-05-28 11:50:00,,,,,19.0,1012.0,10.007791270971413,9.0,5.0,,10000.0,99999,,0.0,0,111600360510190209030120410051000600007000080000
1397,LTAS,41.5064,32.0886,2024-05-28 11:50:00,,,,,18.0,1014.0,1090.2521213338473,13.0,5.0,300.0,10000.0,99999,,0.0,0,11160030051018020130301404090251000600007000080000
1400,LTBO,38.6815,29.4717,2024-05-28 11:50:00,,,,,21.0,1013.0,7753.438037067856,4.0,7.0,270.0,10000.0,99999,,0.0,0,1116002707102102040301304753451000600007000080000
1402,LTCL,37.9789,41.8404,2024-05-28 11:50:00,,,,,34.0,1011.0,3651.3756275278133,8.0,14.0,140.0,10000.0,99999,,0.0,0,1116001414103402080301104651351000600007000080000
1403,LTCM,42.0158,35.0664,2024-05-28 11:50:00,,,,,18.0,1014.0,1052.8109037246504,15.0,7.0,60.0,10000.0,99999,,0.0,0,11160006071018020150301404052851000600007000080000
1404,LTCO,39.65454,43.02598,2024-05-28 11:50:00,,,,,21.0,1020.0,13.23577291877738,9.0,3.0,40.0,10000.0,99999,,0.0,0,111600040310210209030200413251000600007000080000
1405,LTCP,37.7314,38.4689,2024-05-28 11:50:00,,,,,29.0,1010.0,4556.197192766323,8.0,8.0,200.0,10000.0,99999,,0.0,0,1116002008102902080301004556151000600007000080000
1406,LTCR,37.2233,40.6317,2024-05-28 11:50:00,,,,,32.0,1010.0,3402.7168363187516,7.0,8.0,230.0,10000.0,99999,,0.0,0,1116002308103202070301004402751000600007000080000
1407,LTFB,37.9507,27.329,2024-05-28 11:50:00,,,,,27.0,1011.0,1023.8297320400181,8.0,8.0,230.0,10000.0,99999,,0.0,0,1116002308102702080301104023851000600007000080000
1408,LTFK,40.2045,25.8833,2024-05-28 11:50:00,,,,,25.0,1014.0,1117.3079056364006,10.0,7.0,340.0,10000.0,99999,,0.0,0,11160034071025020100301404117351000600007000080000
1411,LTAY,37.7856,29.7013,2024-05-28 11:50:00,,,,,19.0,1014.0,8215.725758652266,9.0,7.0,80.0,10000.0,99999,,0.0,0,1116000807101902090301404215751000600007000080000
1412,LTBD,37.815,27.8953,2024-05-28 11:50:00,,,,,30.0,1010.0,1130.2143448908557,5.0,7.0,280.0,10000.0,99999,,0.0,0,1116002807103002050301004130251000600007000080000
1414,LTBH,40.1377,26.4268,2024-05-28 11:50:00,,,,,24.0,1014.0,1047.4376124986402,7.0,7.0,20.0,10000.0,99999,,0.0,0,1116000207102402070301404047451000600007000080000
1416,LTBY,39.8099,30.5194,2024-05-28 11:50:00,,,,,20.0,1014.0,7330.102078151425,8.0,10.0,330.0,10000.0,99999,,0.0,0,1116003310102002080301404330151000600007000080000
1418,LTCB,40.96667,38.08,2024-05-28 11:50:00,,,,,19.0,1012.0,1044.9872262472284,16.0,6.0,320.0,9000.0,99999,,0.0,0,11150032061019020160301204044951000600007000080000
1422,LTCN,37.53883,36.95352,2024-05-28 11:50:00,,,,,29.0,1010.0,3676.4267073853553,12.0,10.0,270.0,10000.0,99999,,0.0,0,11160027101029020120301004676451000600007000080000
1423,LTCT,39.97663,43.87665,2024-05-28 11:50:00,,,,,24.0,1017.0,7342.036944312925,12.0,6.0,90.0,10000.0,99999,,0.0,0,11160009061024020120301704342051000600007000080000
1424,LTDA,36.36278,36.28222,2024-05-28 11:50:00,,,,,28.0,1009.0,1362.3456188490322,17.0,20.0,210.0,10000.0,99999,,0.0,0,11160021201028020170300904362351000600007000080000
1425,LTFD,39.5546,27.0138,2024-05-28 11:50:00,,,,,25.0,1013.0,1083.2344518091843,10.0,10.0,250.0,10000.0,99999,,0.0,0,11160025101025020100301304083251000600007000080000
1426,LTFG,36.29922,32.3006,2024-05-28 11:50:00,,,,,25.0,1011.0,1132.7826161851845,19.0,8.0,230.0,10000.0,99999,,0.0,0,11160023081025020190301104132751000600007000080000
1470,LBIA,42.4549,26.3522,2024-05-28 12:00:00,,,,,23.0,1014.0,1890.1054712729651,8.0,6.0,120.0,10000.0,99999,,0.0,0,1116001206102302080301404890151000600007000080000
1471,LBPL,43.4514,24.5028,2024-05-28 12:00:00,,,,,23.0,1014.0,1559.321037130737,12.0,2.0,350.0,10000.0,99999,,0.0,0,11160035021023020120301404559351000600007000080000
1510,ETEK,49.6503,7.30007,2024-05-28 11:55:00,,,,,14.5,30.13,1030.13,6.3,6.0,200.0,10000.0,99999,,0.0,0,111600200610145206533014030151000600007000080000
1611,ETIC,49.6987,11.9402,2024-05-28 11:55:00,,,,,16.8,30.09,4898.1718629743455,7.7,6.0,280.0,10000.0,99999,,0.0,0,111600280610168207833004898151000600007000080000
1754,LTCI,38.4682,43.3323,2024-05-28 11:50:00,,,,,19.0,1020.0,14.285093199747427,13.0,7.0,240.0,10000.0,99999,,0.0,0,1116002407101902013030200414251000600007000080000
1767,LTAB,39.935,32.7408,2024-05-28 11:50:00,95.0,36.0,2,red,16.0,1013.0,9.21325918709141,12.0,6.0,240.0,10000.0,99999,,0.0,0,111600240610160201203013049251000600007950080000
1768,LTAD,39.9498,32.6886,2024-05-28 11:50:00,95.0,36.0,2,red,16.0,1014.0,9.121553743364872,12.0,6.0,280.0,10000.0,99999,,0.0,0,111600280610160201203014049151000600007950080000
1769,LTAH,38.7264,30.6011,2024-05-28 11:50:00,,,,,18.0,1014.0,9.964796145295526,10.0,2.0,250.0,10000.0,99999,,0.0,0,111600250210180201003014049951000600007000080000
1770,LTAR,39.8138,36.9035,2024-05-28 11:50:00,95.0,36.0,2,red,17.0,1015.0,14.89488031100652,9.0,7.0,150.0,10000.0,99999,,0.0,0,111600150710170209030150414851000600007950080000
1771,LTAV,39.4515,31.3653,2024-05-28 11:50:00,,,,,16.0,1013.0,10.636776567796508,10.0,7.0,260.0,10000.0,99999,,0.0,0,1116002607101602010030130410651000600007000080000
1773,LTBG,40.318,27.9777,2024-05-28 11:50:00,,,,,21.0,1014.0,1310.407179634136,10.0,6.0,20.0,10000.0,99999,,0.0,0,11160002061021020100301404310451000600007000080000
1774,LTBI,39.7841,30.5821,2024-05-28 11:50:00,,,,,20.0,1013.0,7305.133496288609,8.0,7.0,260.0,10000.0,99999,,0.0,0,1116002607102002080301304305151000600007000080000
1775,LTBL,38.513,27.0101,2024-05-28 11:50:00,,,,,27.0,1012.0,1032.5811041205543,9.0,14.0,310.0,10000.0,99999,,0.0,0,1116003114102702090301204032551000600007000080000
1776,LTBQ,40.735,30.0833,2024-05-28 11:50:00,,,,,22.0,1014.0,1317.2454350653045,10.0,6.0,,10000.0,99999,,0.0,0,11160036061022020100301404317251000600007000080000
1777,LTBT,38.8089,27.8339,2024-05-28 11:50:00,,,,,27.0,1011.0,1370.2639486784224,7.0,8.0,340.0,10000.0,99999,,0.0,0,1116003408102702070301104370251000600007000080000
1780,LTCK,38.7478,41.6612,2024-05-28 11:50:00,,,,,26.0,1015.0,8846.777520166945,10.0,11.0,190.0,10000.0,99999,,0.0,0,11160019111026020100301504846751000600007000080000
1781,LTFA,38.5176,26.9774,2024-05-28 11:50:00,,,,,27.0,1012.0,1028.7086562024367,9.0,11.0,340.0,10000.0,99999,,0.0,0,1116003411102702090301204028751000600007000080000
2071,ULPB,61.8852,34.1547,2024-05-28 12:00:00,,,,,28.0,1018.0,1212.7961983122113,11.0,5.0,280.0,10000.0,99999,,0.0,0,11160028051028020110301804212751000600007000080000
2130,LTAE,40.0789,32.5656,2024-05-28 11:50:00,95.0,36.0,2,red,13.0,1013.0,11.235837002010774,12.0,2.0,,10000.0,99999,,0.0,0,1116003602101302012030130411251000600007950080000
2177,LIPB,46.4602,11.3264,2024-05-28 11:50:00,,,,,21.0,1015.0,2603.969678109288,13.0,4.0,,10000.0,99999,,0.0,0,11160036041021020130301504603951000600007000080000
2190,LIBF,41.4329,15.535,2024-05-28 11:50:00,,,,,29.0,1012.0,1348.1124826473388,12.0,10.0,90.0,10000.0,99999,,0.0,0,11160009101029020120301204348151000600007000080000
2194,LIMA,45.0864,7.60337,2024-05-28 11:50:00,,,,,23.0,1015.0,2769.928770943035,12.0,3.0,,10000.0,99999,,0.0,0,11160036031023020120301504769951000600007000080000
2200,LIRI,40.6204,14.9113,2024-05-28 11:50:00,,,,,23.0,1015.0,1201.065494535837,18.0,10.0,230.0,10000.0,99999,,0.0,0,11160023101023020180301504201051000600007000080000
2293,LRCV,44.3181,23.8886,2024-05-28 12:00:00,,,,,21.0,1013.0,2233.6409256420866,8.0,6.0,280.0,10000.0,99999,,0.0,0,1116002806102102080301304233651000600007000080000
2450,LIPU,45.3958,11.8479,2024-05-28 11:50:00,,,,,21.0,1015.0,1088.773848250706,16.0,3.0,330.0,10000.0,99999,,0.0,0,11160033031021020160301504088751000600007000080000
2460,LPBJ,38.0789,-7.9324,2024-05-28 12:00:00,,,,,30.0,1017.0,1854.9205549976102,10.0,2.0,,10000.0,99999,,0.0,0,11160036021030020100301704854951000600007000080000
2465,LPOV,40.9159,-8.64592,2024-05-28 12:00:00,,,,,20.0,1020.0,1119.5653329591337,13.0,13.0,350.0,10000.0,99999,,0.0,0,11160035131020020130302004119551000600007000080000
2471,UMBB,52.1083,23.8981,2024-05-28 12:00:00,,,,,27.0,1017.0,1688.6273333377276,5.0,4.0,130.0,10000.0,99999,,0.0,0,1116001304102702050301704688651000600007000080000
2474,UMMG,53.602,24.0538,2024-05-28 12:00:00,,,,,28.0,1017.0,1625.0613699146452,9.0,4.0,150.0,10000.0,99999,,0.0,0,1116001504102802090301704625051000600007000080000
2498,UWLW,54.401,48.8027,2024-05-28 12:00:00,,,,,24.0,1023.0,1416.6797813901658,2.0,6.0,250.0,10000.0,99999,,0.0,0,1116002506102402020302304416651000600007000080000
2567,EGEC,55.4372,-5.68639,2024-05-28 11:50:00,61.0,36.0,^,green,12.0,1003.0,1125.9770472343996,12.0,12.0,140.0,4000.0,99999,,0.0,0,11120014121012020120300304125951000600007610080000
2577,EGWC,52.64,-2.30558,2024-05-28 11:50:00,80.0,36.0,q,green,16.0,1008.0,1659.721274818484,14.0,10.0,200.0,10000.0,99999,,0.0,0,11160020101016020140300804659751000600007800080000
2580,EGXC,53.093,-0.16601,2024-05-28 11:50:00,,,,,15.0,1010.0,1068.2175539159132,13.0,10.0,170.0,10000.0,99999,,0.0,0,11160017101015020130301004068251000600007000080000
2632,LGHI,38.3432,26.1406,2024-05-28 11:50:00,,,,,24.0,1013.0,1034.7331912392408,12.0,10.0,40.0,10000.0,99999,,0.0,0,11160004101024020120301304034751000600007000080000
2635,LGSO,37.4228,24.9509,2024-05-28 11:50:00,,,,,24.0,1015.0,1379.3205413128942,10.0,7.0,20.0,10000.0,99999,,0.0,0,11160002071024020100301504379351000600007000080000
2636,LIMP,44.8245,10.2964,2024-05-28 11:50:00,,,,,23.0,1015.0,1269.769678968326,16.0,5.0,90.0,6000.0,99999,,0.0,0,11130009051023020160301504269751000600007000080000
2641,LKKB,50.1214,14.5436,2024-05-28 12:00:00,61.0,36.0,^,green,15.0,1018.0,3870.2264404934854,12.0,5.0,320.0,10000.0,99999,,0.0,0,11160032051015020120301804870251000600007610080000
2643,LKLN,49.6752,13.2746,2024-05-28 12:00:00,,,,,15.0,1019.0,4743.595818378064,10.0,6.0,240.0,10000.0,99999,,0.0,0,11160024061015020100301904743551000600007000080000
2659,LTCD,39.7102,39.527,2024-05-28 11:50:00,,,,,25.0,1013.0,8414.318643288832,8.0,6.0,120.0,10000.0,99999,,0.0,0,1116001206102502080301304414351000600007000080000
2663,LTFH,41.2545,36.5671,2024-05-28 11:50:00,,,,,18.0,1013.0,1047.8674786024098,15.0,6.0,10.0,8000.0,99999,,0.0,0,11140001061018020150301304047851000600007000080000
2670,UMOO,53.9549,30.0951,2024-05-28 12:00:00,80.0,36.0,q,green,25.0,1022.0,2054.842453200439,13.0,4.0,120.0,9000.0,99999,,0.0,0,11150012041025020130302204054851000600007800080000
2692,EIDL,55.0442,-8.341,2024-05-28 12:00:00,,,,,14.0,1002.0,1076.5091986611824,12.0,18.0,230.0,10000.0,99999,,0.0,0,11160023181014020120300204076551000600007000080000
2700,LIBC,38.9972,17.0802,2024-05-28 11:50:00,,,,,25.0,1015.0,1837.3423872185017,14.0,5.0,170.0,10000.0,99999,,0.0,0,11160017051025020140301504837351000600007000080000
2701,LIBG,40.5175,17.4032,2024-05-28 11:50:00,,,,,24.0,1013.0,1342.4643890035447,15.0,9.0,110.0,10000.0,99999,,0.0,0,11160011091024020150301304342451000600007000080000
2703,LICG,36.8165,11.9689,2024-05-28 11:50:00,,,,,26.0,1016.0,1983.3896602878146,3.0,6.0,180.0,10000.0,99999,,0.0,0,1116001806102602030301604983351000600007000080000
2706,LIMG,44.0506,8.12743,2024-05-28 11:50:00,,,,,22.0,1015.0,1259.4121307421235,16.0,8.0,80.0,10000.0,99999,,0.0,0,11160008081022020160301504259451000600007000080000
2710,LIQN,42.4272,12.8517,2024-05-28 11:50:00,,,,,24.0,1015.0,3379.914279650968,10.0,3.0,200.0,10000.0,99999,,0.0,0,11160020031024020100301504379951000600007000080000
2716,LIRU,41.9519,12.4989,2024-05-28 11:50:00,,,,,26.0,1014.0,1088.4204118490359,14.0,8.0,240.0,10000.0,99999,,0.0,0,11160024081026020140301404088451000600007000080000
2728,LPAR,38.8833,-9.0301,2024-05-28 12:00:00,,,,,29.0,1018.0,1031.2312521447818,12.0,8.0,20.0,10000.0,99999,,0.0,0,11160002081029020120301804031251000600007000080000
2729,LPMR,39.8312,-8.88726,2024-05-28 12:00:00,,,,,20.0,1020.0,1367.0867117464375,13.0,13.0,340.0,10000.0,99999,,0.0,0,11160034131020020130302004367051000600007000080000
2730,LPMT,38.7039,-9.03592,2024-05-28 12:00:00,,,,,27.0,1018.0,1077.9984579663048,13.0,7.0,360.0,10000.0,99999,,0.0,0,11160036071027020130301804077951000600007000080000
2756,LTBF,39.6193,27.926,2024-05-28 11:50:00,,,,,23.0,1013.0,1575.6613552122988,10.0,7.0,360.0,10000.0,99999,,0.0,0,11160036071023020100301304575651000600007000080000
2757,LTCA,38.6069,39.2914,2024-05-28 11:50:00,,,,,29.0,1011.0,5843.472680616383,5.0,13.0,120.0,10000.0,99999,,0.0,0,1116001213102902050301104843451000600007000080000
2779,LPST,38.8311,-9.33955,2024-05-28 12:00:00,,,,,22.0,1019.0,1806.3023549387212,15.0,11.0,310.0,10000.0,99999,,0.0,0,11160031111022020150301904806351000600007000080000
2789,EGQL,56.3729,-2.86844,2024-05-28 11:50:00,,,,,14.0,1006.0,1101.13577369095,10.0,13.0,120.0,10000.0,99999,,0.0,0,11160012131014020100300604101151000600007000080000
2792,EGYE,52.9622,-0.56163,2024-05-28 11:50:00,,,,,14.0,1010.0,2063.631538856481,13.0,13.0,160.0,10000.0,99999,,0.0,0,11160016131014020130301004063651000600007000080000
2793,EGYM,52.6484,0.55069,2024-05-28 11:50:00,61.0,36.0,^,green,15.0,1011.0,1189.894552618129,14.0,12.0,160.0,5000.0,99999,,0.0,0,11130016121015020140301104189851000600007610080000
2798,LBWB,43.4238,28.1813,2024-05-28 12:00:00,,,,,16.0,1014.0,2779.381347929705,12.0,4.0,350.0,10000.0,99999,,0.0,0,11160035041016020120301404779351000600007000080000
2801,ETIH,49.2181,11.8361,2024-05-28 11:55:00,,,,,15.5,30.12,5578.144554070603,6.2,9.0,260.0,10000.0,99999,,0.0,0,111600260910155206533014578151000600007000080000
2802,ETIK,49.4739,10.3881,2024-05-28 11:55:00,,,,,17.0,30.12,3961.9908386290017,5.9,10.0,290.0,10000.0,99999,,0.0,0,111600291010170205033014961951000600007000080000
2807,LICT,37.9114,12.488,2024-05-28 11:55:00,,,,,27.0,1016.0,1048.3630305596166,9.0,10.0,260.0,10000.0,99999,,0.0,0,1116002610102702090301604048351000600007000080000
2808,LIBA,41.5414,15.7181,2024-05-28 11:55:00,,,,,26.0,1013.0,1268.7281618780717,14.0,13.0,90.0,10000.0,99999,,0.0,0,11160009131026020140301304268751000600007000080000
2810,LIBV,40.7678,16.9333,2024-05-28 11:55:00,95.0,36.0,2,red,24.0,1014.0,3185.4881255050423,12.0,8.0,160.0,7000.0,99999,,0.0,0,11140016081024020120301404185451000600007950080000
2812,LIED,39.3542,8.97248,2024-05-28 11:55:00,,,,,31.0,1014.0,1128.369434171421,4.0,7.0,330.0,10000.0,99999,,0.0,0,1116003307103102040301404128351000600007000080000
2813,LIMN,45.5296,8.66922,2024-05-28 11:55:00,,,,,23.0,1015.0,2040.6900334778582,16.0,4.0,210.0,10000.0,99999,,0.0,0,11160021041023020160301504040651000600007000080000
2814,LIMS,44.9131,9.72333,2024-05-28 11:55:00,,,,,23.0,1014.0,1789.942170244212,19.0,3.0,80.0,10000.0,99999,,0.0,0,11160008031023020190301404789951000600007000080000
2815,LIPA,46.0319,12.5965,2024-05-28 11:55:00,,,,,19.0,1014.0,1865.9730484175657,14.0,2.0,320.0,10000.0,99999,,0.0,0,11160032021019020140301404865951000600007000080000
2816,LIPC,44.2242,12.3072,2024-05-28 11:55:00,,,,,23.0,1015.0,1042.2986039907798,17.0,10.0,340.0,10000.0,99999,,0.0,0,11160034101023020170301504042251000600007000080000
2817,LIPF,44.816,11.6134,2024-05-28 11:55:00,63.0,36.0,',green,20.0,1015.0,1049.9363186391372,20.0,3.0,200.0,1200.0,99999,,0.0,0,11100020031020020200301504049951000600007630080000
2818,LIPI,45.9787,13.0493,2024-05-28 11:55:00,,,,,23.0,1014.0,1298.3960238509208,17.0,5.0,260.0,10000.0,99999,,0.0,0,11160026051023020170301404298351000600007000080000
2819,LIPL,45.4322,10.2677,2024-05-28 11:55:00,,,,,23.0,1014.0,1564.6820986361226,17.0,5.0,140.0,10000.0,99999,,0.0,0,11160014051023020170301404564651000600007000080000
2820,LIPS,45.6849,12.0829,2024-05-28 11:55:00,,,,,22.0,1015.0,1240.5107562533321,16.0,3.0,60.0,10000.0,99999,,0.0,0,11160006031022020160301504240551000600007000080000
2822,LIQW,44.088,9.98795,2024-05-28 11:55:00,,,,,22.0,1014.0,1085.9247058343967,13.0,5.0,140.0,10000.0,99999,,0.0,0,11160014051022020130301404085951000600007000080000
2823,LIRE,41.6545,12.4452,2024-05-28 11:55:00,,,,,23.0,1015.0,1077.6273154542507,20.0,9.0,200.0,10000.0,99999,,0.0,0,11160020091023020200301504077651000600007000080000
2824,LIRG,41.9903,12.7408,2024-05-28 11:55:00,,,,,26.0,1015.0,1430.0260076761492,10.0,7.0,230.0,10000.0,99999,,0.0,0,11160023071026020100301504430051000600007000080000
2826,LIRS,42.7597,11.0719,2024-05-28 11:55:00,,,,,26.0,1014.0,1036.7634664003183,14.0,7.0,240.0,10000.0,99999,,0.0,0,11160024071026020140301404036751000600007000080000
2828,ETAR,49.4369,7.60028,2024-05-28 11:55:00,,,,,18.1,30.11,2904.167813522072,6.3,6.0,220.0,10000.0,99999,,0.0,0,111600220610181206133014904151000600007000080000
2829,LICZ,37.4017,14.9224,2024-05-28 11:55:00,,,,,25.0,1014.0,1125.9852963655549,7.0,18.0,90.0,10000.0,99999,,0.0,0,1116000918102502070301404125951000600007000080000
2830,LIRM,41.0608,14.0819,2024-05-28 11:55:00,,,,,25.0,1016.0,1056.6127649241637,19.0,12.0,270.0,10000.0,99999,,0.0,0,11160027121025020190301604056651000600007000080000
2853,LOAV,47.965,16.26,2024-05-28 12:00:00,,,,,22.0,99999.0,99999.0,15.0,10.0,310.0,10000.0,99999,,0.0,0,11160031101022020150399904999051000600007000080000
2856,LKKU,49.0294,17.4397,2024-05-28 12:00:00,,,,,25.0,1015.0,1940.8694364497262,10.0,5.0,230.0,10000.0,99999,,0.0,0,11160023051025020100301504940851000600007000080000
2857,LOAN,47.8433,16.2601,2024-05-28 12:00:00,,,,,99999.0,99999.0,99999.0,99999.0,14.0,320.0,10000.0,99999,,0.0,0,11160032141099999020999990399904999051000600007000080000
2869,LIRH,41.6464,13.2998,2024-05-28 11:55:00,,,,,25.0,1014.0,1014.0,12.0,3.0,190.0,10000.0,99999,,0.0,0,11160019031025020120301404014051000600007000080000
2871,LIRV,42.4302,12.0642,2024-05-28 11:55:00,,,,,24.0,1014.0,2783.4445522309015,11.0,7.0,240.0,10000.0,99999,,0.0,0,11160024071024020110301404783451000600007000080000
2886,LTAN,37.979,32.5619,2024-05-28 12:09:00,,,,,15.0,1014.0,11.776298697342401,13.0,6.0,350.0,10000.0,99999,,0.0,0,1116003506101502013030140411751000600007000080000
2892,LGNX,37.0811,25.3681,2024-05-28 11:50:00,,,,,24.0,1014.0,1028.4811595749945,15.0,9.0,350.0,10000.0,99999,,0.0,0,11160035091024020150301404028451000600007000080000
2895,LBPG,42.2904,24.714,2024-05-28 12:10:00,,,,,16.0,1014.0,1458.9531837046027,10.0,10.0,240.0,10000.0,99999,,0.0,0,11160024101016020100301404458951000600007000080000
2898,ETOU,50.0498,8.3254,2024-05-28 11:55:00,,,,,17.9,30.11,2083.6654937893586,6.7,7.0,250.0,10000.0,99999,,0.0,0,111600250710178206833014083651000600007000080000
2900,EVGA,56.7783,24.8539,2024-05-28 12:20:00,,,,,28.0,1018.0,1278.9775133694409,13.0,7.0,110.0,10000.0,99999,,0.0,0,11160011071028020130301804278951000600007000080000
2902,LATI,41.4147,19.7206,2024-05-28 12:20:00,17.0,36.0,2,red,25.0,1014.0,1194.9092095633578,17.0,8.0,290.0,10000.0,99999,,0.0,0,11160029081025020170301404194951000600007170080000
2903,LIRL,41.5424,12.909,2024-05-28 11:55:00,,,,,26.0,1015.0,1143.6530370273742,15.0,99999.0,,10000.0,99999,,0.0,0,11160036999991026020150301504143651000600007000080000
2904,LMML,35.8575,14.4775,2024-05-28 12:15:00,,,,,24.0,1016.0,1487.0172730034144,17.0,7.0,220.0,10000.0,99999,,0.0,0,11160022071024020170301604487051000600007000080000
2905,LWOH,41.18,20.7423,2024-05-28 12:20:00,,,,,20.0,1015.0,6632.6991466171585,10.0,7.0,190.0,10000.0,99999,,0.0,0,11160019071020020100301504632651000600007000080000
2906,LWSK,41.9616,21.6214,2024-05-28 12:20:00,,,,,26.0,1013.0,2244.1973121268275,14.0,8.0,30.0,10000.0,99999,,0.0,0,11160003081026020140301304244151000600007000080000
2911,LTAW,40.30743,36.36741,2024-05-28 12:02:00,95.0,36.0,2,red,22.0,1010.0,4912.296352585804,16.0,6.0,250.0,10000.0,99999,,0.0,0,11160025061022020160301004912251000600007950080000
2944,EYSA,55.8939,23.395,2024-05-28 12:20:00,,,,,26.0,1019.0,1679.4598653122384,9.0,8.0,120.0,10000.0,99999,,0.0,0,1116001208102602090301904679451000600007000080000
2949,EVVA,57.3578,21.5442,2024-05-28 12:20:00,,,,,28.0,1017.0,1040.6984098806188,6.0,5.0,180.0,10000.0,99999,,0.0,0,1116001805102802060301704040651000600007000080000
2963,LSZC,46.97444,8.39694,2024-05-28 12:20:00,,,,,17.0,1021.0,5152.933883297684,9.0,3.0,80.0,10000.0,99999,,0.0,0,1116000803101702090302104152951000600007000080000
2968,EYKA,54.9639,24.0848,2024-05-28 12:20:00,,,,,29.0,1018.0,1343.9927007536974,6.0,7.0,150.0,10000.0,99999,,0.0,0,1116001507102902060301804343951000600007000080000
2977,EKRS,55.4258,11.8067,2024-05-28 12:20:00,,,,,16.0,1013.0,1269.6413064708543,16.0,7.0,,10000.0,99999,,0.0,0,11160036071016020160301304269651000600007000080000
2987,LSMA,46.9439,8.28417,2024-05-28 12:20:00,,,,,16.0,1021.0,5390.203135945301,8.0,4.0,60.0,10000.0,99999,,0.0,0,1116000604101602080302104390251000600007000080000
2988,LSMD,47.3986,8.64823,2024-05-28 12:20:00,,,,,17.0,1021.0,5137.372748340241,7.0,2.0,,10000.0,99999,,0.0,0,1116003602101702070302104137351000600007000080000
2989,LSMM,46.7433,8.11,2024-05-28 12:20:00,,,,,17.0,1021.0,6454.142923432097,7.0,1.0,,10000.0,99999,,0.0,0,1116003601101702070302104454151000600007000080000
2990,LSMP,46.8432,6.91506,2024-05-28 12:20:00,,,,,19.0,1021.0,4642.302859285857,7.0,4.0,320.0,10000.0,99999,,0.0,0,1116003204101902070302104642351000600007000080000
3069,EGHC,50.1028,-5.67056,2024-05-28 12:20:00,45.0,36.0,N,yellow,14.0,1012.0,2177.913475225255,13.0,13.0,230.0,100.0,99999,,0.0,0,11100023131014020130301204177951000600007450080000
3071,EGHQ,50.4406,-4.99541,2024-05-28 12:20:00,,,,,15.0,1012.0,2058.076463627307,14.0,17.0,230.0,10000.0,99999,,0.0,0,11160023171015020140301204058051000600007000080000
3077,EGCK,53.1042,-4.34028,2024-05-28 12:20:00,,,,,16.0,1006.0,1008.149469415681,14.0,12.0,220.0,10000.0,99999,,0.0,0,11160022121016020140300604008151000600007000080000
3080,EGTK,51.8369,-1.32,2024-05-28 12:20:00,16.0,36.0,1,,16.0,1010.0,1657.7784934462993,15.0,9.0,220.0,6000.0,99999,,0.0,0,11130022091016020150301004657751000600007160080000
3089,EGEO,56.4635,-5.39967,2024-05-28 12:20:00,,,,,14.0,1003.0,1052.4708487007542,10.0,9.0,120.0,10000.0,99999,,0.0,0,11160012091014020100300304052451000600007000080000
3126,ESOH,60.0201,13.5789,2024-05-28 12:20:00,,,,,22.0,1014.0,1864.5106595536129,13.0,4.0,120.0,10000.0,99999,,0.0,0,11160012041022020130301404864551000600007000080000
3127,ESCF,58.4023,15.5257,2024-05-28 12:20:00,,,,,24.0,1014.0,1497.5609272824972,15.0,6.0,110.0,10000.0,99999,,0.0,0,11160011061024020150301404497551000600007000080000
3129,ESIB,58.4264,12.7144,2024-05-28 12:20:00,,,,,19.0,1012.0,1363.2399039399477,16.0,11.0,20.0,10000.0,99999,,0.0,0,11160002111019020160301204363251000600007000080000
3131,ESPE,65.8753,20.1499,2024-05-28 12:20:00,,,,,24.0,1012.0,2007.6829769980136,11.0,7.0,260.0,10000.0,99999,,0.0,0,11160026071024020110301204007651000600007000080000
3133,ESIA,58.5138,14.5071,2024-05-28 12:20:00,,,,,20.0,1014.0,1602.7533991624975,16.0,11.0,70.0,10000.0,99999,,0.0,0,11160007111020020160301404602751000600007000080000
3134,ESCM,59.8973,17.5886,2024-05-28 12:20:00,,,,,24.0,1016.0,1116.3788428927517,13.0,9.0,170.0,10000.0,99999,,0.0,0,11160017091024020130301604116351000600007000080000
3151,ESNZ,63.1944,14.5003,2024-05-28 12:20:00,,,,,21.0,1014.0,3655.1012063098606,8.0,7.0,200.0,10000.0,99999,,0.0,0,1116002007102102080301404655151000600007000080000
3223,ESNV,64.5791,16.8336,2024-05-28 12:20:00,,,,,99999.0,1014.0,99999.0,99999.0,9.0,200.0,10000.0,99999,,0.0,0,11160020091099999020999990301404999051000600007000080000
3225,ESST,60.1576,12.9913,2024-05-28 12:20:00,,,,,22.0,1014.0,1706.0744422858272,13.0,6.0,140.0,10000.0,99999,,0.0,0,11160014061022020130301404706051000600007000080000
3226,ESUP,67.2456,23.0689,2024-05-28 12:20:00,,,,,25.0,1011.0,1864.8538337079785,12.0,9.0,240.0,10000.0,99999,,0.0,0,11160024091025020120301104864851000600007000080000
3227,ESND,62.0478,14.4229,2024-05-28 12:20:00,,,,,22.0,1015.0,3394.899385146891,8.0,4.0,,10000.0,99999,,0.0,0,1116003604102202080301504394851000600007000080000
3234,ESMV,57.2922,14.1372,2024-05-28 12:20:00,,,,,23.0,1012.0,1976.4721485353996,10.0,8.0,140.0,10000.0,99999,,0.0,0,11160014081023020100301204976451000600007000080000
3250,EFET,68.3626,23.4243,2024-05-28 12:20:00,,,,,99999.0,99999.0,99999.0,99999.0,1.0,,10000.0,99999,,0.0,0,11160036011099999020999990399904999051000600007000080000
3251,EFHA,61.856,24.7866,2024-05-28 12:20:00,,,,,99999.0,99999.0,99999.0,99999.0,10.0,200.0,10000.0,99999,,0.0,0,11160020101099999020999990399904999051000600007000080000
3252,EFJO,62.6629,29.6075,2024-05-28 12:20:00,,,,,26.0,1018.0,1605.2335245700751,7.0,5.0,270.0,10000.0,99999,,0.0,0,1116002705102602070301804605251000600007000080000
3257,EFKS,65.9876,29.2394,2024-05-28 12:20:00,,,,,21.0,1014.0,2778.8009993141113,12.0,13.0,240.0,10000.0,99999,,0.0,0,11160024131021020120301404778851000600007000080000
3258,EFKT,67.701,24.8468,2024-05-28 12:20:00,17.0,36.0,2,red,22.0,1011.0,2204.58311219635,12.0,8.0,140.0,10000.0,99999,,0.0,0,11160014081022020120301104204551000600007170080000
3260,EFLP,61.0446,28.1444,2024-05-28 12:20:00,95.0,36.0,2,red,23.0,1019.0,1601.2420228139904,12.0,8.0,20.0,10000.0,99999,,0.0,0,11160002081023020120301904601251000600007950080000
3261,EFMI,61.6866,27.2018,2024-05-28 12:20:00,,,,,26.0,1018.0,1496.1807467295614,10.0,6.0,250.0,10000.0,99999,,0.0,0,11160025061026020100301804496151000600007000080000
3263,EFSA,61.9431,28.9451,2024-05-28 12:20:00,,,,,27.0,1018.0,1450.3861079025635,10.0,5.0,230.0,10000.0,99999,,0.0,0,11160023051027020100301804450351000600007000080000
3264,EFSI,62.6921,22.8323,2024-05-28 12:20:00,,,,,27.0,1017.0,1435.6296455176332,4.0,9.0,250.0,10000.0,99999,,0.0,0,1116002509102702040301704435651000600007000080000
3265,EFUT,60.8964,26.9384,2024-05-28 12:20:00,16.0,36.0,1,,27.0,1019.0,1493.6611677799274,10.0,9.0,210.0,10000.0,99999,,0.0,0,11160021091027020100301904493651000600007160080000
3309,LICB,36.9946,14.60718,2024-05-28 12:20:00,,,,,25.0,1016.0,2017.6348489079596,6.0,11.0,240.0,10000.0,99999,,0.0,0,1116002411102502060301604017651000600007000080000
3376,EEKA,58.9908,22.8307,2024-05-28 12:20:00,,,,,28.0,1018.0,1040.4673848244893,6.0,10.0,150.0,10000.0,99999,,0.0,0,1116001510102802060301804040451000600007000080000
3377,EEKE,58.2299,22.5095,2024-05-28 12:20:00,,,,,24.0,1019.0,1039.3982887034717,14.0,7.0,130.0,10000.0,99999,,0.0,0,11160013071024020140301904039351000600007000080000
3378,EETU,58.3075,26.6904,2024-05-28 12:20:00,,,,,28.0,1019.0,1306.294817581167,9.0,9.0,190.0,10000.0,99999,,0.0,0,1116001909102802090301904306251000600007000080000
3379,EEPU,58.419,24.4728,2024-05-28 12:20:00,,,,,28.0,1019.0,1078.1608799689093,7.0,7.0,240.0,10000.0,99999,,0.0,0,1116002407102802070301904078151000600007000080000
3520,EDJA,47.9888,10.2395,2024-05-28 12:20:00,,,,,15.0,1021.0,7840.579101492143,8.0,8.0,240.0,10000.0,99999,,0.0,0,1116002408101502080302104840551000600007000080000
3527,EDTY,49.11833,9.78389,2024-05-28 12:20:00,,,,,16.0,1020.0,4853.179362504002,6.0,9.0,280.0,10000.0,99999,,0.0,0,1116002809101602060302004853151000600007000080000
3533,EKBI,55.7403,9.15178,2024-05-28 12:20:00,,,,,13.0,1014.0,1754.4736539486516,10.0,8.0,270.0,10000.0,99999,,0.0,0,11160027081013020100301404754451000600007000080000
3534,EKCH,55.6179,12.656,2024-05-28 12:20:00,,,,,19.0,1013.0,1044.1735509082591,14.0,15.0,190.0,10000.0,99999,,0.0,0,11160019151019020140301304044151000600007000080000
3535,EKEB,55.5259,8.5534,2024-05-28 12:20:00,,,,,14.0,1015.0,1267.0537470493018,10.0,5.0,240.0,10000.0,99999,,0.0,0,11160024051014020100301504267051000600007000080000
3537,EKOD,55.4767,10.3309,2024-05-28 12:20:00,,,,,13.0,1014.0,1167.8626929210352,11.0,8.0,280.0,10000.0,99999,,0.0,0,11160028081013020110301404167851000600007000080000
3538,EKRK,55.5856,12.1314,2024-05-28 12:20:00,,,,,17.0,1013.0,1328.1242434209964,14.0,14.0,240.0,10000.0,99999,,0.0,0,11160024141017020140301304328151000600007000080000
3539,EKRN,55.0633,14.7596,2024-05-28 12:20:00,63.0,36.0,',green,15.0,1015.0,1138.2348605797827,14.0,8.0,250.0,7000.0,99999,,0.0,0,11140025081015020140301504138251000600007630080000
3540,EKSB,54.9644,9.79173,2024-05-28 12:20:00,,,,,14.0,1015.0,1075.1977371647868,11.0,8.0,260.0,10000.0,99999,,0.0,0,11160026081014020110301504075151000600007000080000
3541,EKSP,55.2256,9.26393,2024-05-28 12:20:00,,,,,14.0,1015.0,1388.6848761842741,10.0,8.0,260.0,10000.0,99999,,0.0,0,11160026081014020100301504388651000600007000080000
3549,EETN,59.4133,24.8328,2024-05-28 12:20:00,,,,,26.0,1019.0,1200.7439018293599,7.0,7.0,230.0,10000.0,99999,,0.0,0,1116002307102602070301904200751000600007000080000
3551,EFIV,68.6073,27.4053,2024-05-28 12:20:00,,,,,17.0,1013.0,2164.123342769449,9.0,5.0,40.0,10000.0,99999,,0.0,0,1116000405101702090301304164151000600007000080000
3552,EFJY,62.3995,25.6783,2024-05-28 12:20:00,,,,,27.0,1018.0,1676.186763655969,9.0,6.0,230.0,10000.0,99999,,0.0,0,1116002306102702090301804676151000600007000080000
3553,EFKE,65.7787,24.5821,2024-05-28 12:20:00,,,,,15.0,1015.0,1160.1590623346826,9.0,14.0,200.0,10000.0,99999,,0.0,0,1116002014101502090301504160151000600007000080000
3554,EFKK,63.7212,23.1431,2024-05-28 12:20:00,,,,,26.0,1016.0,1130.7752534882823,11.0,11.0,250.0,10000.0,99999,,0.0,0,11160025111026020110301604130751000600007000080000
3556,EFMA,60.1222,19.8982,2024-05-28 12:20:00,,,,,20.0,1018.0,1047.7514368707518,14.0,10.0,200.0,10000.0,99999,,0.0,0,11160020101020020140301804047751000600007000080000
3558,EFPO,61.4617,21.8,2024-05-28 12:20:00,,,,,27.0,1017.0,1074.3032436488268,8.0,11.0,260.0,10000.0,99999,,0.0,0,1116002611102702080301704074351000600007000080000
3559,EFRO,66.5648,25.8304,2024-05-28 12:20:00,,,,,23.0,1013.0,2146.7417686211807,11.0,14.0,210.0,10000.0,99999,,0.0,0,11160021141023020110301304146751000600007000080000
3560,EFTP,61.4141,23.6044,2024-05-28 12:20:00,,,,,27.0,1018.0,1569.4583919459933,8.0,5.0,,10000.0,99999,,0.0,0,1116003605102702080301804569451000600007000080000
3561,EFTU,60.5141,22.2628,2024-05-28 12:20:00,,,,,27.0,1018.0,1234.2022863856491,6.0,13.0,230.0,10000.0,99999,,0.0,0,1116002313102702060301804234251000600007000080000
3562,EFVA,63.0507,21.7622,2024-05-28 12:20:00,,,,,26.0,1016.0,1041.5059090911145,6.0,15.0,230.0,10000.0,99999,,0.0,0,1116002315102602060301604041551000600007000080000
3564,ENBR,60.2934,5.21814,2024-05-28 12:20:00,,,,,16.0,1013.0,1407.7702260507751,10.0,9.0,210.0,10000.0,99999,,0.0,0,11160021091016020100301304407751000600007000080000
3565,ENCN,58.2042,8.08537,2024-05-28 12:20:00,61.0,36.0,^,green,13.0,1014.0,1170.6918695639545,11.0,6.0,310.0,10000.0,99999,,0.0,0,11160031061013020110301404170651000600007610080000
3567,ENHD,59.3453,5.20836,2024-05-28 12:20:00,,,,,15.0,1013.0,1219.5427225323258,9.0,11.0,200.0,10000.0,99999,,0.0,0,1116002011101502090301304219551000600007000080000
3570,ENVA,63.4578,10.924,2024-05-28 12:20:00,,,,,21.0,1014.0,1108.1786763329474,13.0,8.0,230.0,10000.0,99999,,0.0,0,11160023081021020130301404108151000600007000080000
3571,ENZV,58.8767,5.63778,2024-05-28 12:20:00,,,,,16.0,1013.0,1076.5654816600256,10.0,10.0,180.0,10000.0,99999,,0.0,0,11160018101016020100301304076551000600007000080000
3572,EVRA,56.9236,23.9711,2024-05-28 12:20:00,,,,,29.0,1018.0,1061.5729305961643,7.0,6.0,170.0,10000.0,99999,,0.0,0,1116001706102902070301804061551000600007000080000
3576,LGAV,37.9364,23.9445,2024-05-28 12:20:00,,,,,26.0,1014.0,1457.7968544256485,8.0,10.0,100.0,10000.0,99999,,0.0,0,1116001010102602080301404457751000600007000080000
3613,LIPO,45.4289,10.3306,2024-05-28 12:20:00,,,,,24.0,1015.0,1579.1462078596187,16.0,6.0,140.0,10000.0,99999,,0.0,0,11160014061024020160301504579151000600007000080000
3629,ENAL,62.5625,6.1197,2024-05-28 12:20:00,,,,,15.0,1014.0,1178.6283943384963,12.0,6.0,360.0,10000.0,99999,,0.0,0,11160036061015020120301404178651000600007000080000
3635,ENDU,69.0558,18.5404,2024-05-28 12:20:00,,,,,25.0,1011.0,1383.5484609202776,10.0,9.0,290.0,10000.0,99999,,0.0,0,11160029091025020100301104383551000600007000080000
3652,ENRO,62.5784,11.3423,2024-05-28 12:20:00,,,,,19.0,1014.0,6235.0938079763055,5.0,6.0,170.0,10000.0,99999,,0.0,0,1116001706101902050301404235051000600007000080000
3654,ENRY,59.3789,10.7856,2024-05-28 12:20:00,,,,,21.0,1013.0,1316.446785667044,10.0,9.0,80.0,10000.0,99999,,0.0,0,11160008091021020100301304316451000600007000080000
3662,ENTO,59.1867,10.2586,2024-05-28 12:20:00,,,,,19.0,1013.0,1586.8011684903395,12.0,5.0,40.0,10000.0,99999,,0.0,0,11160004051019020120301304586851000600007000080000
3665,ESGJ,57.7576,14.0687,2024-05-28 12:20:00,,,,,21.0,1012.0,2487.35105415099,16.0,6.0,70.0,10000.0,99999,,0.0,0,11160007061021020160301204487351000600007000080000
3666,ESGP,57.7747,11.8704,2024-05-28 12:20:00,,,,,21.0,1011.0,1110.029056862064,14.0,9.0,110.0,10000.0,99999,,0.0,0,11160011091021020140301104110051000600007000080000
3670,ESMX,56.9291,14.728,2024-05-28 12:20:00,,,,,25.0,1012.0,1986.5205631496265,12.0,15.0,110.0,10000.0,99999,,0.0,0,11160011151025020120301204986551000600007000080000
3675,ESNU,63.7918,20.2828,2024-05-28 12:20:00,,,,,19.0,1015.0,1059.2136108421694,12.0,10.0,180.0,10000.0,99999,,0.0,0,11160018101019020120301504059251000600007000080000
3677,ESOW,59.5894,16.6336,2024-05-28 12:20:00,,,,,24.0,1016.0,1046.5718275581091,12.0,5.0,140.0,10000.0,99999,,0.0,0,11160014051024020120301604046551000600007000080000
3678,ESPA,65.5438,22.122,2024-05-28 12:20:00,,,,,15.0,1013.0,1167.6527734830756,9.0,8.0,190.0,10000.0,99999,,0.0,0,1116001908101502090301304167651000600007000080000
3681,ESSV,57.6628,18.3462,2024-05-28 12:20:00,,,,,23.0,1016.0,1275.9910229355132,11.0,5.0,270.0,10000.0,99999,,0.0,0,11160027051023020110301604275951000600007000080000
3682,LSGC,47.0839,6.79284,2024-05-28 12:20:00,,,,,13.0,1021.0,13.2095919679176,4.0,4.0,30.0,10000.0,99999,,0.0,0,111600030410130204030210413251000600007000080000
3683,LSGG,46.2381,6.10895,2024-05-28 12:20:00,,,,,19.0,1020.0,4488.0460287277965,5.0,5.0,70.0,10000.0,99999,,0.0,0,1116000705101902050302004488051000600007000080000
3684,LSGS,46.2196,7.32676,2024-05-28 12:20:00,,,,,21.0,1018.0,4542.984807804649,7.0,13.0,260.0,10000.0,99999,,0.0,0,1116002613102102070301804542951000600007000080000
3685,LSZA,46.0043,8.91058,2024-05-28 12:20:00,,,,,25.0,1014.0,2554.8786146368993,12.0,6.0,190.0,10000.0,99999,,0.0,0,11160019061025020120301404554851000600007000080000
3686,LSZB,46.9141,7.49715,2024-05-28 12:20:00,,,,,19.0,1021.0,5223.859009169553,6.0,3.0,,10000.0,99999,,0.0,0,1116003603101902060302104223851000600007000080000
3687,LSZG,47.1816,7.41719,2024-05-28 12:20:00,,,,,18.0,1021.0,4710.065903075973,8.0,1.0,,10000.0,99999,,0.0,0,1116003601101802080302104710051000600007000080000
3688,LSZH,47.4647,8.54917,2024-05-28 12:20:00,,,,,18.0,1021.0,4724.7354671697785,7.0,5.0,160.0,10000.0,99999,,0.0,0,1116001605101802070302104724751000600007000080000
3689,LSZL,46.1608,8.87861,2024-05-28 12:20:00,,,,,23.0,1014.0,2164.7400634678575,12.0,5.0,250.0,10000.0,99999,,0.0,0,11160025051023020120301404164751000600007000080000
3690,LSZR,47.485,9.56077,2024-05-28 12:20:00,,,,,16.0,1021.0,4881.06678957608,9.0,1.0,,10000.0,99999,,0.0,0,1116003601101602090302104881051000600007000080000
3691,LSZS,46.5341,9.88411,2024-05-28 12:20:00,,,,,12.0,1019.0,19.432460565846082,3.0,8.0,20.0,10000.0,99999,,0.0,0,111600020810120203030190419451000600007000080000
3694,EGBB,52.4539,-1.74803,2024-05-28 12:20:00,63.0,36.0,',green,16.0,1008.0,1805.5971220664617,14.0,7.0,200.0,10000.0,99999,,0.0,0,11160020071016020140300804805551000600007630080000
3696,EGFF,51.3967,-3.34333,2024-05-28 12:20:00,,,,,15.0,1011.0,1567.7852824192041,14.0,12.0,260.0,10000.0,99999,,0.0,0,11160026121015020140301104567751000600007000080000
3697,EGGD,51.3827,-2.71909,2024-05-28 12:20:00,16.0,36.0,1,,15.0,1010.0,2778.9427395337725,15.0,12.0,230.0,10000.0,99999,,0.0,0,11160023121015020150301004778951000600007160080000
3700,EGHH,50.78,-1.8425,2024-05-28 12:20:00,,,,,15.0,1013.0,1102.298185966033,14.0,15.0,230.0,10000.0,99999,,0.0,0,11160023151015020140301304102251000600007000080000
3701,EGHI,50.9503,-1.3568,2024-05-28 12:20:00,,,,,16.0,1013.0,1110.0824399044016,13.0,13.0,220.0,10000.0,99999,,0.0,0,11160022131016020130301304110051000600007000080000
3702,EGJB,49.435,-2.60197,2024-05-28 12:20:00,16.0,36.0,1,,14.0,1016.0,1976.5349799112394,13.0,15.0,230.0,10000.0,99999,,0.0,0,11160023151014020130301604976551000600007160080000
3705,EGKK,51.1481,-0.19028,2024-05-28 12:20:00,,,,,16.0,1012.0,1486.1992590321568,15.0,13.0,220.0,10000.0,99999,,0.0,0,11160022131016020150301204486151000600007000080000
3706,EGLF,51.2758,-0.77633,2024-05-28 12:20:00,,,,,17.0,1012.0,1542.0097265429995,14.0,15.0,230.0,10000.0,99999,,0.0,0,11160023151017020140301204542051000600007000080000
3707,EGLL,51.4706,-0.46194,2024-05-28 12:20:00,,,,,18.0,1011.0,1175.5501306405524,14.0,14.0,220.0,10000.0,99999,,0.0,0,11160022141018020140301104175551000600007000080000
3708,EGMC,51.5714,0.69556,2024-05-28 12:20:00,80.0,36.0,q,green,17.0,1012.0,1113.7481887940646,15.0,12.0,200.0,7000.0,99999,,0.0,0,11140020121017020150301204113751000600007800080000
3710,EGNH,53.7717,-3.02861,2024-05-28 12:20:00,80.0,36.0,q,green,16.0,1006.0,1080.1739069832818,15.0,12.0,200.0,3000.0,99999,,0.0,0,11110020121016020150300604080151000600007800080000
3712,EGNM,53.8659,-1.66057,2024-05-28 12:20:00,,,,,13.0,1007.0,3309.7925979232596,13.0,12.0,140.0,4000.0,99999,,0.0,0,11120014121013020130300704309751000600007000080000
3713,EGNS,54.0833,-4.62389,2024-05-28 12:20:00,,,,,13.0,1004.0,1145.1679078382892,13.0,7.0,250.0,10000.0,99999,,0.0,0,11160025071013020130300404145151000600007000080000
3725,EGTE,50.7344,-3.41389,2024-05-28 12:20:00,,,,,17.0,1011.0,1227.1018711566703,14.0,14.0,220.0,10000.0,99999,,0.0,0,11160022141017020140301104227151000600007000080000
3728,EGAE,55.0428,-7.16111,2024-05-28 12:20:00,16.0,36.0,1,,17.0,1002.0,1046.7270376524932,13.0,18.0,240.0,10000.0,99999,,0.0,0,11160024181017020130300204046751000600007160080000
3732,EGHE,49.9133,-6.29167,2024-05-28 12:20:00,,,,,15.0,1012.0,1293.9496031730926,14.0,17.0,240.0,10000.0,99999,,0.0,0,11160024171015020140301204293951000600007000080000
3733,EGJA,49.7061,-2.21472,2024-05-28 12:20:00,,,,,15.0,1015.0,1770.501354427896,13.0,19.0,230.0,10000.0,99999,,0.0,0,11160023191015020130301504770551000600007000080000
3736,EGPC,58.4589,-3.09306,2024-05-28 12:20:00,,,,,14.0,1006.0,1334.7947234609562,11.0,8.0,120.0,10000.0,99999,,0.0,0,11160012081014020110300604334751000600007000080000
3738,EGPF,55.8719,-4.43306,2024-05-28 12:20:00,61.0,36.0,^,green,13.0,1005.0,1074.6797868393191,12.0,10.0,90.0,9000.0,99999,,0.0,0,11150009101013020120300504074651000600007610080000
3740,EGPN,56.4525,-3.02583,2024-05-28 12:20:00,,,,,14.0,1006.0,1048.111329915154,9.0,8.0,100.0,10000.0,99999,,0.0,0,1116001008101402090300604048151000600007000080000
3743,EGSS,51.885,0.235,2024-05-28 12:20:00,61.0,36.0,^,green,16.0,1011.0,1867.9046947331797,15.0,10.0,180.0,6000.0,99999,,0.0,0,11130018101016020150301104867951000600007610080000
3744,EGTC,52.0722,-0.61667,2024-05-28 12:20:00,,,,,17.0,1010.0,1836.0334957930597,15.0,13.0,210.0,10000.0,99999,,0.0,0,11160021131017020150301004836051000600007000080000
3751,EDGS,50.7077,8.08297,2024-05-28 12:20:00,,,,,12.0,1019.0,9.071790943094776,6.0,7.0,210.0,10000.0,99999,,0.0,0,11160021071012020603019049051000600007000080000
3752,EDLV,51.6024,6.14217,2024-05-28 12:20:00,,,,,19.0,1017.0,1218.568703882992,10.0,8.0,200.0,10000.0,99999,,0.0,0,11160020081019020100301704218551000600007000080000
3755,EGNR,53.1781,-2.97778,2024-05-28 12:20:00,61.0,36.0,^,green,19.0,1006.0,1088.8124062322738,14.0,10.0,220.0,10000.0,99999,,0.0,0,11160022101019020140300604088851000600007610080000
3763,ESMQ,56.6855,16.2876,2024-05-28 12:20:00,,,,,21.0,1014.0,1042.215114418272,14.0,12.0,180.0,10000.0,99999,,0.0,0,11160018121021020140301404042251000600007000080000
3764,ESMT,56.6911,12.8202,2024-05-28 12:20:00,,,,,21.0,1011.0,1182.8598972873108,14.0,10.0,170.0,10000.0,99999,,0.0,0,11160017101021020140301104182851000600007000080000
3765,ESNG,67.1324,20.8146,2024-05-28 12:20:00,17.0,36.0,2,red,23.0,1011.0,2937.597514222785,10.0,11.0,180.0,10000.0,99999,,0.0,0,11160018111023020100301104937551000600007170080000
3766,ESNK,63.0486,17.7689,2024-05-28 12:20:00,,,,,25.0,1014.0,1061.5894159236336,12.0,11.0,170.0,10000.0,99999,,0.0,0,11160017111025020120301404061551000600007000080000
3768,ESNX,65.5903,19.2819,2024-05-28 12:20:00,,,,,23.0,1013.0,3417.8529104443223,10.0,10.0,230.0,10000.0,99999,,0.0,0,11160023101023020100301304417851000600007000080000
3771,ESTA,56.2961,12.8471,2024-05-28 12:20:00,,,,,19.0,1012.0,1138.9482260681552,14.0,14.0,180.0,10000.0,99999,,0.0,0,11160018141019020140301204138951000600007000080000
3772,ESTL,56.0828,13.2125,2024-05-28 12:20:00,,,,,19.0,1013.0,1281.284863229501,14.0,10.0,170.0,10000.0,99999,,0.0,0,11160017101019020140301304281251000600007000080000
3773,ESUT,65.8061,15.0828,2024-05-28 12:20:00,,,,,18.0,1014.0,4946.07707225668,10.0,9.0,270.0,10000.0,99999,,0.0,0,11160027091018020100301404946051000600007000080000
3774,LGPA,37.0103,25.1281,2024-05-28 12:20:00,,,,,24.0,1014.0,1210.4719838227625,11.0,9.0,330.0,10000.0,99999,,0.0,0,11160033091024020110301404210451000600007000080000
3775,LIMZ,44.547,7.62322,2024-05-28 12:20:00,,,,,22.0,1016.0,3604.669351029346,13.0,4.0,40.0,10000.0,99999,,0.0,0,11160004041022020130301604604651000600007000080000
3776,LOXZ,47.2028,14.7442,2024-05-28 12:20:00,80.0,36.0,q,green,14.0,1019.0,8818.075806559313,11.0,2.0,,10000.0,99999,,0.0,0,11160036021014020110301904818051000600007800080000
3780,EGGP,53.3336,-2.84972,2024-05-28 12:20:00,,,,,17.0,1006.0,1173.208268859967,15.0,10.0,200.0,10000.0,99999,,0.0,0,11160020101017020150300604173251000600007000080000
3781,EGGW,51.8747,-0.36833,2024-05-28 12:20:00,,,,,16.0,1011.0,2371.4311532488637,16.0,11.0,210.0,9000.0,99999,,0.0,0,11150021111016020160301104371451000600007000080000
3782,EGKA,50.8356,-0.29722,2024-05-28 12:20:00,,,,,15.0,1013.0,1029.2087998482239,14.0,19.0,240.0,9000.0,99999,,0.0,0,11150024191015020140301304029251000600007000080000
3783,EGKB,51.3308,0.0325,2024-05-28 12:20:00,,,,,16.0,1012.0,2586.8674520185295,14.0,12.0,220.0,10000.0,99999,,0.0,0,11160022121016020140301204586851000600007000080000
3784,EGLC,51.5053,0.05528,2024-05-28 12:20:00,,,,,18.0,1011.0,1047.7465899715862,15.0,10.0,200.0,10000.0,99999,,0.0,0,11160020101018020150301104047751000600007000080000
3785,EGMD,50.9561,0.93917,2024-05-28 12:20:00,10.0,36.0,+,yellow,15.0,1014.0,1044.2192415130512,14.0,18.0,230.0,2000.0,99999,,0.0,0,11110023181015020140301404044251000600007100080000
3786,EGNJ,53.5744,-0.35083,2024-05-28 12:20:00,,,,,16.0,1009.0,1283.6046601281687,13.0,12.0,170.0,10000.0,99999,,0.0,0,11160017121016020130300904283651000600007000080000
3788,EGNV,54.5092,-1.42941,2024-05-28 12:20:00,61.0,36.0,^,green,14.0,1007.0,1319.611815533616,11.0,10.0,170.0,10000.0,99999,,0.0,0,11160017101014020110300704319651000600007610080000
3789,EGNX,52.8311,-1.32806,2024-05-28 12:20:00,16.0,36.0,1,,16.0,1008.0,1749.4122058777739,15.0,11.0,190.0,10000.0,99999,,0.0,0,11160019111016020150300804749451000600007160080000
3793,EGPE,57.5425,-4.0475,2024-05-28 12:20:00,,,,,17.0,1004.0,1067.3890663935663,9.0,1.0,,10000.0,99999,,0.0,0,1116003601101702090300404067351000600007000080000
3794,EGPL,57.4811,-7.36278,2024-05-28 12:20:00,16.0,36.0,1,,13.0,1003.0,1053.6244056743767,11.0,14.0,160.0,10000.0,99999,,0.0,0,11160016141013020110300304053651000600007160080000
3829,ESDF,56.2667,15.265,2024-05-28 12:20:00,,,,,20.0,1013.0,1365.5124719814953,13.0,12.0,170.0,10000.0,99999,,0.0,0,11160017121020020130301304365551000600007000080000
3830,ESGT,58.3181,12.345,2024-05-28 12:20:00,,,,,18.0,1012.0,1289.2775063791137,15.0,9.0,360.0,10000.0,99999,,0.0,0,11160036091018020150301204289251000600007000080000
3831,ESKM,60.9579,14.5114,2024-05-28 12:20:00,,,,,20.0,1015.0,2325.8072511264318,13.0,8.0,100.0,10000.0,99999,,0.0,0,11160010081020020130301504325851000600007000080000
3832,ESKN,58.7886,16.9122,2024-05-28 12:20:00,,,,,23.0,1015.0,1235.226873098464,11.0,10.0,110.0,10000.0,99999,,0.0,0,11160011101023020110301504235251000600007000080000
3833,ESMK,55.9217,14.0855,2024-05-28 12:20:00,,,,,21.0,1013.0,1141.532856552718,16.0,7.0,150.0,10000.0,99999,,0.0,0,11160015071021020160301304141551000600007000080000
3834,ESMS,55.53631,13.3762,2024-05-28 12:20:00,,,,,16.0,1014.0,1575.872086272822,13.0,14.0,210.0,10000.0,99999,,0.0,0,11160021141016020130301404575851000600007000080000
3835,ESNN,62.5281,17.4439,2024-05-28 12:20:00,,,,,20.0,1015.0,1042.9087487306276,12.0,14.0,140.0,10000.0,99999,,0.0,0,11160014141020020120301504042951000600007000080000
3836,ESNO,63.4083,18.99,2024-05-28 12:20:00,,,,,22.0,1015.0,1633.1110908921944,9.0,13.0,190.0,10000.0,99999,,0.0,0,1116001913102202090301504633151000600007000080000
3837,ESNQ,67.822,20.3368,2024-05-28 12:20:00,,,,,22.0,1011.0,4150.93101125509,8.0,5.0,30.0,10000.0,99999,,0.0,0,1116000305102202080301104150951000600007000080000
3838,ESNS,64.6248,21.0769,2024-05-28 12:20:00,,,,,26.0,1013.0,1230.9724421533426,10.0,11.0,200.0,10000.0,99999,,0.0,0,11160020111026020100301304230951000600007000080000
3839,ESOE,59.2237,15.038,2024-05-28 12:20:00,,,,,22.0,1015.0,1329.0893560476409,15.0,7.0,100.0,10000.0,99999,,0.0,0,11160010071022020150301504329051000600007000080000
3840,ESOK,59.4447,13.3374,2024-05-28 12:20:00,,,,,22.0,1014.0,1627.709144779111,13.0,7.0,140.0,10000.0,99999,,0.0,0,11160014071022020130301404627751000600007000080000
3841,ESSD,60.422,15.5152,2024-05-28 12:20:00,,,,,21.0,1015.0,1972.4714651729855,15.0,4.0,90.0,10000.0,99999,,0.0,0,11160009041021020150301504972451000600007000080000
3842,ESSL,58.4062,15.6805,2024-05-28 12:20:00,,,,,25.0,1014.0,1263.9617152019537,14.0,6.0,80.0,10000.0,99999,,0.0,0,11160008061025020140301404263951000600007000080000
3843,ESSP,58.5863,16.2506,2024-05-28 12:20:00,,,,,26.0,1014.0,1057.0274916040705,13.0,8.0,110.0,10000.0,99999,,0.0,0,11160011081026020130301404057051000600007000080000
3846,EGAA,54.6575,-6.21583,2024-05-28 12:20:00,,,,,15.0,1003.0,1687.6937910184286,14.0,12.0,250.0,6000.0,99999,,0.0,0,11130025121015020140300304687651000600007000080000
3847,EGAC,54.6181,-5.8725,2024-05-28 12:20:00,,,,,18.0,1002.0,1030.7061818143889,15.0,8.0,210.0,10000.0,99999,,0.0,0,11160021081018020150300204030751000600007000080000
3848,EGNT,55.0375,-1.69167,2024-05-28 12:20:00,61.0,36.0,^,green,14.0,1007.0,1742.3619028858898,12.0,6.0,180.0,10000.0,99999,,0.0,0,11160018061014020120300704742351000600007610080000
3849,EGPA,58.9578,-2.905,2024-05-28 12:20:00,,,,,14.0,1007.0,1133.0491193805856,10.0,10.0,120.0,10000.0,99999,,0.0,0,11160012101014020100300704133051000600007000080000
3854,ENHK,70.4867,22.1397,2024-05-28 12:20:00,,,,,10.0,1013.0,1086.798299329157,7.0,3.0,300.0,10000.0,99999,,0.0,0,1116003003101002070301304086751000600007000080000
3855,ENSO,59.7919,5.34085,2024-05-28 12:20:00,,,,,15.0,1013.0,1409.4179234569915,9.0,9.0,160.0,10000.0,99999,,0.0,0,1116001609101502090301304409451000600007000080000
3856,ENSS,70.3554,31.0449,2024-05-28 12:20:00,,,,,3.0,1019.0,1552.6758017265975,1.0,22.0,120.0,10000.0,99999,,0.0,0,1116001222100302010301904552651000600007000080000
3857,ENST,65.9568,12.4689,2024-05-28 12:20:00,16.0,36.0,1,,15.0,1014.0,1146.8267446575958,12.0,19.0,190.0,10000.0,99999,,0.0,0,11160019191015020120301404146851000600007160080000
3858,LGIR,35.3397,25.1803,2024-05-28 12:20:00,,,,,24.0,1015.0,1186.87861939506,11.0,10.0,300.0,10000.0,99999,,0.0,0,11160030101024020110301504186851000600007000080000
3859,LGKR,39.6019,19.9117,2024-05-28 12:20:00,,,,,26.0,1014.0,1022.00946955114,16.0,10.0,260.0,10000.0,99999,,0.0,0,11160026101026020160301404022051000600007000080000
3860,LGKV,40.9133,24.6192,2024-05-28 12:20:00,,,,,22.0,1013.0,1041.490539883325,13.0,6.0,230.0,10000.0,99999,,0.0,0,11160023061022020130301304041451000600007000080000
3861,LGLM,39.9171,25.2363,2024-05-28 12:20:00,,,,,24.0,1013.0,1033.2781810172883,8.0,5.0,210.0,10000.0,99999,,0.0,0,1116002105102402080301304033251000600007000080000
3862,LGRP,36.4054,28.0862,2024-05-28 12:20:00,,,,,25.0,1010.0,1033.5850860734881,15.0,17.0,240.0,10000.0,99999,,0.0,0,11160024171025020150301004033551000600007000080000
3863,LGSA,35.5317,24.1497,2024-05-28 12:20:00,,,,,25.0,1014.0,1780.211513153381,13.0,3.0,,10000.0,99999,,0.0,0,11160036031025020130301404780251000600007000080000
3864,LOWK,46.6425,14.3377,2024-05-28 12:20:00,,,,,17.0,1018.0,5122.277627630133,11.0,9.0,250.0,10000.0,99999,,0.0,0,11160025091017020110301804122251000600007000080000
3868,ENHV,71.0097,25.9836,2024-05-28 12:20:00,,,,,7.0,1015.0,1242.7141400325172,3.0,11.0,140.0,10000.0,99999,,0.0,0,1116001411100702030301504242751000600007000080000
3869,ENLK,68.1525,13.6094,2024-05-28 12:20:00,,,,,18.0,1012.0,1166.500105394741,11.0,9.0,170.0,10000.0,99999,,0.0,0,11160017091018020110301204166551000600007000080000
3870,ENMS,65.784,13.2149,2024-05-28 12:20:00,,,,,19.0,1013.0,1481.5659359455994,11.0,9.0,250.0,10000.0,99999,,0.0,0,11160025091019020110301304481551000600007000080000
3871,ENRM,64.8383,11.1461,2024-05-28 12:20:00,51.0,36.0,T,green,13.0,1016.0,1053.6816526433015,13.0,9.0,210.0,10000.0,99999,,0.0,0,11160021091013020130301604053651000600007510080000
3872,ENRS,67.5278,12.1033,2024-05-28 12:20:00,,,,,13.0,1012.0,1030.6937514222834,11.0,8.0,180.0,10000.0,99999,,0.0,0,11160018081013020110301204030651000600007000080000
3873,ENSK,68.57883,15.03342,2024-05-28 12:20:00,,,,,18.0,1011.0,1032.2061400237103,11.0,8.0,240.0,10000.0,99999,,0.0,0,11160024081018020110301104032251000600007000080000
3874,ENSR,69.7868,20.9594,2024-05-28 12:20:00,,,,,17.0,1011.0,1043.7377788536503,9.0,10.0,340.0,10000.0,99999,,0.0,0,1116003410101702090301104043751000600007000080000
3875,ENVD,70.0653,29.8447,2024-05-28 12:20:00,51.0,36.0,T,green,3.0,1017.0,2840.685694354168,2.0,17.0,70.0,8000.0,99999,,0.0,0,1114000717100302020301704840651000600007510080000
3876,LGAD,37.9207,21.2926,2024-05-28 12:20:00,,,,,26.0,1014.0,1088.4204118490359,11.0,10.0,290.0,10000.0,99999,,0.0,0,11160029101026020110301404088451000600007000080000
3877,LGKL,37.0683,22.0255,2024-05-28 12:20:00,,,,,26.0,1014.0,1048.9018986207736,13.0,12.0,160.0,10000.0,99999,,0.0,0,11160016121026020130301404048951000600007000080000
3878,LGKO,36.7933,27.0917,2024-05-28 12:20:00,,,,,25.0,1012.0,1644.5207846676499,10.0,15.0,310.0,10000.0,99999,,0.0,0,11160031151025020100301204644551000600007000080000
3879,LGMT,39.0567,26.5983,2024-05-28 12:20:00,,,,,26.0,1013.0,1094.2157927851429,12.0,7.0,340.0,10000.0,99999,,0.0,0,11160034071026020120301304094251000600007000080000
3880,LGSM,37.69,26.9117,2024-05-28 12:20:00,,,,,27.0,1011.0,1035.4355848008263,8.0,16.0,350.0,10000.0,99999,,0.0,0,1116003516102702080301104035451000600007000080000
3881,LGSR,36.3992,25.4793,2024-05-28 12:20:00,,,,,25.0,1014.0,1196.3937676649252,11.0,15.0,340.0,10000.0,99999,,0.0,0,11160034151025020110301404196351000600007000080000
3882,LGTS,40.5197,22.9709,2024-05-28 12:20:00,,,,,25.0,1013.0,1043.6568432472002,10.0,13.0,180.0,10000.0,99999,,0.0,0,11160018131025020100301304043651000600007000080000
3883,LIBP,42.4317,14.1811,2024-05-28 12:20:00,95.0,36.0,2,red,22.0,1015.0,1091.8692882817734,16.0,5.0,50.0,10000.0,99999,,0.0,0,11160005051022020160301504091851000600007950080000
3884,LIBR,40.6576,17.947,2024-05-28 12:20:00,,,,,21.0,1014.0,1092.8055790791054,16.0,6.0,170.0,10000.0,99999,,0.0,0,11160017061021020160301404092851000600007000080000
3885,LICJ,38.176,13.091,2024-05-28 12:20:00,,,,,23.0,1015.0,1115.018525651698,17.0,13.0,30.0,10000.0,99999,,0.0,0,11160003131023020170301504115051000600007000080000
3886,LICR,38.0712,15.6516,2024-05-28 12:20:00,,,,,28.0,1015.0,1136.8486592452796,4.0,11.0,360.0,10000.0,99999,,0.0,0,1116003611102802040301504136851000600007000080000
3887,LIPE,44.5354,11.2887,2024-05-28 12:20:00,,,,,20.0,1015.0,1237.5997864113394,16.0,9.0,40.0,10000.0,99999,,0.0,0,11160004091020020160301504237551000600007000080000
3888,LIPQ,45.8275,13.4722,2024-05-28 12:20:00,,,,,24.0,1013.0,1069.9138329217135,15.0,5.0,240.0,10000.0,99999,,0.0,0,11160024051024020150301304069951000600007000080000
3889,LIPR,44.0203,12.6117,2024-05-28 12:20:00,,,,,21.0,1014.0,1080.9108642508495,18.0,8.0,30.0,8000.0,99999,,0.0,0,11140003081021020180301404080951000600007000080000
3890,LIPY,43.6163,13.3623,2024-05-28 12:20:00,,,,,22.0,1014.0,1092.4185308967649,17.0,8.0,30.0,10000.0,99999,,0.0,0,11160003081022020170301404092451000600007000080000
3891,LIPZ,45.5053,12.3519,2024-05-28 12:20:00,,,,,21.0,1014.0,1025.5778964320552,17.0,3.0,130.0,10000.0,99999,,0.0,0,11160013031021020170301404025551000600007000080000
3892,LIRZ,43.0959,12.5132,2024-05-28 12:20:00,,,,,24.0,1014.0,2200.507978950503,13.0,4.0,240.0,10000.0,99999,,0.0,0,11160024041024020130301404200551000600007000080000
3897,ENBS,70.6005,29.6914,2024-05-28 12:20:00,61.0,36.0,^,green,2.0,1017.0,12.608454753146862,2.0,16.0,120.0,10000.0,99999,,0.0,0,111600121610020202030170412651000600007610080000
3898,ENMH,71.0297,27.8267,2024-05-28 12:20:00,,,,,5.0,1016.0,1301.6253144198681,2.0,8.0,130.0,10000.0,99999,,0.0,0,1116001308100502020301604301651000600007000080000
3899,ENNM,64.4722,11.5786,2024-05-28 12:20:00,80.0,36.0,q,green,16.0,1015.0,1030.22252091538,13.0,5.0,240.0,10000.0,99999,,0.0,0,11160024051016020130301504030251000600007800080000
3900,ENNO,59.5657,9.21222,2024-05-28 12:20:00,,,,,20.0,1013.0,1124.5131014546334,11.0,5.0,90.0,10000.0,99999,,0.0,0,11160009051020020110301304124551000600007000080000
3901,ENOV,62.18,6.0741,2024-05-28 12:20:00,,,,,19.0,1013.0,1494.3107646126384,8.0,5.0,60.0,10000.0,99999,,0.0,0,1116000605101902080301304494351000600007000080000
3902,ENSD,61.83,6.10583,2024-05-28 12:20:00,,,,,17.0,1013.0,1443.6971396633762,8.0,3.0,,10000.0,99999,,0.0,0,1116003603101702080301304443651000600007000080000
3903,ENSG,61.1561,7.13778,2024-05-28 12:20:00,,,,,16.0,1013.0,1013.0,3.0,7.0,240.0,10000.0,99999,,0.0,0,1116002407101602030301304013051000600007000080000
3904,LGAL,40.8559,25.9563,2024-05-28 12:20:00,,,,,23.0,1014.0,1050.43077482005,10.0,9.0,230.0,10000.0,99999,,0.0,0,11160023091023020100301404050451000600007000080000
3905,LGEL,38.0638,23.556,2024-05-28 12:20:00,,,,,27.0,1013.0,1203.2464652601752,7.0,12.0,160.0,10000.0,99999,,0.0,0,1116001612102702070301304203251000600007000080000
3906,LGPZ,38.9255,20.7653,2024-05-28 12:20:00,,,,,25.0,1014.0,1029.294701733289,17.0,14.0,280.0,10000.0,99999,,0.0,0,11160028141025020170301404029251000600007000080000
3907,LGRX,38.1511,21.4256,2024-05-28 12:20:00,,,,,25.0,1014.0,1078.606228898364,13.0,5.0,260.0,10000.0,99999,,0.0,0,11160026051025020130301404078651000600007000080000
3908,LIBD,41.1389,16.7606,2024-05-28 12:20:00,,,,,23.0,1013.0,1293.7856710066312,15.0,11.0,70.0,10000.0,99999,,0.0,0,11160007111023020150301304293751000600007000080000
3909,LICC,37.4668,15.0664,2024-05-28 12:20:00,,,,,24.0,1015.0,1072.0261998179064,15.0,11.0,100.0,10000.0,99999,,0.0,0,11160010111024020150301504072051000600007000080000
3910,LIPH,45.6484,12.1944,2024-05-28 12:20:00,,,,,22.0,1014.0,1108.7238072845116,15.0,3.0,360.0,10000.0,99999,,0.0,0,11160036031022020150301404108751000600007000080000
3911,LOWG,46.9911,15.4396,2024-05-28 12:20:00,,,,,17.0,1017.0,4021.489217923043,14.0,6.0,360.0,10000.0,99999,,0.0,0,11160036061017020140301704021451000600007000080000
3912,LOWI,47.2602,11.344,2024-05-28 12:20:00,,,,,15.0,1020.0,7254.223723300031,10.0,4.0,300.0,10000.0,99999,,0.0,0,11160030041015020100302004254251000600007000080000
3913,LOWL,48.2332,14.1875,2024-05-28 12:20:00,,,,,14.0,1020.0,4256.597310480489,13.0,10.0,270.0,10000.0,99999,,0.0,0,11160027101014020130302004256551000600007000080000
3914,LOWS,47.7933,13.0043,2024-05-28 12:20:00,61.0,36.0,^,green,14.0,1022.0,5899.390442305973,10.0,2.0,,10000.0,99999,,0.0,0,11160036021014020100302204899351000600007610080000
3915,LOWW,48.1103,16.5697,2024-05-28 12:20:00,,,,,22.0,1016.0,2123.8992909349913,13.0,18.0,300.0,10000.0,99999,,0.0,0,11160030181022020130301604123851000600007000080000
3921,EDDE,50.9798,10.9581,2024-05-28 12:20:00,80.0,36.0,q,green,15.0,1019.0,4211.043030768309,8.0,10.0,280.0,10000.0,99999,,0.0,0,1116002810101502080301904211051000600007800080000
3924,EDDH,53.6304,9.98823,2024-05-28 12:20:00,,,,,17.0,1016.0,1126.6698260428952,10.0,8.0,300.0,10000.0,99999,,0.0,0,11160030081017020100301604126651000600007000080000
3926,EDDL,51.2895,6.76678,2024-05-28 12:20:00,,,,,18.0,1017.0,1317.0425774666344,10.0,8.0,240.0,10000.0,99999,,0.0,0,11160024081018020100301704317051000600007000080000
3928,EDDN,49.4987,11.0669,2024-05-28 12:20:00,,,,,17.0,1020.0,3822.286545268783,6.0,10.0,270.0,10000.0,99999,,0.0,0,1116002710101702060302004822251000600007000080000
3932,EDDV,52.4611,9.68508,2024-05-28 12:20:00,80.0,36.0,q,green,16.0,1017.0,1445.7167900570207,9.0,7.0,240.0,10000.0,99999,,0.0,0,1116002407101602090301704445751000600007800080000
3945,EBCI,50.4592,4.45382,2024-05-28 12:20:00,61.0,36.0,^,green,14.0,1018.0,2918.5856169619833,11.0,12.0,210.0,10000.0,99999,,0.0,0,11160021121014020110301804918551000600007610080000
3946,EBLG,50.6374,5.44322,2024-05-28 12:20:00,,,,,17.0,1017.0,2666.69930745036,8.0,12.0,210.0,10000.0,99999,,0.0,0,1116002112101702080301704666651000600007000080000
3949,EDDB,52.36217,13.50067,2024-05-28 12:20:00,,,,,16.0,1018.0,1380.1158606920887,13.0,10.0,260.0,10000.0,99999,,0.0,0,11160026101016020130301804380151000600007000080000
3950,EDDC,51.1328,13.7672,2024-05-28 12:20:00,,,,,15.0,1018.0,3242.1509916426853,12.0,3.0,330.0,10000.0,99999,,0.0,0,11160033031015020120301804242151000600007000080000
3951,EDDF,50.0264,8.54313,2024-05-28 12:20:00,,,,,18.0,1019.0,1815.9443091194873,6.0,9.0,230.0,10000.0,99999,,0.0,0,1116002309101802060301904815951000600007000080000
3952,EDDG,52.1346,7.68483,2024-05-28 12:20:00,,,,,18.0,1017.0,1345.0594090750599,6.0,9.0,210.0,10000.0,99999,,0.0,0,1116002109101802060301704345051000600007000080000
3953,EDDK,50.8659,7.14274,2024-05-28 12:20:00,16.0,36.0,1,,18.0,1018.0,1666.8087860539647,9.0,7.0,210.0,10000.0,99999,,0.0,0,1116002107101802090301804666851000600007160080000
3954,EDDM,48.3538,11.7861,2024-05-28 12:20:00,,,,,16.0,1021.0,5479.42372477488,8.0,9.0,260.0,10000.0,99999,,0.0,0,1116002609101602080302104479451000600007000080000
3955,EDDP,51.4324,12.2416,2024-05-28 12:20:00,80.0,36.0,q,green,17.0,1018.0,2131.738930991422,12.0,5.0,20.0,10000.0,99999,,0.0,0,11160002051017020120301804131751000600007800080000
3956,EDDR,49.2146,7.10951,2024-05-28 12:20:00,,,,,17.0,1020.0,3858.897640554989,6.0,9.0,230.0,10000.0,99999,,0.0,0,1116002309101702060302004858851000600007000080000
3957,EDDS,48.6899,9.22196,2024-05-28 12:20:00,,,,,18.0,1020.0,4310.7124542619895,7.0,5.0,,10000.0,99999,,0.0,0,1116003605101802070302004310751000600007000080000
3958,EDDW,53.0475,8.78667,2024-05-28 12:20:00,,,,,18.0,1016.0,1043.1558745239388,9.0,8.0,230.0,10000.0,99999,,0.0,0,1116002308101802090301604043151000600007000080000
3977,ENAT,69.9761,23.3717,2024-05-28 12:20:00,,,,,15.0,1013.0,1033.8600803534655,8.0,10.0,150.0,10000.0,99999,,0.0,0,1116001510101502080301304033851000600007000080000
3978,ENKB,63.1118,7.82452,2024-05-28 12:20:00,,,,,14.0,1014.0,1568.515457351111,10.0,5.0,350.0,10000.0,99999,,0.0,0,11160035051014020100301404568551000600007000080000
3979,ENKR,69.7258,29.8913,2024-05-28 12:20:00,,,,,6.0,1016.0,3077.045544520026,3.0,11.0,100.0,10000.0,99999,,0.0,0,1116001011100602030301604077051000600007000080000
3980,ENNA,70.0688,24.9735,2024-05-28 12:20:00,,,,,12.0,1014.0,1087.276248584585,6.0,17.0,170.0,10000.0,99999,,0.0,0,1116001717101202060301404087251000600007000080000
3981,LGBL,39.2196,22.7943,2024-05-28 12:20:00,,,,,26.0,1012.0,1124.9323423206406,13.0,12.0,100.0,10000.0,99999,,0.0,0,11160010121026020130301204124951000600007000080000
3982,LGKP,35.4214,27.146,2024-05-28 12:20:00,,,,,24.0,1013.0,1110.0824399044016,19.0,28.0,280.0,10000.0,99999,,0.0,0,11160028281024020190301304110051000600007000080000
3983,LICA,38.9054,16.2423,2024-05-28 12:20:00,,,,,23.0,1015.0,1074.5355254090368,17.0,11.0,240.0,10000.0,99999,,0.0,0,11160024111023020170301504074551000600007000080000
3984,LICD,35.4979,12.6181,2024-05-28 12:20:00,,,,,22.0,1016.0,1128.9979650012174,19.0,7.0,190.0,10000.0,99999,,0.0,0,11160019071022020190301604128951000600007000080000
3985,LIME,45.6739,9.70417,2024-05-28 12:20:00,,,,,23.0,1015.0,2433.7992124110733,15.0,6.0,160.0,10000.0,99999,,0.0,0,11160016061023020150301504433751000600007000080000
3986,LIMF,45.2008,7.64963,2024-05-28 12:20:00,,,,,24.0,1015.0,2780.089251494743,10.0,5.0,130.0,10000.0,99999,,0.0,0,11160013051024020100301504780051000600007000080000
3987,LIMJ,44.4133,8.8375,2024-05-28 12:20:00,,,,,21.0,1015.0,1036.5677772798333,16.0,4.0,190.0,10000.0,99999,,0.0,0,11160019041021020160301504036551000600007000080000
3988,LIPX,45.3957,10.8885,2024-05-28 12:20:00,,,,,22.0,1015.0,1420.0149113328205,15.0,3.0,120.0,10000.0,99999,,0.0,0,11160012031022020150301504420051000600007000080000
3989,LIRF,41.8045,12.2508,2024-05-28 12:20:00,,,,,24.0,1014.0,1035.7546455247682,17.0,10.0,230.0,10000.0,99999,,0.0,0,11160023101024020170301404035751000600007000080000
3992,EBAW,51.1894,4.46028,2024-05-28 12:20:00,,,,,18.0,1016.0,1092.4025199952553,9.0,11.0,190.0,10000.0,99999,,0.0,0,1116001911101802090301604092451000600007000080000
3994,EGPD,57.2019,-2.19778,2024-05-28 12:20:00,,,,,14.0,1007.0,1589.9239448023643,9.0,15.0,160.0,10000.0,99999,,0.0,0,1116001615101402090300704589951000600007000080000
3995,EGPH,55.95,-3.3725,2024-05-28 12:20:00,61.0,36.0,^,green,14.0,1005.0,1358.3307209580482,11.0,7.0,90.0,10000.0,99999,,0.0,0,11160009071014020110300504358351000600007610080000
3996,EGPK,55.5094,-4.58667,2024-05-28 12:20:00,61.0,36.0,^,green,13.0,1004.0,1181.6559157552933,12.0,13.0,140.0,10000.0,99999,,0.0,0,11160014131013020120300404181651000600007610080000
3997,EGPO,58.2156,-6.33111,2024-05-28 12:20:00,,,,,16.0,1004.0,1060.4081818888453,9.0,6.0,130.0,10000.0,99999,,0.0,0,1116001306101602090300404060451000600007000080000
3998,EKAH,56.3,10.619,2024-05-28 12:20:00,63.0,36.0,',green,14.0,1012.0,1222.9668610989281,13.0,8.0,240.0,3500.0,99999,,0.0,0,11120024081014020130301204222951000600007630080000
3999,EKKA,56.2975,9.12463,2024-05-28 12:20:00,,,,,13.0,1014.0,1507.4331590448605,11.0,11.0,270.0,10000.0,99999,,0.0,0,11160027111013020110301404507451000600007000080000
4001,ENAN,69.2925,16.1442,2024-05-28 12:20:00,,,,,13.0,1012.0,1129.1075936137338,8.0,6.0,40.0,10000.0,99999,,0.0,0,1116000406101302080301204129151000600007000080000
4002,ENBO,67.2692,14.3653,2024-05-28 12:20:00,,,,,19.0,1013.0,1090.7429925046772,11.0,6.0,290.0,10000.0,99999,,0.0,0,11160029061019020110301304090751000600007000080000
4003,ENGM,60.1939,11.1004,2024-05-28 12:20:00,,,,,21.0,1014.0,2357.5487887180802,9.0,2.0,,10000.0,99999,,0.0,0,1116003602102102090301404357551000600007000080000
4004,ENOL,63.6989,9.604,2024-05-28 12:20:00,,,,,18.0,1015.0,1069.5621777697836,12.0,7.0,330.0,10000.0,99999,,0.0,0,11160033071018020120301504069551000600007000080000
4006,ENTC,69.6833,18.9189,2024-05-28 12:20:00,,,,,19.0,1011.0,1068.0341031628295,9.0,5.0,280.0,10000.0,99999,,0.0,0,1116002805101902090301104068051000600007000080000
4018,ENBL,61.3911,5.75694,2024-05-28 12:20:00,,,,,15.0,1013.0,4220.939881631002,5.0,2.0,,10000.0,99999,,0.0,0,1116003602101502050301304220951000600007000080000
4019,ENBN,65.4611,12.2175,2024-05-28 12:20:00,,,,,14.0,1015.0,1077.737805634119,13.0,11.0,210.0,10000.0,99999,,0.0,0,11160021111014020130301504077751000600007000080000
4020,ENBV,70.8714,29.0342,2024-05-28 12:20:00,,,,,4.0,1018.0,1409.7556377861083,3.0,18.0,130.0,10000.0,99999,,0.0,0,1116001318100402030301804409751000600007000080000
4021,ENEV,68.4913,16.6781,2024-05-28 12:20:00,,,,,24.0,1011.0,1134.9579209910048,10.0,8.0,210.0,10000.0,99999,,0.0,0,11160021081024020100301104134951000600007000080000
4022,ENFL,61.5836,5.02472,2024-05-28 12:20:00,,,,,16.0,1014.0,1095.4680871492742,9.0,3.0,150.0,10000.0,99999,,0.0,0,1116001503101602090301404095451000600007000080000
4023,ENHF,70.6797,23.6686,2024-05-28 12:20:00,,,,,10.0,1013.0,2087.1669242373373,8.0,2.0,,10000.0,99999,,0.0,0,1116003602101002080301304087151000600007000080000
4024,ENML,62.7447,7.2625,2024-05-28 12:20:00,,,,,17.0,1013.0,1033.449313379295,12.0,8.0,360.0,10000.0,99999,,0.0,0,11160036081017020120301304033451000600007000080000
4025,ENRA,66.3639,14.3014,2024-05-28 12:20:00,,,,,21.0,1012.0,1417.4466018476687,11.0,10.0,330.0,10000.0,99999,,0.0,0,11160033101021020110301204417451000600007000080000
4026,ENSH,68.2433,14.6692,2024-05-28 12:20:00,,,,,19.0,1012.0,1061.649377328795,10.0,8.0,230.0,10000.0,99999,,0.0,0,11160023081019020100301204061651000600007000080000
4028,LGKF,38.1201,20.5005,2024-05-28 12:20:00,,,,,23.0,1015.0,1105.6208266029914,17.0,8.0,260.0,10000.0,99999,,0.0,0,11160026081023020170301504105651000600007000080000
4029,LGMK,37.4351,25.3481,2024-05-28 12:20:00,,,,,24.0,1014.0,1664.3439528262845,11.0,11.0,10.0,10000.0,99999,,0.0,0,11160001111024020110301404664351000600007000080000
4030,LIEA,40.6321,8.29077,2024-05-28 12:20:00,,,,,24.0,1016.0,1145.1308119354248,14.0,9.0,290.0,10000.0,99999,,0.0,0,11160029091024020140301604145151000600007000080000
4031,LIEE,39.2515,9.05428,2024-05-28 12:20:00,,,,,27.0,1014.0,1030.7416772621254,14.0,10.0,180.0,10000.0,99999,,0.0,0,11160018101027020140301404030751000600007000080000
4032,LIEO,40.8987,9.51763,2024-05-28 12:20:00,,,,,28.0,1014.0,1060.2269514133613,12.0,11.0,80.0,10000.0,99999,,0.0,0,11160008111028020120301404060251000600007000080000
4033,LIMC,45.6306,8.72811,2024-05-28 12:20:00,,,,,24.0,1015.0,2339.818395922779,14.0,6.0,190.0,10000.0,99999,,0.0,0,11160019061024020140301504339851000600007000080000
4034,LIML,45.4451,9.27674,2024-05-28 12:20:00,,,,,23.0,1015.0,1602.1682500382594,14.0,3.0,,10000.0,99999,,0.0,0,11160036031023020140301504602151000600007000080000
4035,LIRA,41.7994,12.5949,2024-05-28 12:20:00,,,,,24.0,1015.0,1704.7041618894032,14.0,9.0,210.0,10000.0,99999,,0.0,0,11160021091024020140301504704751000600007000080000
4036,LIRP,43.6839,10.3927,2024-05-28 12:15:00,,,,,23.0,1015.0,1024.0651045199359,17.0,8.0,270.0,10000.0,99999,,0.0,0,11160027081023020170301504024051000600007000080000
4037,LIRQ,43.81,11.2051,2024-05-28 12:20:00,,,,,26.0,1014.0,1210.5915336946202,13.0,6.0,280.0,10000.0,99999,,0.0,0,11160028061026020130301404210551000600007000080000
4038,EBBR,50.9014,4.48444,2024-05-28 12:20:00,61.0,36.0,^,green,15.0,1017.0,1479.0500862769989,11.0,14.0,210.0,10000.0,99999,,0.0,0,11160021141015020110301704479051000600007610080000
4039,EBOS,51.1989,2.86222,2024-05-28 12:20:00,,,,,14.0,1015.0,1047.4241706241264,13.0,11.0,190.0,7000.0,99999,,0.0,0,11140019111014020130301504047451000600007000080000
4041,EDAH,53.8787,14.1523,2024-05-28 12:20:00,,,,,18.0,1016.0,1201.9789655317104,14.0,12.0,260.0,10000.0,99999,,0.0,0,11160026121018020140301604201951000600007000080000
4043,EDHI,53.53528,9.83556,2024-05-28 12:20:00,16.0,36.0,1,,17.0,1016.0,1063.433393546579,9.0,8.0,240.0,10000.0,99999,,0.0,0,1116002408101702090301604063451000600007160080000
4044,EDHK,54.37944,10.14528,2024-05-28 12:20:00,,,,,14.0,1016.0,1281.918055175178,10.0,9.0,280.0,10000.0,99999,,0.0,0,11160028091014020100301604281951000600007000080000
4050,EDMO,48.0814,11.2831,2024-05-28 12:20:00,,,,,13.0,1021.0,8404.303505095051,8.0,5.0,270.0,10000.0,99999,,0.0,0,1116002705101302080302104404351000600007000080000
4053,EDSB,48.7794,8.0805,2024-05-28 12:20:00,,,,,18.0,1021.0,1926.8759489878034,8.0,6.0,210.0,10000.0,99999,,0.0,0,1116002106101802080302104926851000600007000080000
4054,EDTL,48.3693,7.82772,2024-05-28 12:20:00,,,,,20.0,1020.0,2053.983281457359,8.0,6.0,230.0,10000.0,99999,,0.0,0,1116002306102002080302004053951000600007000080000
4055,EDVE,52.3192,10.5561,2024-05-28 12:20:00,,,,,17.0,1018.0,1691.1184680384085,9.0,8.0,260.0,10000.0,99999,,0.0,0,1116002608101702090301804691151000600007000080000
4057,EDXW,54.9132,8.34047,2024-05-28 12:20:00,,,,,16.0,1015.0,1128.09277665465,11.0,10.0,250.0,10000.0,99999,,0.0,0,11160025101016020110301504128051000600007000080000
4058,ELLX,49.6266,6.21152,2024-05-28 12:20:00,,,,,17.0,1019.0,4395.644448314426,6.0,11.0,200.0,10000.0,99999,,0.0,0,1116002011101702060301904395651000600007000080000
4059,ESNL,64.5483,18.7162,2024-05-28 12:20:00,,,,,24.0,1014.0,2215.828838622555,10.0,10.0,240.0,10000.0,99999,,0.0,0,11160024101024020100301404215851000600007000080000
4063,EFKI,64.2855,27.6924,2024-05-28 12:20:00,,,,,23.0,1016.0,1844.3775848714554,10.0,8.0,250.0,10000.0,99999,,0.0,0,11160025081023020100301604844351000600007000080000
4064,EFKU,63.0071,27.7978,2024-05-28 12:20:00,,,,,26.0,1017.0,1485.3693849297117,8.0,9.0,270.0,10000.0,99999,,0.0,0,1116002709102602080301704485351000600007000080000
4065,EFOU,64.9301,25.3546,2024-05-28 12:20:00,,,,,23.0,1015.0,1086.9250720422351,11.0,11.0,240.0,10000.0,99999,,0.0,0,11160024111023020110301504086951000600007000080000
4066,EFHK,60.3172,24.9633,2024-05-28 12:20:00,,,,,26.0,1019.0,1270.370279517807,6.0,9.0,190.0,10000.0,99999,,0.0,0,1116001909102602060301904270351000600007000080000
4067,EVLA,56.5175,21.0969,2024-05-28 12:20:00,,,,,27.0,1017.0,1037.6827894175926,10.0,6.0,,10000.0,99999,,0.0,0,11160036061027020100301704037651000600007000080000
4068,EYPA,55.9732,21.0939,2024-05-28 12:20:00,,,,,27.0,1017.0,1059.8524785809616,6.0,8.0,230.0,10000.0,99999,,0.0,0,1116002308102702060301704059851000600007000080000
4069,EYVI,54.6341,25.2858,2024-05-28 12:20:00,,,,,26.0,1019.0,2020.2740790922705,8.0,8.0,150.0,10000.0,99999,,0.0,0,1116001508102602080301904020251000600007000080000
4071,EDFH,49.9487,7.26389,2024-05-28 12:20:00,,,,,15.0,1019.0,6361.327971479593,7.0,7.0,260.0,10000.0,99999,,0.0,0,1116002607101502070301904361351000600007000080000
4076,EDMA,48.42528,10.93167,2024-05-28 12:20:00,,,,,16.0,1021.0,5575.203950040307,9.0,5.0,240.0,10000.0,99999,,0.0,0,1116002405101602090302104575251000600007000080000
4114,EDAC,50.98195,12.50639,2024-05-28 12:20:00,,,,,17.0,1018.0,2615.3113122843733,13.0,3.0,30.0,10000.0,99999,,0.0,0,11160003031017020130301804615351000600007000080000
4115,EDFM,49.47306,8.51417,2024-05-28 12:20:00,,,,,19.0,1020.0,1646.180983238362,6.0,5.0,230.0,10000.0,99999,,0.0,0,1116002305101902060302004646151000600007000080000
4116,EDHL,53.8054,10.7192,2024-05-28 12:20:00,,,,,15.0,1016.0,1141.7861931862517,11.0,8.0,270.0,10000.0,99999,,0.0,0,11160027081015020110301604141751000600007000080000
4117,EDLN,51.23028,6.50444,2024-05-28 12:20:00,,,,,19.0,1017.0,1256.2637135044295,10.0,6.0,200.0,10000.0,99999,,0.0,0,11160020061019020100301704256251000600007000080000
4118,EDLP,51.6141,8.61632,2024-05-28 12:20:00,,,,,16.0,1018.0,2910.2033195175904,7.0,7.0,250.0,10000.0,99999,,0.0,0,1116002507101602070301804910251000600007000080000
4119,EDLW,51.5183,7.61224,2024-05-28 12:20:00,,,,,17.0,1018.0,2025.199804225982,9.0,11.0,230.0,10000.0,99999,,0.0,0,1116002311101702090301804025151000600007000080000
4120,EDNY,47.6713,9.51149,2024-05-28 12:20:00,,,,,17.0,1021.0,4816.934101272248,6.0,8.0,200.0,10000.0,99999,,0.0,0,1116002008101702060302104816951000600007000080000
4121,EDQM,50.28861,11.85639,2024-05-28 12:20:00,,,,,14.0,1019.0,7898.60706246186,8.0,9.0,240.0,10000.0,99999,,0.0,0,1116002409101402080301904898651000600007000080000
4122,EDVK,51.40833,9.3775,2024-05-28 12:20:00,,,,,17.0,1018.0,3401.12417843192,4.0,8.0,220.0,10000.0,99999,,0.0,0,1116002208101702040301804401151000600007000080000
4134,EGBJ,51.8942,-2.16722,2024-05-28 12:20:00,16.0,36.0,1,,17.0,1009.0,1222.4773406370166,15.0,12.0,200.0,10000.0,99999,,0.0,0,11160020121017020150300904222451000600007160080000
4135,EGSC,52.205,0.175,2024-05-28 12:20:00,,,,,16.0,1010.0,1113.5296729159513,15.0,10.0,170.0,4000.0,99999,,0.0,0,11120017101016020150301004113551000600007000080000
4163,LIBN,40.2392,18.1333,2024-05-28 12:17:00,,,,,21.0,1015.0,1286.1133553966981,16.0,9.0,110.0,10000.0,99999,,0.0,0,11160011091021020160301504286151000600007000080000
4170,EHLE,52.4603,5.52722,2024-05-28 12:25:00,,,,,18.0,1016.0,991.0596332636297,9.0,11.0,210.0,10000.0,99999,,0.0,0,1116002111101802090301604991051000600007000080000
4175,EGPB,59.8789,-1.29556,2024-05-28 12:20:00,,,,,13.0,1008.0,1061.5839054398598,11.0,6.0,160.0,10000.0,99999,,0.0,0,11160016061013020110300804061551000600007000080000
4176,EGSH,52.6758,1.28278,2024-05-28 12:20:00,61.0,36.0,^,green,14.0,1012.0,1317.8980856776948,13.0,9.0,160.0,7000.0,99999,,0.0,0,11140016091014020130301204317851000600007610080000
4178,EGUN,52.3619,0.48641,2024-05-28 12:22:00,,,,,15.0,29.84,1108.4931909857985,13.0,9.0,150.0,6000.0,99999,,0.0,0,1113001509101502013032984108451000600007000080000
4179,EGPI,55.6819,-6.25667,2024-05-28 12:20:00,,,,,12.0,1002.0,1167.1119685886194,12.0,15.0,160.0,10000.0,99999,,0.0,0,11160016151012020120300204167151000600007000080000
4180,ETHA,47.8355,10.8712,2024-05-28 12:20:00,,,,,12.0,1021.0,10.854773306313119,7.0,5.0,350.0,10000.0,99999,,0.0,0,111600350510120207030210410851000600007000080000
4182,ETHC,52.5912,10.0221,2024-05-28 12:20:00,16.0,36.0,1,,15.0,1017.0,1333.8252905816582,11.0,9.0,220.0,10000.0,99999,,0.0,0,11160022091015020110301704333851000600007160080000
4183,ETHF,51.1146,9.286,2024-05-28 12:20:00,,,,,18.0,1018.0,4503.361217126549,5.0,7.0,250.0,10000.0,99999,,0.0,0,1116002507101802050301804503351000600007000080000
4186,ETHS,52.9194,10.1975,2024-05-28 12:20:00,16.0,36.0,1,,15.0,1017.0,1646.4886726544926,9.0,8.0,270.0,10000.0,99999,,0.0,0,1116002708101502090301704646451000600007160080000
4188,ETND,52.58556,8.34222,2024-05-28 12:20:00,,,,,18.0,1017.0,1276.509365193613,8.0,12.0,210.0,10000.0,99999,,0.0,0,1116002112101802080301704276551000600007000080000
4189,ETNH,54.3122,9.53817,2024-05-28 12:20:00,,,,,15.0,1015.0,1106.8719402276695,11.0,7.0,250.0,10000.0,99999,,0.0,0,11160025071015020110301504106851000600007000080000
4191,ETNN,50.8312,6.65817,2024-05-28 12:20:00,80.0,36.0,q,green,17.0,1018.0,1912.5545543703297,7.0,5.0,160.0,10000.0,99999,,0.0,0,1116001605101702070301804912551000600007800080000
4196,ETSH,51.7678,13.1677,2024-05-28 12:20:00,80.0,36.0,q,green,16.0,1018.0,1657.7412628245481,12.0,5.0,260.0,10000.0,99999,,0.0,0,11160026051016020120301804657751000600007800080000
4198,ETSL,48.1855,10.8612,2024-05-28 12:20:00,,,,,14.0,1021.0,7418.623011714333,6.0,5.0,190.0,10000.0,99999,,0.0,0,1116001905101402060302104418651000600007000080000
4201,LSME,47.0924,8.30512,2024-05-28 12:20:00,,,,,18.0,1021.0,4677.799654983776,9.0,2.0,,2200.0,99999,,0.0,0,1111003602101802090302104677751000600007000080000
4275,LGZA,37.7509,20.8843,2024-05-28 12:20:00,,,,,25.0,1015.0,1035.9012651123076,13.0,6.0,70.0,10000.0,99999,,0.0,0,11160007061025020130301504035951000600007000080000
4280,EHBK,50.9117,5.77014,2024-05-28 12:25:00,,,,,18.0,1017.0,1838.9301252492462,9.0,11.0,210.0,10000.0,99999,,0.0,0,1116002111101802090301704838951000600007000080000
4281,EHDL,52.0606,5.87306,2024-05-28 12:25:00,,,,,18.0,1016.0,1339.4159672682881,9.0,9.0,190.0,10000.0,99999,,0.0,0,1116001909101802090301604339451000600007000080000
4283,EHGG,53.1197,6.57944,2024-05-28 12:25:00,61.0,36.0,^,green,16.0,1016.0,1053.1731306452584,10.0,10.0,240.0,10000.0,99999,,0.0,0,11160024101016020100301604053151000600007610080000
4285,EHLW,53.2286,5.76056,2024-05-28 12:25:00,,,,,16.0,1015.0,1021.5120525006731,12.0,7.0,220.0,10000.0,99999,,0.0,0,11160022071016020120301504021551000600007000080000
4286,EHRD,51.9569,4.43722,2024-05-28 12:25:00,,,,,19.0,1015.0,987.7777031119598,10.0,11.0,200.0,10000.0,99999,,0.0,0,11160020111019020100301504987751000600007000080000
4287,EHVK,51.6564,5.70861,2024-05-28 12:25:00,,,,,19.0,1016.0,1151.142004638369,11.0,8.0,200.0,10000.0,99999,,0.0,0,11160020081019020110301604151151000600007000080000
4291,ETNL,53.9182,12.2783,2024-05-28 12:20:00,,,,,16.0,1016.0,1333.483551144982,11.0,10.0,240.0,10000.0,99999,,0.0,0,11160024101016020110301604333451000600007000080000
4292,ETSI,48.7157,11.534,2024-05-28 12:20:00,,,,,18.0,1020.0,4095.44351508463,7.0,10.0,260.0,10000.0,99999,,0.0,0,1116002610101802070302004095451000600007000080000
4357,EGCC,53.3537,-2.27495,2024-05-28 12:20:00,,,,,16.0,1007.0,1619.0618293109176,14.0,5.0,190.0,10000.0,99999,,0.0,0,11160019051016020140300704619051000600007000080000
4377,EGVO,51.2341,-0.94283,2024-05-28 12:20:00,,,,,17.0,1011.0,1958.9929511317125,13.0,13.0,220.0,10000.0,99999,,0.0,0,11160022131017020130301104958951000600007000080000
4378,EGVP,51.1394,-1.56861,2024-05-28 12:20:00,,,,,15.0,1011.0,1783.5261419606634,13.0,13.0,220.0,10000.0,99999,,0.0,0,11160022131015020130301104783551000600007000080000
4391,EHEH,51.4501,5.37453,2024-05-28 12:25:00,,,,,19.0,1016.0,1154.9959488273525,9.0,10.0,170.0,10000.0,99999,,0.0,0,1116001710101902090301604154951000600007000080000
4392,EHKD,52.9234,4.78062,2024-05-28 12:25:00,,,,,17.0,1015.0,1021.1284963873017,10.0,12.0,220.0,10000.0,99999,,0.0,0,11160022121017020100301504021151000600007000080000
4418,EGDM,51.1522,-1.74741,2024-05-28 12:20:00,,,,,15.0,1011.0,2107.137055939789,13.0,14.0,210.0,10000.0,99999,,0.0,0,11160021141015020130301104107151000600007000080000
4427,EGWU,51.553,-0.41817,2024-05-28 12:20:00,,,,,17.0,1011.0,1275.9288885934154,15.0,9.0,230.0,10000.0,99999,,0.0,0,11160023091017020150301104275951000600007000080000
4430,EGYD,53.0303,-0.48324,2024-05-28 12:20:00,58.0,36.0,[,green,15.0,1009.0,1559.2210680968396,14.0,14.0,160.0,4000.0,99999,,0.0,0,11120016141015020140300904559251000600007580080000
4432,LIRN,40.886,14.2908,2024-05-28 12:20:00,,,,,25.0,1015.0,1455.7795745698895,10.0,8.0,,10000.0,99999,,0.0,0,11160036081025020100301504455751000600007000080000
4461,LTCS,37.44566,38.89559,2024-05-28 12:20:00,,,,,29.0,1011.0,5448.880132979704,5.0,13.0,250.0,10000.0,99999,,0.0,0,1116002513102902050301104448851000600007000080000
4465,LTFM,41.27533,28.752,2024-05-28 12:20:00,,,,,19.0,1015.0,1675.6825477186906,11.0,6.0,40.0,10000.0,99999,,0.0,0,11160004061019020110301504675651000600007000080000
4467,EGDR,50.0861,-5.25571,2024-05-28 12:20:00,45.0,36.0,N,yellow,14.0,1012.0,1754.0645800818293,14.0,15.0,230.0,300.0,99999,,0.0,0,11100023151014020140301204754051000600007450080000
4468,EGDY,51.0094,-2.63882,2024-05-28 12:20:00,,,,,16.0,1011.0,1178.3622123209668,14.0,12.0,210.0,10000.0,99999,,0.0,0,11160021121016020140301104178351000600007000080000
4469,EGOS,52.7982,-2.66804,2024-05-28 12:20:00,,,,,17.0,1007.0,1560.7801917021827,15.0,9.0,190.0,10000.0,99999,,0.0,0,11160019091017020150300704560751000600007000080000
4471,EGQS,57.7052,-3.33917,2024-05-28 12:20:00,,,,,17.0,1005.0,1091.3607358120769,5.0,9.0,180.0,10000.0,99999,,0.0,0,1116001809101702050300504091351000600007000080000
4472,EGUB,51.6164,-1.09583,2024-05-28 12:20:00,,,,,16.0,1010.0,1544.0627292598135,14.0,10.0,210.0,10000.0,99999,,0.0,0,11160021101016020140301004544051000600007000080000
4473,EGUW,52.1273,0.95626,2024-05-28 12:20:00,61.0,36.0,^,green,14.0,1011.0,1804.423929277219,13.0,9.0,180.0,10000.0,99999,,0.0,0,11160018091014020130301104804451000600007610080000
4474,EGVN,51.75,-1.58362,2024-05-28 12:20:00,61.0,36.0,^,green,16.0,1010.0,1705.1052022019187,14.0,7.0,210.0,9000.0,99999,,0.0,0,11150021071016020140301004705151000600007610080000
4475,EGXE,54.2924,-1.5354,2024-05-28 12:20:00,63.0,36.0,',green,14.0,1007.0,1352.7101804501078,12.0,13.0,160.0,10000.0,99999,,0.0,0,11160016131014020120300704352751000600007630080000
4479,LOXT,48.3167,16.1167,2024-05-28 12:20:00,,,,,18.0,1017.0,2339.2266660235396,13.0,23.0,240.0,25.0,99999,,0.0,0,11100024231018020130301704339251000600007000080000
4499,LTAZ,38.7719,34.5345,2024-05-28 12:20:00,95.0,36.0,2,red,20.0,1011.0,8576.51057863879,13.0,10.0,280.0,10000.0,99999,,0.0,0,11160028101020020130301104576551000600007950080000
4500,LTBR,40.2552,29.5626,2024-05-28 12:20:00,,,,,21.0,1013.0,2541.906994834581,10.0,7.0,310.0,10000.0,99999,,0.0,0,11160031071021020100301304541951000600007000080000
4502,LTFC,37.8554,30.3684,2024-05-28 12:20:00,,,,,20.0,1013.0,7942.746318673199,10.0,7.0,190.0,10000.0,99999,,0.0,0,11160019071020020100301304942751000600007000080000
4503,LTFJ,40.8986,29.3092,2024-05-28 12:20:00,,,,,22.0,1014.0,1552.5074119844655,10.0,9.0,240.0,10000.0,99999,,0.0,0,11160024091022020100301404552551000600007000080000
4504,EHAM,52.3086,4.76389,2024-05-28 12:25:00,,,,,18.0,1015.0,993.8999834383636,10.0,10.0,190.0,10000.0,99999,,0.0,0,11160019101018020100301504993851000600007000080000
4522,LFCK,43.5563,2.28918,2024-05-28 12:30:00,,,,,20.0,1022.0,2710.748391019355,10.0,9.0,280.0,10000.0,99999,,0.0,0,11160028091020020100302204710751000600007000080000
4523,LFLP,45.9292,6.09876,2024-05-28 12:30:00,,,,,20.0,1020.0,4582.138095200213,5.0,6.0,,10000.0,99999,,0.0,0,1116003606102002050302004582151000600007000080000
4524,LFLU,44.9216,4.9699,2024-05-28 12:30:00,,,,,21.0,1019.0,2027.1891949963415,11.0,14.0,350.0,10000.0,99999,,0.0,0,11160035141021020110301904027151000600007000080000
4530,LFQA,49.2087,4.15658,2024-05-28 12:30:00,,,,,17.0,1019.0,1737.8902046231126,11.0,11.0,210.0,10000.0,99999,,0.0,0,11160021111017020110301904737851000600007000080000
4579,LFGA,48.1099,7.35901,2024-05-28 12:30:00,,,,,21.0,1020.0,2253.495848736663,8.0,2.0,,10000.0,99999,,0.0,0,1116003602102102080302004253451000600007000080000
4580,LFJR,47.5603,-0.31222,2024-05-28 12:30:00,,,,,18.0,1020.0,1423.5850306849081,12.0,13.0,230.0,10000.0,99999,,0.0,0,11160023131018020120302004423551000600007000080000
4582,LFRU,48.6032,-3.81578,2024-05-28 12:30:00,,,,,16.0,1017.0,1674.5402147722205,13.0,16.0,220.0,10000.0,99999,,0.0,0,11160022161016020130301704674551000600007000080000
4584,LFLH,46.8261,4.81763,2024-05-28 12:30:00,,,,,21.0,1021.0,2244.6486966947755,11.0,6.0,270.0,10000.0,99999,,0.0,0,11160027061021020110302104244651000600007000080000
4588,ETHB,52.2785,9.08217,2024-05-28 12:20:00,,,,,18.0,1017.0,1499.736689844861,7.0,11.0,250.0,10000.0,99999,,0.0,0,1116002511101802070301704499751000600007000080000
4589,ETHL,48.2203,9.91002,2024-05-28 12:20:00,,,,,16.0,1020.0,6390.6395677769715,6.0,5.0,230.0,10000.0,99999,,0.0,0,1116002305101602060302004390651000600007000080000
4590,ETHN,49.39194,9.95889,2024-05-28 12:20:00,,,,,16.0,1020.0,4985.251659925713,5.0,10.0,250.0,10000.0,99999,,0.0,0,1116002510101602050302004985251000600007000080000
4591,ETMN,53.7677,8.6585,2024-05-28 12:20:00,,,,,16.0,1016.0,1179.567002062763,10.0,3.0,20.0,10000.0,99999,,0.0,0,11160002031016020100301604179551000600007000080000
4592,ETNS,54.4593,9.51633,2024-05-28 12:20:00,,,,,15.0,1015.0,1182.2541398377732,10.0,8.0,260.0,10000.0,99999,,0.0,0,11160026081015020100301504182251000600007000080000
4593,ETNT,53.5478,7.66733,2024-05-28 12:20:00,,,,,15.0,1016.0,1076.9348174097136,10.0,7.0,260.0,10000.0,99999,,0.0,0,11160026071015020100301604076951000600007000080000
4594,ETNW,52.4573,9.42717,2024-05-28 12:20:00,,,,,19.0,1017.0,1382.3836674529834,8.0,10.0,230.0,10000.0,99999,,0.0,0,1116002310101902080301704382351000600007000080000
4595,ETSB,50.1738,7.06333,2024-05-28 12:20:00,,,,,15.0,1019.0,6078.826063247384,7.0,8.0,230.0,10000.0,99999,,0.0,0,1116002308101502070301904078851000600007000080000
4596,ETSN,48.711,11.2115,2024-05-28 12:20:00,,,,,17.0,1020.0,4446.348643310003,6.0,6.0,300.0,10000.0,99999,,0.0,0,1116003006101702060302004446351000600007000080000
4597,ETWM,52.7232,7.32633,2024-05-28 12:20:00,,,,,18.0,1016.0,1016.0,7.0,10.0,210.0,10000.0,99999,,0.0,0,1116002110101802070301604016051000600007000080000
4599,LHKE,46.9175,19.7492,2024-05-28 12:15:00,,,,,25.0,1014.0,1587.8453526385458,7.0,1.0,,10000.0,99999,,0.0,0,1116003601102502070301404587851000600007000080000
4600,LHPA,47.3636,17.5008,2024-05-28 12:15:00,,,,,26.0,1014.0,1708.5947014551368,6.0,9.0,60.0,10000.0,99999,,0.0,0,1116000609102602060301404708551000600007000080000
4602,LHPR,47.6244,17.8136,2024-05-28 12:15:00,,,,,26.0,1014.0,1640.5593330745235,8.0,5.0,,10000.0,99999,,0.0,0,1116003605102602080301404640551000600007000080000
4603,LHSM,46.6864,17.1591,2024-05-28 12:15:00,,,,,25.0,1014.0,1641.0740741864113,14.0,9.0,30.0,10000.0,99999,,0.0,0,11160003091025020140301404641051000600007000080000
4604,LHSN,47.1229,20.2355,2024-05-28 12:15:00,,,,,26.0,1014.0,1479.4375052853738,8.0,3.0,,10000.0,99999,,0.0,0,1116003603102602080301404479451000600007000080000
4612,EPBY,53.0968,17.9777,2024-05-28 12:30:00,,,,,28.0,1014.0,1321.8816098608156,8.0,8.0,150.0,10000.0,99999,,0.0,0,1116001508102802080301404321851000600007000080000
4616,EPRA,51.38883,21.21167,2024-05-28 12:30:00,,,,,27.0,1016.0,1935.43674039753,6.0,9.0,150.0,10000.0,99999,,0.0,0,1116001509102702060301604935451000600007000080000
4618,EPSY,53.48194,20.93778,2024-05-28 12:30:00,,,,,27.0,1016.0,1680.7071349197831,4.0,9.0,170.0,10000.0,99999,,0.0,0,1116001709102702040301604680751000600007000080000
4620,EPZG,52.1385,15.7986,2024-05-28 12:30:00,,,,,20.0,1016.0,1375.4408316628997,14.0,12.0,290.0,10000.0,99999,,0.0,0,11160029121020020140301604375451000600007000080000
4623,LTAI,36.8987,30.8005,2024-05-28 12:20:00,,,,,25.0,1010.0,1266.5442261593334,20.0,12.0,170.0,10000.0,99999,,0.0,0,11160017121025020200301004266551000600007000080000
4624,LTAT,38.4353,38.091,2024-05-28 12:20:00,,,,,29.0,1010.0,5659.667822556167,10.0,5.0,,10000.0,99999,,0.0,0,11160036051029020100301004659651000600007000080000
4625,LTBS,36.7131,28.7925,2024-05-28 12:20:00,,,,,25.0,1009.0,1036.743770905619,17.0,13.0,220.0,10000.0,99999,,0.0,0,11160022131025020170300904036751000600007000080000
4627,LTCE,39.9565,41.1702,2024-05-28 12:20:00,,,,,20.0,1018.0,14.247408415197858,7.0,11.0,190.0,10000.0,99999,,0.0,0,111600191110200207030180414251000600007000080000
4630,LTFE,37.2506,27.6643,2024-05-28 12:20:00,,,,,28.0,1010.0,1036.0261497983645,10.0,14.0,240.0,10000.0,99999,,0.0,0,11160024141028020100301004036051000600007000080000
4632,EKYT,57.09276,9.84924,2024-05-28 12:30:00,63.0,36.0,',green,13.0,1011.0,1037.723633773259,13.0,15.0,310.0,4800.0,99999,,0.0,0,11120031151013020130301104037751000600007630080000
4634,EHGR,51.5674,4.93183,2024-05-28 12:25:00,,,,,18.0,1016.0,1112.3677353225644,10.0,11.0,180.0,10000.0,99999,,0.0,0,11160018111018020100301604112351000600007000080000
4635,EHWO,51.4491,4.34203,2024-05-28 12:25:00,,,,,18.0,1015.0,1139.4483578693075,12.0,10.0,210.0,10000.0,99999,,0.0,0,11160021101018020120301504139451000600007000080000
4639,LBGO,43.1514,25.7129,2024-05-28 12:30:00,80.0,36.0,q,green,18.0,1014.0,1620.7634041177812,12.0,8.0,360.0,10000.0,99999,,0.0,0,11160036081018020120301404620751000600007800080000
4687,LTAC,40.1281,32.9951,2024-05-28 12:20:00,80.0,36.0,q,green,15.0,1013.0,11.041829957723417,12.0,7.0,220.0,10000.0,99999,,0.0,0,1116002207101502012030130411051000600007800080000
4688,LTAF,36.9822,35.2804,2024-05-28 12:20:00,,,,,27.0,1010.0,1094.533406608089,19.0,12.0,200.0,10000.0,99999,,0.0,0,11160020121027020190301004094551000600007000080000
4689,LTAG,37.0021,35.4259,2024-05-28 12:20:00,,,,,26.0,1010.0,1346.0656208782136,16.0,13.0,200.0,10000.0,99999,,0.0,0,11160020131026020160301004346051000600007000080000
4690,LTAJ,36.9472,37.4787,2024-05-28 12:20:00,,,,,28.0,1011.0,4888.424863170316,9.0,10.0,240.0,10000.0,99999,,0.0,0,1116002410102802090301104888451000600007000080000
4691,LTAP,40.8294,35.522,2024-05-28 12:20:00,,,,,25.0,1009.0,4234.7010984010585,12.0,14.0,20.0,10000.0,99999,,0.0,0,11160002141025020120300904234751000600007000080000
4692,LTAU,38.7704,35.4954,2024-05-28 12:20:00,,,,,23.0,1010.0,8352.610514748783,9.0,14.0,170.0,10000.0,99999,,0.0,0,1116001714102302090301004352651000600007000080000
4693,LTBA,40.9769,28.8146,2024-05-28 12:20:00,,,,,20.0,1014.0,1312.5155549307835,11.0,8.0,240.0,10000.0,99999,,0.0,0,11160024081020020110301404312551000600007000080000
4694,LTBJ,38.2924,27.157,2024-05-28 12:20:00,,,,,26.0,1011.0,1616.5005843024778,9.0,16.0,340.0,10000.0,99999,,0.0,0,1116003416102602090301104616551000600007000080000
4695,LTBU,41.1382,27.9191,2024-05-28 12:20:00,,,,,21.0,1014.0,2122.4717330077915,10.0,9.0,150.0,10000.0,99999,,0.0,0,11160015091021020100301404122451000600007000080000
4696,LTCC,37.8939,40.201,2024-05-28 12:20:00,,,,,31.0,1010.0,4358.105060948116,4.0,13.0,190.0,10000.0,99999,,0.0,0,1116001913103102040301004358151000600007000080000
4697,LTCG,40.9951,39.7897,2024-05-28 12:20:00,,,,,21.0,1012.0,1189.3095121990389,17.0,4.0,40.0,10000.0,99999,,0.0,0,11160004041021020170301204189351000600007000080000
4698,LTCJ,37.929,41.1166,2024-05-28 12:20:00,,,,,33.0,1009.0,3459.0617656805007,6.0,14.0,200.0,10000.0,99999,,0.0,0,1116002014103302060300904459051000600007000080000
4722,LFYR,47.3208,1.68889,2024-05-28 12:30:00,,,,,18.0,1020.0,1639.67183199595,12.0,8.0,240.0,10000.0,99999,,0.0,0,11160024081018020120302004639651000600007000080000
4724,LYBT,44.9353,20.2575,2024-05-28 12:30:00,,,,,26.0,1013.0,1390.702569011481,9.0,8.0,10.0,10000.0,99999,,0.0,0,1116000108102602090301304390751000600007000080000
4725,LYKV,43.8183,20.5872,2024-05-28 12:30:00,,,,,25.0,1012.0,2123.12427627439,11.0,6.0,80.0,10000.0,99999,,0.0,0,11160008061025020110301204123151000600007000080000
4729,LYVR,45.1469,21.3099,2024-05-28 12:30:00,,,,,25.0,1013.0,1424.2136023578291,7.0,8.0,10.0,10000.0,99999,,0.0,0,1116000108102502070301304424251000600007000080000
4786,EGXV,53.8758,-0.435,2024-05-28 12:20:00,61.0,36.0,^,green,15.0,1008.0,1092.1020525536546,13.0,6.0,170.0,10000.0,99999,,0.0,0,11160017061015020130300804092151000600007610080000
4815,LFBF,43.5456,1.3675,2024-05-28 12:30:00,,,,,21.0,1021.0,2052.659633708092,11.0,6.0,320.0,10000.0,99999,,0.0,0,11160032061021020110302104052651000600007000080000
4818,LFBX,45.1981,0.81556,2024-05-28 12:30:00,,,,,20.0,1022.0,1657.3950006415057,11.0,4.0,320.0,10000.0,99999,,0.0,0,11160032041020020110302204657351000600007000080000
4819,LFBY,43.6892,-1.06889,2024-05-28 12:30:00,,,,,21.0,1022.0,1208.1855709446888,11.0,4.0,,10000.0,99999,,0.0,0,11160036041021020110302204208151000600007000080000
4820,LFHP,45.0807,3.76289,2024-05-28 12:30:00,,,,,16.0,1021.0,9.416709317242493,8.0,4.0,60.0,1500.0,99999,,0.0,0,11100006041016020803021049451000600007000080000
4821,LFLN,46.4125,4.01326,2024-05-28 12:30:00,,,,,19.0,1021.0,2830.256626708466,9.0,4.0,,10000.0,99999,,0.0,0,1116003604101902090302104830251000600007000080000
4833,LFPM,48.6047,2.67112,2024-05-28 12:30:00,,,,,15.0,1019.0,1812.0854958633788,14.0,11.0,210.0,10000.0,99999,,0.0,0,11160021111015020140301904812051000600007000080000
4835,LFRL,48.2817,-4.44502,2024-05-28 12:30:00,,,,,16.0,1018.0,1715.9488576959336,13.0,17.0,220.0,10000.0,99999,,0.0,0,11160022171016020130301804715951000600007000080000
4840,EBDT,50.9992,5.06556,2024-05-28 12:25:00,,,,,18.0,1016.0,1216.495117419523,9.0,10.0,190.0,10000.0,99999,,0.0,0,1116001910101802090301604216451000600007000080000
4843,EBLB,50.4817,6.18194,2024-05-28 12:25:00,,,,,15.0,1018.0,6980.23425859568,7.0,9.0,220.0,10000.0,99999,,0.0,0,1116002209101502070301804980251000600007000080000
4849,EPLL,51.7219,19.3981,2024-05-28 12:30:00,95.0,36.0,2,red,27.0,1015.0,1902.5101291522753,10.0,8.0,150.0,10000.0,99999,,0.0,0,11160015081027020100301504902551000600007950080000
4850,EPWR,51.1027,16.8858,2024-05-28 12:30:00,95.0,36.0,2,red,24.0,1014.0,1662.5930216357492,14.0,15.0,280.0,10000.0,99999,,0.0,0,11160028151024020140301404662551000600007950080000
4851,LFBE,44.8253,0.51861,2024-05-28 12:30:00,,,,,20.0,1022.0,1338.432726879532,11.0,6.0,270.0,10000.0,99999,,0.0,0,11160027061020020110302204338451000600007000080000
4852,LFBG,45.6583,-0.3175,2024-05-28 12:30:00,,,,,18.0,1022.0,1227.8640536412431,11.0,7.0,250.0,10000.0,99999,,0.0,0,11160025071018020110302204227851000600007000080000
4853,LFCR,44.4079,2.48267,2024-05-28 12:30:00,,,,,18.0,1022.0,6179.639610844088,10.0,8.0,300.0,10000.0,99999,,0.0,0,11160030081018020100302204179651000600007000080000
4854,LFJL,48.9821,6.25132,2024-05-28 12:30:00,,,,,20.0,1020.0,2906.643964997722,8.0,9.0,210.0,10000.0,99999,,0.0,0,1116002109102002080302004906651000600007000080000
4856,LFMI,43.5227,4.92384,2024-05-28 12:30:00,,,,,23.0,1016.0,1142.9490820486521,8.0,24.0,340.0,10000.0,99999,,0.0,0,1116003424102302080301604142951000600007000080000
4857,LFMK,43.216,2.30632,2024-05-28 12:30:00,,,,,22.0,1020.0,1794.2855100850634,12.0,9.0,270.0,10000.0,99999,,0.0,0,11160027091022020120302004794251000600007000080000
4858,LFMO,44.1405,4.86672,2024-05-28 12:30:00,,,,,23.0,1017.0,1332.4751442127756,10.0,19.0,310.0,10000.0,99999,,0.0,0,11160031191023020100301704332451000600007000080000
4859,LFMU,43.3235,3.3539,2024-05-28 12:30:00,,,,,25.0,1018.0,1097.184844371841,7.0,9.0,330.0,10000.0,99999,,0.0,0,1116003309102502070301804097151000600007000080000
4860,LHDC,47.4889,21.6153,2024-05-28 12:15:00,,,,,25.0,1014.0,1559.8211240117398,8.0,5.0,,10000.0,99999,,0.0,0,1116003605102502080301404559851000600007000080000
4861,LHPP,45.9909,18.241,2024-05-28 12:15:00,,,,,25.0,1014.0,2718.5958238942408,12.0,5.0,220.0,10000.0,99999,,0.0,0,11160022051025020120301404718551000600007000080000
4862,LKCV,49.9397,15.3818,2024-05-28 12:30:00,61.0,36.0,^,green,14.0,1018.0,3566.7887059432574,13.0,7.0,290.0,10000.0,99999,,0.0,0,11160029071014020130301804566751000600007610080000
4864,LKNA,49.1658,16.1249,2024-05-28 12:30:00,,,,,18.0,1017.0,5092.445839785696,14.0,14.0,310.0,10000.0,99999,,0.0,0,11160031141018020140301704092451000600007000080000
4869,LZPP,48.6252,17.8284,2024-05-28 12:30:00,,,,,26.0,1014.0,1839.0750101534559,10.0,5.0,250.0,10000.0,99999,,0.0,0,11160025051026020100301404839051000600007000080000
4870,LZZI,49.2315,18.6135,2024-05-28 12:30:00,,,,,26.0,1014.0,2681.3441795450763,8.0,3.0,,10000.0,99999,,0.0,0,1116003603102602080301404681351000600007000080000
4871,LKKV,50.203,12.915,2024-05-28 12:30:00,,,,,14.0,1019.0,8005.853397380545,10.0,6.0,270.0,10000.0,99999,,0.0,0,11160027061014020100301904005851000600007000080000
4879,LJCE,45.9,15.5302,2024-05-28 12:30:00,95.0,36.0,2,red,20.0,1015.0,2041.6670530295187,13.0,4.0,100.0,10000.0,99999,,0.0,0,11160010041020020130301504041651000600007950080000
4890,LFOV,48.0314,-0.74299,2024-05-28 12:30:00,,,,,17.0,1019.0,1780.8617110046218,13.0,10.0,230.0,10000.0,99999,,0.0,0,11160023101017020130301904780851000600007000080000
4894,LFRV,47.7233,-2.71856,2024-05-28 12:30:00,,,,,15.0,1019.0,2243.339938395681,14.0,8.0,230.0,10000.0,99999,,0.0,0,11160023081015020140301904243351000600007000080000
4895,LFSG,48.325,6.06998,2024-05-28 12:30:00,,,,,19.0,1020.0,3591.179756795508,9.0,8.0,220.0,10000.0,99999,,0.0,0,1116002208101902090302004591151000600007000080000
4903,LFOZ,47.8969,2.16333,2024-05-28 12:30:00,61.0,36.0,^,green,15.0,1020.0,2092.4965359356793,13.0,10.0,230.0,6000.0,99999,,0.0,0,11130023101015020130302004092451000600007610080000
4904,LFPT,49.0966,2.04083,2024-05-28 12:30:00,,,,,15.0,1018.0,1877.1808225661496,14.0,10.0,220.0,10000.0,99999,,0.0,0,11160022101015020140301804877151000600007000080000
4908,LFSM,47.487,6.79054,2024-05-28 12:30:00,,,,,20.0,1020.0,3335.516898867853,7.0,6.0,,10000.0,99999,,0.0,0,1116003606102002070302004335551000600007000080000
4909,LFAQ,49.9715,2.69766,2024-05-28 12:30:00,,,,,15.0,1017.0,1990.3782054762514,14.0,13.0,200.0,8000.0,99999,,0.0,0,11140020131015020140301704990351000600007000080000
4910,LFBU,45.7292,0.22146,2024-05-28 12:30:00,,,,,18.0,1022.0,1998.169481744473,11.0,5.0,250.0,10000.0,99999,,0.0,0,11160025051018020110302204998151000600007000080000
4936,LEMI,37.803,-1.125,2024-05-28 12:30:00,,,,,24.0,1020.0,2091.360730972572,14.0,10.0,90.0,10000.0,99999,,0.0,0,11160009101024020140302004091351000600007000080000
4938,LECH,40.21417,0.07333,2024-05-28 12:30:00,,,,,23.0,1021.0,3305.3254691677917,12.0,11.0,180.0,10000.0,99999,,0.0,0,11160018111023020120302104305351000600007000080000
4939,ULWC,59.27667,38.02833,2024-05-28 12:30:00,,,,,27.0,1019.0,1551.1522671839068,9.0,2.0,220.0,10000.0,99999,,0.0,0,1116002202102702090301904551151000600007000080000
4940,UUBC,54.55,36.36667,2024-05-28 12:30:00,,,,,26.0,1022.0,2043.5741447591745,12.0,3.0,140.0,10000.0,99999,,0.0,0,11160014031026020120302204043551000600007000080000
4941,UUOB,50.6438,36.5901,2024-05-28 12:30:00,,,,,26.0,1021.0,2180.068792794527,6.0,5.0,90.0,10000.0,99999,,0.0,0,1116000905102602060302104180051000600007000080000
4942,UUOK,51.7506,36.2956,2024-05-28 12:30:00,,,,,27.0,1021.0,2049.5510328886353,6.0,3.0,130.0,10000.0,99999,,0.0,0,1116001303102702060302104049551000600007000080000
4945,UWPS,54.12513,45.21226,2024-05-28 12:30:00,,,,,24.0,1024.0,2181.742199094328,2.0,4.0,270.0,10000.0,99999,,0.0,0,1116002704102402020302404181751000600007000080000
4959,UWKS,56.0903,47.3473,2024-05-28 12:30:00,,,,,23.0,1021.0,1997.9467336953126,5.0,7.0,260.0,10000.0,99999,,0.0,0,1116002607102302050302104997951000600007000080000
4963,UUDL,57.5607,40.1574,2024-05-28 12:30:00,,,,,26.0,1021.0,1435.3995211802142,10.0,5.0,250.0,10000.0,99999,,0.0,0,11160025051026020100302104435351000600007000080000
4966,UUMO,55.5117,37.5072,2024-05-28 12:30:00,,,,,25.0,1023.0,1933.0195920416515,8.0,3.0,290.0,10000.0,99999,,0.0,0,1116002903102502080302304933051000600007000080000
4969,URMG,43.3883,45.6986,2024-05-28 12:30:00,,,,,26.0,1016.0,1016.0,10.0,4.0,140.0,10000.0,99999,,0.0,0,11160014041026020100301604016051000600007000080000
4973,URMO,43.2051,44.6066,2024-05-28 12:30:00,,,,,24.0,1016.0,4232.13495125533,13.0,2.0,150.0,10000.0,99999,,0.0,0,11160015021024020130301604232151000600007000080000
4975,URRP,47.50083,39.93361,2024-05-28 12:30:00,,,,,28.0,1018.0,1392.7893635030455,5.0,10.0,120.0,10000.0,99999,,0.0,0,1116001210102802050301804392751000600007000080000
4983,UUBW,55.5533,38.15,2024-05-28 12:30:00,,,,,26.0,1022.0,1577.927935395342,9.0,2.0,210.0,10000.0,99999,,0.0,0,1116002102102602090302204577951000600007000080000
4984,UUOL,52.7028,39.5378,2024-05-28 12:30:00,,,,,26.0,1023.0,1921.546902778687,5.0,3.0,130.0,10000.0,99999,,0.0,0,1116001303102602050302304921551000600007000080000
4999,LPCS,38.725,-9.35523,2024-05-28 12:30:00,,,,,24.0,1019.0,1533.8600961842783,14.0,17.0,340.0,10000.0,99999,,0.0,0,11160034171024020140301904533851000600007000080000
5007,LFLX,46.8622,1.73067,2024-05-28 12:30:00,,,,,18.0,1021.0,2231.768924118844,12.0,10.0,220.0,10000.0,99999,,0.0,0,11160022101018020120302104231751000600007000080000
5013,LQMO,43.2829,17.8459,2024-05-28 12:30:00,,,,,26.0,1012.0,1228.3156217710687,13.0,3.0,310.0,10000.0,99999,,0.0,0,11160031031026020130301204228351000600007000080000
5028,LEHC,42.0761,-0.31667,2024-05-28 12:30:00,,,,,24.0,1020.0,4456.662069828356,10.0,3.0,240.0,10000.0,99999,,0.0,0,11160024031024020100302004456651000600007000080000
5029,LESU,42.3386,1.40917,2024-05-28 12:30:00,,,,,24.0,1019.0,6332.180362461833,12.0,12.0,190.0,10000.0,99999,,0.0,0,11160019121024020120301904332151000600007000080000
5032,LESB,39.5989,2.70278,2024-05-28 12:30:00,,,,,26.0,1019.0,1238.2634931433922,12.0,12.0,80.0,10000.0,99999,,0.0,0,11160008121026020120301904238251000600007000080000
5036,LEBG,42.3576,-3.62076,2024-05-28 12:30:00,,,,,22.0,1022.0,7615.366768347591,8.0,4.0,60.0,10000.0,99999,,0.0,0,1116000604102202080302204615351000600007000080000
5081,LRBC,46.5219,26.9103,2024-05-28 12:30:00,80.0,36.0,q,green,17.0,1016.0,2517.1958550403733,13.0,10.0,320.0,10000.0,99999,,0.0,0,11160032101017020130301604517151000600007800080000
5083,LRCL,46.7852,23.6862,2024-05-28 12:30:00,,,,,23.0,1015.0,2968.571477662691,8.0,5.0,90.0,10000.0,99999,,0.0,0,1116000905102302080301504968551000600007000080000
5084,LRIA,47.1785,27.6206,2024-05-28 12:30:00,,,,,22.0,1015.0,1715.4775841897224,13.0,3.0,,10000.0,99999,,0.0,0,11160036031022020130301504715451000600007000080000
5085,LROD,47.0253,21.9025,2024-05-28 12:30:00,,,,,25.0,1014.0,1737.3849797421442,13.0,6.0,300.0,10000.0,99999,,0.0,0,11160030061025020130301404737351000600007000080000
5087,LRSB,45.7856,24.0913,2024-05-28 12:30:00,80.0,36.0,q,green,19.0,1014.0,4696.023447417666,7.0,5.0,360.0,10000.0,99999,,0.0,0,1116003605101902070301404696051000600007800080000
5092,LFKS,41.9244,9.406,2024-05-28 12:30:00,,,,,23.0,1014.0,1056.555717503695,17.0,6.0,110.0,10000.0,99999,,0.0,0,11160011061023020170301404056551000600007000080000
5093,LFLW,44.8914,2.42194,2024-05-28 12:30:00,,,,,18.0,1022.0,6719.765207858403,10.0,6.0,290.0,10000.0,99999,,0.0,0,11160029061018020100302204719751000600007000080000
5094,LFMC,43.3847,6.38714,2024-05-28 12:30:00,,,,,26.0,1014.0,1392.075424459666,11.0,3.0,,10000.0,99999,,0.0,0,11160036031026020110301404392051000600007000080000
5110,GEML,35.2798,-2.95626,2024-05-28 12:30:00,,,,,23.0,1019.0,1266.482420202819,17.0,8.0,130.0,10000.0,99999,,0.0,0,11160013081023020170301904266451000600007000080000
5111,EPGD,54.3776,18.4662,2024-05-28 12:30:00,,,,,27.0,1015.0,1718.2684979569058,4.0,17.0,140.0,10000.0,99999,,0.0,0,1116001417102702040301504718251000600007000080000
5112,EPKK,50.0777,19.7848,2024-05-28 12:30:00,,,,,27.0,1015.0,2214.390349954242,4.0,12.0,90.0,10000.0,99999,,0.0,0,1116000912102702040301504214351000600007000080000
5113,EPKT,50.4743,19.08,2024-05-28 12:30:00,,,,,25.0,1015.0,2711.5703754298183,8.0,5.0,10.0,10000.0,99999,,0.0,0,1116000105102502080301504711551000600007000080000
5114,EPLB,51.24028,22.71361,2024-05-28 12:30:00,,,,,25.0,1017.0,2037.5886690844534,7.0,8.0,140.0,10000.0,99999,,0.0,0,1116001408102502070301704037551000600007000080000
5115,EPMO,52.4511,20.6518,2024-05-28 12:30:00,,,,,27.0,1016.0,1492.2609554372252,8.0,11.0,150.0,10000.0,99999,,0.0,0,1116001511102702080301604492251000600007000080000
5116,EPPO,52.421,16.8263,2024-05-28 12:30:00,95.0,36.0,2,red,17.0,1014.0,1716.8532616805944,15.0,5.0,,10000.0,99999,,0.0,0,11160036051017020150301404716851000600007950080000
5117,EPRZ,50.11,22.019,2024-05-28 12:30:00,,,,,22.0,1017.0,2282.91616412672,9.0,11.0,80.0,10000.0,99999,,0.0,0,1116000811102202090301704282951000600007000080000
5118,EPSC,53.5847,14.9022,2024-05-28 12:30:00,,,,,19.0,1016.0,1313.3784442191493,14.0,11.0,290.0,10000.0,99999,,0.0,0,11160029111019020140301604313351000600007000080000
5119,EPWA,52.1657,20.9671,2024-05-28 12:30:00,,,,,26.0,1016.0,1544.9502793402512,7.0,9.0,130.0,10000.0,99999,,0.0,0,1116001309102602070301604544951000600007000080000
5122,LBBG,42.5696,27.5152,2024-05-28 12:30:00,95.0,36.0,2,red,20.0,1014.0,1259.032328482934,12.0,10.0,120.0,10000.0,99999,,0.0,0,11160012101020020120301404259051000600007950080000
5123,LBPD,42.0678,24.8508,2024-05-28 12:30:00,,,,,22.0,1014.0,2113.5272092069304,10.0,4.0,,10000.0,99999,,0.0,0,11160036041022020100301404113551000600007000080000
5124,LBSF,42.69669,23.41144,2024-05-28 12:30:00,,,,,21.0,1014.0,4917.311958049098,6.0,5.0,,10000.0,99999,,0.0,0,1116003605102102060301404917351000600007000080000
5125,LBWN,43.2321,27.8251,2024-05-28 12:30:00,95.0,36.0,2,red,18.0,1013.0,1493.8380204649402,13.0,9.0,140.0,10000.0,99999,,0.0,0,11160014091018020130301304493851000600007950080000
5126,LHBP,47.4369,19.2556,2024-05-28 12:30:00,,,,,26.0,1014.0,1756.1197551847285,7.0,3.0,,10000.0,99999,,0.0,0,1116003603102602070301404756151000600007000080000
5127,LRAR,46.1766,21.262,2024-05-28 12:30:00,,,,,24.0,1014.0,1572.4374642661453,9.0,1.0,,10000.0,99999,,0.0,0,1116003601102402090301404572451000600007000080000
5128,LRBS,44.5032,26.1021,2024-05-28 12:30:00,,,,,21.0,1014.0,1550.9098483110854,9.0,3.0,,10000.0,99999,,0.0,0,1116003603102102090301404550951000600007000080000
5129,LRCK,44.3622,28.4883,2024-05-28 12:30:00,,,,,21.0,1013.0,1659.95412425459,12.0,10.0,110.0,10000.0,99999,,0.0,0,11160011101021020120301304659951000600007000080000
5130,LROP,44.5722,26.1022,2024-05-28 12:30:00,,,,,19.0,1014.0,1649.7111298794175,7.0,1.0,,10000.0,99999,,0.0,0,1116003601101902070301404649751000600007000080000
5131,LRTC,45.0625,28.7143,2024-05-28 12:30:00,,,,,22.0,1013.0,1347.6157159625498,11.0,8.0,120.0,10000.0,99999,,0.0,0,11160012081022020110301304347651000600007000080000
5133,LRTR,45.8099,21.3379,2024-05-28 12:30:00,,,,,24.0,1013.0,1564.0322882147568,8.0,7.0,10.0,10000.0,99999,,0.0,0,1116000107102402080301304564051000600007000080000
5134,LUKK,46.9277,28.931,2024-05-28 12:30:00,,,,,26.0,1014.0,1600.5204287974993,14.0,7.0,120.0,10000.0,99999,,0.0,0,11160012071026020140301404600551000600007000080000
5135,LDDU,42.5614,18.2682,2024-05-28 12:30:00,,,,,22.0,1014.0,1970.624310923364,15.0,7.0,200.0,10000.0,99999,,0.0,0,11160020071022020150301404970651000600007000080000
5136,LDOS,45.4627,18.8102,2024-05-28 12:30:00,,,,,26.0,1013.0,1428.736996994921,12.0,5.0,60.0,10000.0,99999,,0.0,0,11160006051026020120301304428751000600007000080000
5137,LDPL,44.8935,13.9222,2024-05-28 12:30:00,,,,,24.0,1014.0,1440.6207169579704,14.0,8.0,270.0,10000.0,99999,,0.0,0,11160027081024020140301404440651000600007000080000
5139,LDSP,43.5389,16.298,2024-05-28 12:30:00,,,,,25.0,1013.0,1124.8748572172653,15.0,7.0,230.0,10000.0,99999,,0.0,0,11160023071025020150301304124851000600007000080000
5140,LDZA,45.7429,16.0688,2024-05-28 12:30:00,17.0,36.0,2,red,21.0,1013.0,1659.95412425459,16.0,2.0,,10000.0,99999,,0.0,0,11160036021021020160301304659951000600007170080000
5141,LDZD,44.1083,15.3467,2024-05-28 12:30:00,,,,,25.0,1013.0,1444.9181378931319,13.0,12.0,280.0,10000.0,99999,,0.0,0,11160028121025020130301304444951000600007000080000
5142,LJLJ,46.2237,14.4576,2024-05-28 12:30:00,80.0,36.0,q,green,18.0,1015.0,4280.878970977838,13.0,3.0,350.0,10000.0,99999,,0.0,0,11160035031018020130301504280851000600007800080000
5143,LJMB,46.4799,15.6861,2024-05-28 12:30:00,95.0,36.0,2,red,15.0,1016.0,3646.1712816793115,13.0,18.0,340.0,1500.0,99999,,0.0,0,11100034181015020130301604646151000600007950080000
5144,LJPZ,45.4734,13.615,2024-05-28 12:30:00,,,,,23.0,1014.0,1024.5688884747487,17.0,8.0,310.0,10000.0,99999,,0.0,0,11160031081023020170301404024551000600007000080000
5145,LKMT,49.6963,18.1111,2024-05-28 12:30:00,,,,,26.0,1014.0,2359.09189935757,10.0,8.0,240.0,10000.0,99999,,0.0,0,11160024081026020100301404359051000600007000080000
5146,LKPR,50.1008,14.26,2024-05-28 12:30:00,61.0,36.0,^,green,15.0,1018.0,4946.251794506131,12.0,8.0,280.0,10000.0,99999,,0.0,0,11160028081015020120301804946251000600007610080000
5147,LKTB,49.1513,16.6944,2024-05-28 12:30:00,,,,,22.0,1015.0,2498.429479363008,14.0,12.0,250.0,10000.0,99999,,0.0,0,11160025121022020140301504498451000600007000080000
5148,LQSA,43.8246,18.3315,2024-05-28 12:30:00,,,,,23.0,1014.0,4461.52604103512,9.0,6.0,30.0,10000.0,99999,,0.0,0,1116000306102302090301404461551000600007000080000
5149,LYBE,44.8184,20.3091,2024-05-28 12:30:00,,,,,25.0,1013.0,1519.0637257698022,9.0,9.0,60.0,10000.0,99999,,0.0,0,1116000609102502090301304519051000600007000080000
5150,LYNI,43.3373,21.8537,2024-05-28 12:30:00,,,,,23.0,1013.0,2158.6361730902427,9.0,14.0,50.0,10000.0,99999,,0.0,0,1116000514102302090301304158651000600007000080000
5151,LYPG,42.3594,19.2519,2024-05-28 12:30:00,,,,,25.0,1013.0,1216.0551086537196,15.0,3.0,180.0,10000.0,99999,,0.0,0,11160018031025020150301304216051000600007000080000
5152,LYTV,42.4047,18.7233,2024-05-28 12:30:00,16.0,36.0,1,,23.0,1014.0,1044.3209437514342,18.0,2.0,,10000.0,99999,,0.0,0,11160036021023020180301404044351000600007160080000
5153,LZIB,48.1702,17.2127,2024-05-28 12:30:00,,,,,23.0,1015.0,1754.3418830236346,14.0,11.0,260.0,10000.0,99999,,0.0,0,11160026111023020140301504754351000600007000080000
5154,LZKZ,48.6631,21.2411,2024-05-28 12:30:00,,,,,23.0,1015.0,2378.516974276027,9.0,11.0,40.0,10000.0,99999,,0.0,0,1116000411102302090301504378551000600007000080000
5155,LZTT,49.0736,20.2411,2024-05-28 12:30:00,,,,,21.0,1016.0,6459.9282968532525,6.0,8.0,120.0,10000.0,99999,,0.0,0,1116001208102102060301604459951000600007000080000
5160,LFAC,50.9621,1.95476,2024-05-28 12:30:00,,,,,15.0,1014.0,1041.8812524264595,15.0,14.0,230.0,7000.0,99999,,0.0,0,11140023141015020150301404041851000600007000080000
5161,LFAT,50.5174,1.62059,2024-05-28 12:30:00,,,,,15.0,1015.0,1099.6860945852773,14.0,11.0,250.0,10000.0,99999,,0.0,0,11160025111015020140301504099651000600007000080000
5162,LFBD,44.8283,-0.71556,2024-05-28 12:30:00,,,,,20.0,1022.0,1320.9304284593827,11.0,4.0,,10000.0,99999,,0.0,0,11160036041020020110302204320951000600007000080000
5163,LFBH,46.1792,-1.19528,2024-05-28 12:30:00,,,,,18.0,1022.0,1169.8022413645535,12.0,12.0,220.0,10000.0,99999,,0.0,0,11160022121018020120302204169851000600007000080000
5164,LFBI,46.5877,0.30667,2024-05-28 12:30:00,,,,,17.0,1021.0,2025.8689157216932,13.0,12.0,210.0,10000.0,99999,,0.0,0,11160021121017020130302104025851000600007000080000
5165,LFBO,43.6291,1.36382,2024-05-28 12:30:00,,,,,21.0,1022.0,1977.5509864423116,12.0,5.0,,10000.0,99999,,0.0,0,11160036051021020120302204977551000600007000080000
5166,LFBP,43.38,-0.41861,2024-05-28 12:30:00,,,,,20.0,1022.0,2299.6634973630703,13.0,4.0,340.0,10000.0,99999,,0.0,0,11160034041020020130302204299651000600007000080000
5167,LFBT,43.1787,-0.00644,2024-05-28 12:30:00,,,,,20.0,1022.0,3906.2516369952127,12.0,7.0,10.0,10000.0,99999,,0.0,0,11160001071020020120302204906251000600007000080000
5168,LFBZ,43.4684,-1.52332,2024-05-28 12:30:00,,,,,19.0,1022.0,1511.881953362137,12.0,6.0,350.0,10000.0,99999,,0.0,0,11160035061019020120302204511851000600007000080000
5169,LFGJ,47.039,5.42725,2024-05-28 12:30:00,,,,,20.0,1020.0,2363.095561220686,7.0,3.0,,10000.0,99999,,0.0,0,1116003603102002070302004363051000600007000080000
5170,LFKB,42.5527,9.48373,2024-05-28 12:30:00,,,,,24.0,1015.0,1052.870385106454,14.0,7.0,100.0,10000.0,99999,,0.0,0,11160010071024020140301504052851000600007000080000
5171,LFKC,42.5308,8.79319,2024-05-28 12:30:00,,,,,21.0,1014.0,1382.6361517216076,12.0,10.0,220.0,10000.0,99999,,0.0,0,11160022101021020120301404382651000600007000080000
5172,LFKJ,41.9236,8.80292,2024-05-28 12:30:00,,,,,24.0,1015.0,1041.154992124099,17.0,12.0,220.0,10000.0,99999,,0.0,0,11160022121024020170301504041151000600007000080000
5173,LFLB,45.6381,5.88023,2024-05-28 12:30:00,,,,,21.0,1019.0,2591.2865886659174,9.0,10.0,350.0,10000.0,99999,,0.0,0,1116003510102102090301904591251000600007000080000
5174,LFLC,45.7867,3.16917,2024-05-28 12:30:00,,,,,20.0,1021.0,3463.7415678384655,11.0,4.0,40.0,10000.0,99999,,0.0,0,11160004041020020110302104463751000600007000080000
5175,LFLL,45.7264,5.09083,2024-05-28 12:30:00,,,,,20.0,1020.0,2786.023496836627,9.0,8.0,340.0,10000.0,99999,,0.0,0,1116003408102002090302004786051000600007000080000
5176,LFLS,45.3629,5.32937,2024-05-28 12:30:00,,,,,20.0,1020.0,4007.8958175314865,10.0,9.0,360.0,10000.0,99999,,0.0,0,11160036091020020100302004007851000600007000080000
5177,LFLY,45.7272,4.94427,2024-05-28 12:30:00,,,,,21.0,1020.0,2322.3156158109864,10.0,8.0,320.0,10000.0,99999,,0.0,0,11160032081021020100302004322351000600007000080000
5178,LFMD,43.542,6.95348,2024-05-28 12:30:00,,,,,22.0,1015.0,1035.583221469671,17.0,7.0,170.0,10000.0,99999,,0.0,0,11160017071022020170301504035551000600007000080000
5179,LFMH,45.5406,4.29639,2024-05-28 12:30:00,,,,,19.0,1021.0,4254.458153093499,8.0,5.0,340.0,10000.0,99999,,0.0,0,1116003405101902080302104254451000600007000080000
5180,LFML,43.43927,5.22142,2024-05-28 12:30:00,,,,,24.0,1016.0,1125.425734641569,10.0,23.0,320.0,10000.0,99999,,0.0,0,11160032231024020100301604125451000600007000080000
5181,LFMN,43.6584,7.21587,2024-05-28 12:30:00,,,,,22.0,1015.0,1033.993628056726,16.0,7.0,130.0,10000.0,99999,,0.0,0,11160013071022020160301504033951000600007000080000
5182,LFMP,42.7404,2.87067,2024-05-28 12:30:00,,,,,26.0,1018.0,1218.2489879398222,9.0,7.0,270.0,10000.0,99999,,0.0,0,1116002707102602090301804218251000600007000080000
5183,LFMT,43.5762,3.96301,2024-05-28 12:30:00,,,,,24.0,1017.0,1041.7431471099676,14.0,7.0,180.0,10000.0,99999,,0.0,0,11160018071024020140301704041751000600007000080000
5184,LFOB,49.4544,2.11278,2024-05-28 12:30:00,,,,,15.0,1017.0,1975.5093947535904,14.0,10.0,220.0,10000.0,99999,,0.0,0,11160022101015020140301704975551000600007000080000
5185,LFOH,49.5339,0.08806,2024-05-28 12:30:00,,,,,15.0,1017.0,1840.3819369846112,14.0,12.0,230.0,10000.0,99999,,0.0,0,11160023121015020140301704840351000600007000080000
5186,LFOT,47.4322,0.72761,2024-05-28 12:30:00,,,,,18.0,1020.0,1800.8475620855468,12.0,12.0,230.0,10000.0,99999,,0.0,0,11160023121018020120302004800851000600007000080000
5189,LFPN,48.7519,2.10619,2024-05-28 12:30:00,,,,,15.0,1019.0,2532.3203036165405,14.0,10.0,220.0,5000.0,99999,,0.0,0,11130022101015020140301904532351000600007000080000
5190,LFPO,48.7253,2.35944,2024-05-28 12:30:00,61.0,36.0,^,green,15.0,1019.0,1780.3541225606225,14.0,10.0,220.0,10000.0,99999,,0.0,0,11160022101015020140301904780351000600007610080000
5194,LFRD,48.5877,-2.07996,2024-05-28 12:30:00,,,,,18.0,1017.0,1475.0150850715145,14.0,15.0,220.0,10000.0,99999,,0.0,0,11160022151018020140301704475051000600007000080000
5195,LFRG,49.3653,0.15431,2024-05-28 12:30:00,,,,,15.0,1017.0,2341.307173490545,14.0,6.0,230.0,9000.0,99999,,0.0,0,11150023061015020140301704341351000600007000080000
5196,LFRK,49.1733,-0.45,2024-05-28 12:30:00,,,,,16.0,1017.0,1632.5248523080434,15.0,8.0,240.0,10000.0,99999,,0.0,0,11160024081016020150301704632551000600007000080000
5199,LFRQ,47.975,-4.16779,2024-05-28 12:30:00,,,,,16.0,1018.0,1742.633087385714,13.0,12.0,230.0,10000.0,99999,,0.0,0,11160023121016020130301804742651000600007000080000
5200,LFRS,47.1532,-1.61073,2024-05-28 12:30:00,,,,,19.0,1020.0,1190.6861333710633,14.0,10.0,240.0,10000.0,99999,,0.0,0,11160024101019020140302004190651000600007000080000
5201,LFRT,48.5378,-2.85444,2024-05-28 12:30:00,,,,,17.0,1017.0,2097.5434053066992,12.0,14.0,220.0,10000.0,99999,,0.0,0,11160022141017020120301704097551000600007000080000
5202,LFRZ,47.3122,-2.14918,2024-05-28 12:30:00,,,,,17.0,1020.0,1046.80205513459,14.0,14.0,240.0,9000.0,99999,,0.0,0,11150024141017020140302004046851000600007000080000
5203,LFSB,47.5896,7.52991,2024-05-28 12:30:00,,,,,20.0,1020.0,2943.788986975209,8.0,3.0,,10000.0,99999,,0.0,0,1116003603102002080302004943751000600007000080000
5204,LFSN,48.6921,6.23046,2024-05-28 12:30:00,,,,,20.0,1020.0,2615.7625126088565,8.0,9.0,210.0,10000.0,99999,,0.0,0,1116002109102002080302004615751000600007000080000
5205,LFST,48.5383,7.62823,2024-05-28 12:30:00,,,,,20.0,1020.0,2040.4420750941163,7.0,5.0,,10000.0,99999,,0.0,0,1116003605102002070302004040451000600007000080000
5206,LFTW,43.7574,4.41635,2024-05-28 12:30:00,,,,,24.0,1017.0,1503.6835625231672,9.0,14.0,350.0,8000.0,99999,,0.0,0,1114003514102402090301704503651000600007000080000
5207,LFBA,44.1747,0.59056,2024-05-28 12:30:00,,,,,21.0,1022.0,1384.1277467012462,12.0,6.0,290.0,10000.0,99999,,0.0,0,11160029061021020120302204384151000600007000080000
5208,LFBC,44.5333,-1.125,2024-05-28 12:30:00,,,,,20.0,1022.0,1173.089234639836,12.0,7.0,290.0,10000.0,99999,,0.0,0,11160029071020020120302204173051000600007000080000
5209,LFBL,45.8628,1.17944,2024-05-28 12:30:00,,,,,16.0,1022.0,4866.0026561237555,10.0,6.0,230.0,10000.0,99999,,0.0,0,11160023061016020100302204866051000600007000080000
5210,LFBM,43.9117,-0.5075,2024-05-28 12:30:00,,,,,22.0,1022.0,1364.9421700775304,11.0,3.0,,10000.0,99999,,0.0,0,11160036031022020110302204364951000600007000080000
5211,LFKF,41.5006,9.09778,2024-05-28 12:30:00,,,,,25.0,1015.0,1138.7201955492617,16.0,17.0,230.0,10000.0,99999,,0.0,0,11160023171025020160301504138751000600007000080000
5212,LFLV,46.1697,3.40374,2024-05-28 12:30:00,,,,,19.0,1021.0,2884.7622263381036,9.0,6.0,360.0,10000.0,99999,,0.0,0,1116003606101902090302104884751000600007000080000
5213,LFOE,49.0287,1.21986,2024-05-28 12:30:00,,,,,16.0,1018.0,2207.267963243553,14.0,11.0,220.0,10000.0,99999,,0.0,0,11160022111016020140301804207251000600007000080000
5215,LFPB,48.9694,2.44139,2024-05-28 12:30:00,51.0,36.0,T,green,15.0,1019.0,1574.674200585411,14.0,8.0,200.0,10000.0,99999,,0.0,0,11160020081015020140301904574651000600007510080000
5216,LFPG,49.0128,2.55,2024-05-28 12:30:00,,,,,14.0,1019.0,2163.4430715213502,14.0,12.0,210.0,2000.0,99999,,0.0,0,11110021121014020140301904163451000600007000080000
5217,LFPV,48.7744,2.20154,2024-05-28 12:30:00,53.0,36.0,V,green,14.0,1019.0,2815.8528875783973,13.0,9.0,230.0,8000.0,99999,,0.0,0,11140023091014020130301904815851000600007530080000
5218,LFQB,48.3221,4.0167,2024-05-28 12:30:00,,,,,19.0,1020.0,1828.668117625796,10.0,10.0,220.0,10000.0,99999,,0.0,0,11160022101019020100302004828651000600007000080000
5220,LFRH,47.7606,-3.44,2024-05-28 12:30:00,,,,,17.0,1019.0,1368.1700828965088,14.0,17.0,230.0,10000.0,99999,,0.0,0,11160023171017020140301904368151000600007000080000
5222,LFSD,47.2689,5.09,2024-05-28 12:30:00,,,,,20.0,1020.0,2555.5853303055073,10.0,6.0,220.0,10000.0,99999,,0.0,0,11160022061020020100302004555551000600007000080000
5223,LFSI,48.636,4.89942,2024-05-28 12:30:00,,,,,18.0,1020.0,2049.215682207542,8.0,10.0,240.0,10000.0,99999,,0.0,0,1116002410101802080302004049251000600007000080000
5224,LFSL,45.03967,1.4855,2024-05-28 12:30:00,,,,,19.0,1022.0,3414.6462603760697,10.0,7.0,300.0,10000.0,99999,,0.0,0,11160030071019020100302204414651000600007000080000
5225,LFSO,48.5831,5.955,2024-05-28 12:30:00,,,,,19.0,1020.0,3650.762985830416,7.0,11.0,230.0,10000.0,99999,,0.0,0,1116002311101902070302004650751000600007000080000
5226,LFSX,47.7831,6.36406,2024-05-28 12:30:00,,,,,19.0,1021.0,3136.664429583321,7.0,5.0,,10000.0,99999,,0.0,0,1116003605101902070302104136651000600007000080000
5232,LPFR,37.0144,-7.96591,2024-05-28 12:30:00,,,,,22.0,1018.0,1056.2500116533618,16.0,11.0,160.0,10000.0,99999,,0.0,0,11160016111022020160301804056251000600007000080000
5233,LPMA,32.6979,-16.7745,2024-05-28 12:30:00,,,,,22.0,1022.0,1345.3520612625477,13.0,17.0,30.0,10000.0,99999,,0.0,0,11160003171022020130302204345351000600007000080000
5237,ULAA,64.6003,40.7167,2024-05-28 12:30:00,,,,,14.0,1018.0,1176.9342910348762,4.0,8.0,90.0,10000.0,99999,,0.0,0,1116000908101402040301804176951000600007000080000
5238,UMGG,52.527,31.0167,2024-05-28 12:30:00,,,,,28.0,1021.0,1675.077848774411,8.0,6.0,160.0,10000.0,99999,,0.0,0,1116001606102802080302104675051000600007000080000
5239,UMII,55.1265,30.3496,2024-05-28 12:30:00,,,,,25.0,1021.0,2134.6841777139584,13.0,3.0,130.0,10000.0,99999,,0.0,0,11160013031025020130302104134651000600007000080000
5243,ULMM,68.7817,32.7508,2024-05-28 12:30:00,,,,,6.0,1017.0,2939.252003179144,5.0,5.0,120.0,10000.0,99999,,0.0,0,1116001205100602050301704939251000600007000080000
5248,URKK,45.0347,39.1705,2024-05-28 12:30:00,,,,,24.0,1014.0,1190.3365176422137,14.0,5.0,120.0,10000.0,99999,,0.0,0,11160012051024020140301404190351000600007000080000
5249,URMM,44.2251,43.0819,2024-05-28 12:30:00,,,,,24.0,1016.0,2915.788247547627,10.0,7.0,120.0,10000.0,99999,,0.0,0,11160012071024020100301604915751000600007000080000
5250,URMN,43.5129,43.6366,2024-05-28 12:30:00,,,,,22.0,1016.0,4060.2035169331234,10.0,1.0,70.0,10000.0,99999,,0.0,0,11160007011022020100301604060251000600007000080000
5251,URMT,45.1092,42.1128,2024-05-28 12:30:00,,,,,25.0,1016.0,3699.614895907463,7.0,9.0,110.0,10000.0,99999,,0.0,0,1116001109102502070301604699651000600007000080000
5252,URSS,43.4499,39.9566,2024-05-28 12:30:00,,,,,22.0,1011.0,1154.8120504738088,17.0,4.0,280.0,10000.0,99999,,0.0,0,11160028041022020170301104154851000600007000080000
5253,URWA,46.2833,48.0063,2024-05-28 12:30:00,,,,,27.0,1020.0,937.5929755527352,7.0,6.0,110.0,10000.0,99999,,0.0,0,1116001106102702070302004937551000600007000080000
5254,URWI,46.3739,44.3309,2024-05-28 12:30:00,,,,,28.0,1018.0,1714.0481982157517,3.0,8.0,130.0,10000.0,99999,,0.0,0,1116001308102802030301804714051000600007000080000
5255,URWW,48.7825,44.3455,2024-05-28 12:30:00,,,,,24.0,1023.0,1817.0207785986581,-4.0,6.0,110.0,10000.0,99999,,0.0,0,1116001106102402140302304817051000600007000080000
5256,UUEE,55.9726,37.4146,2024-05-28 12:30:00,,,,,25.0,1022.0,2027.7470746724725,5.0,3.0,210.0,10000.0,99999,,0.0,0,1116002103102502050302204027751000600007000080000
5257,UUOO,51.8142,39.2296,2024-05-28 12:30:00,,,,,26.0,1023.0,1803.3587820900484,7.0,3.0,50.0,10000.0,99999,,0.0,0,1116000503102602070302304803351000600007000080000
5258,UUWW,55.5915,37.2615,2024-05-28 12:30:00,,,,,25.0,1023.0,2144.3670267623083,5.0,3.0,230.0,10000.0,99999,,0.0,0,1116002303102502050302304144351000600007000080000
5261,UWKD,55.6062,49.2787,2024-05-28 12:30:00,,,,,24.0,1021.0,1686.4250736390381,1.0,7.0,290.0,10000.0,99999,,0.0,0,1116002907102402010302104686451000600007000080000
5262,UWKE,55.5647,52.0925,2024-05-28 12:30:00,,,,,21.0,1021.0,2288.9657967454345,3.0,8.0,270.0,10000.0,99999,,0.0,0,1116002708102102030302104288951000600007000080000
5263,UWWW,53.5049,50.1643,2024-05-28 12:30:00,,,,,22.0,1024.0,1888.913402466446,1.0,5.0,240.0,10000.0,99999,,0.0,0,1116002405102202010302404888951000600007000080000
5264,LEAL,38.2822,-0.55816,2024-05-28 12:30:00,,,,,24.0,1020.0,1234.8797075985417,15.0,15.0,80.0,10000.0,99999,,0.0,0,11160008151024020150302004234851000600007000080000
5266,LEAS,43.5636,-6.03462,2024-05-28 12:30:00,,,,,17.0,1022.0,2009.3217564301306,12.0,4.0,,10000.0,99999,,0.0,0,11160036041017020120302204009351000600007000080000
5268,LEBL,41.2971,2.07846,2024-05-28 12:30:00,,,,,21.0,1020.0,1039.9998782382831,14.0,13.0,190.0,10000.0,99999,,0.0,0,11160019131021020140302004039951000600007000080000
5269,LECO,43.3021,-8.37726,2024-05-28 12:30:00,,,,,17.0,1022.0,1775.9322312708396,11.0,7.0,10.0,10000.0,99999,,0.0,0,11160001071017020110302204775951000600007000080000
5270,LEDA,41.72819,0.53502,2024-05-28 12:30:00,,,,,24.0,1020.0,3168.651651249519,8.0,5.0,200.0,10000.0,99999,,0.0,0,1116002005102402080302004168651000600007000080000
5271,LEGE,41.901,2.76055,2024-05-28 12:30:00,,,,,23.0,1019.0,1821.4015857462828,14.0,10.0,200.0,10000.0,99999,,0.0,0,11160020101023020140301904821451000600007000080000
5272,LEGR,37.1887,-3.77736,2024-05-28 12:30:00,,,,,32.0,1018.0,3639.2074277831334,9.0,5.0,350.0,10000.0,99999,,0.0,0,1116003505103202090301804639251000600007000080000
5273,LEIB,38.8729,1.37312,2024-05-28 12:30:00,,,,,23.0,1020.0,1056.6463415349613,13.0,7.0,100.0,10000.0,99999,,0.0,0,11160010071023020130302004056651000600007000080000
5274,LEJR,36.7446,-6.06011,2024-05-28 12:30:00,,,,,31.0,1016.0,1122.4067403018298,16.0,4.0,,10000.0,99999,,0.0,0,11160036041031020160301604122451000600007000080000
5275,LELC,37.775,-0.81239,2024-05-28 12:30:00,,,,,24.0,1020.0,1036.0283908408167,18.0,9.0,70.0,10000.0,99999,,0.0,0,11160007091024020180302004036051000600007000080000
5276,LELL,41.5209,2.10508,2024-05-28 12:30:00,,,,,24.0,1019.0,1815.3411912780102,13.0,8.0,150.0,10000.0,99999,,0.0,0,11160015081024020130301904815351000600007000080000
5277,LEMD,40.4936,-3.56676,2024-05-28 12:30:00,,,,,28.0,1019.0,4336.659771869587,12.0,5.0,170.0,10000.0,99999,,0.0,0,11160017051028020120301904336651000600007000080000
5281,LEPP,42.77,-1.64633,2024-05-28 12:30:00,,,,,24.0,1020.0,3881.2919911674608,8.0,4.0,310.0,10000.0,99999,,0.0,0,1116003104102402080302004881251000600007000080000
5282,LERS,41.1474,1.16717,2024-05-28 12:30:00,,,,,24.0,1019.0,1379.8303318134747,16.0,11.0,200.0,10000.0,99999,,0.0,0,11160020111024020160301904379851000600007000080000
5283,LESO,43.3565,-1.79061,2024-05-28 12:30:00,,,,,19.0,1022.0,1051.5892361554224,11.0,7.0,10.0,10000.0,99999,,0.0,0,11160001071019020110302204051551000600007000080000
5284,LEST,42.8963,-8.41514,2024-05-28 12:30:00,,,,,23.0,1022.0,3377.1608908298335,11.0,5.0,,10000.0,99999,,0.0,0,11160036051023020110302204377151000600007000080000
5287,LEVD,41.7061,-4.85194,2024-05-28 12:30:00,,,,,24.0,1021.0,6672.773671681926,8.0,4.0,110.0,10000.0,99999,,0.0,0,1116001104102402080302104672751000600007000080000
5289,LEVX,42.2318,-8.62677,2024-05-28 12:30:00,,,,,22.0,1021.0,2684.2050233307027,13.0,8.0,250.0,10000.0,99999,,0.0,0,11160025081022020130302104684251000600007000080000
5291,LEZG,41.6662,-1.04155,2024-05-28 12:30:00,,,,,26.0,1019.0,2405.1683580423432,7.0,5.0,290.0,10000.0,99999,,0.0,0,1116002905102602070301904405151000600007000080000
5292,LEZL,37.418,-5.89311,2024-05-28 12:30:00,,,,,30.0,1016.0,1149.0887303472557,12.0,4.0,240.0,10000.0,99999,,0.0,0,11160024041030020120301604149051000600007000080000
5299,LELN,42.589,-5.65556,2024-05-28 12:30:00,,,,,22.0,1022.0,7755.859092178993,6.0,3.0,150.0,10000.0,99999,,0.0,0,1116001503102202060302204755851000600007000080000
5301,LESA,40.9521,-5.50199,2024-05-28 12:30:00,,,,,25.0,1021.0,6052.221709794715,8.0,5.0,90.0,10000.0,99999,,0.0,0,1116000905102502080302104052251000600007000080000
5303,LFMV,43.9073,4.90183,2024-05-28 12:30:00,,,,,23.0,1017.0,1211.5468054144817,10.0,20.0,340.0,10000.0,99999,,0.0,0,11160034201023020100301704211551000600007000080000
5304,LFOA,47.0533,2.6325,2024-05-28 12:30:00,,,,,18.0,1021.0,2364.1045961426953,11.0,9.0,230.0,10000.0,99999,,0.0,0,11160023091018020110302104364151000600007000080000
5305,LFOJ,47.9878,1.76056,2024-05-28 12:30:00,,,,,16.0,1019.0,2061.0032469249904,13.0,9.0,200.0,7000.0,99999,,0.0,0,11140020091016020130301904061051000600007000080000
5306,LFOK,48.7761,4.18449,2024-05-28 12:30:00,,,,,17.0,1019.0,2468.529034213945,11.0,13.0,200.0,10000.0,99999,,0.0,0,11160020131017020110301904468551000600007000080000
5307,ULOO,57.7839,28.3956,2024-05-28 12:30:00,,,,,28.0,1020.0,1219.1982570311714,12.0,3.0,70.0,10000.0,99999,,0.0,0,11160007031028020120302004219151000600007000080000
5308,UMKK,54.89,20.5926,2024-05-28 12:30:00,,,,,27.0,1016.0,1070.6159336099508,9.0,4.0,160.0,10000.0,99999,,0.0,0,1116001604102702090301604070651000600007000080000
5309,URML,42.8168,47.6523,2024-05-28 12:30:00,,,,,21.0,1017.0,1036.941055066994,12.0,3.0,130.0,10000.0,99999,,0.0,0,11160013031021020120301704036951000600007000080000
5310,UWLL,54.2683,48.2267,2024-05-28 12:30:00,,,,,24.0,1023.0,1782.6526418766477,3.0,7.0,270.0,10000.0,99999,,0.0,0,1116002707102402030302304782651000600007000080000
5311,LEAM,36.8439,-2.3701,2024-05-28 12:30:00,,,,,30.0,1017.0,1099.4573115673982,14.0,19.0,80.0,10000.0,99999,,0.0,0,11160008191030020140301704099451000600007000080000
5312,LEBB,43.3011,-2.91061,2024-05-28 12:30:00,,,,,23.0,1021.0,1239.2393773006534,13.0,2.0,,10000.0,99999,,0.0,0,11160036021023020130302104239251000600007000080000
5313,LEMG,36.6749,-4.49911,2024-05-28 12:30:00,,,,,23.0,1020.0,1101.6565695226495,17.0,7.0,120.0,10000.0,99999,,0.0,0,11160012071023020170302004101651000600007000080000
5314,LEMH,39.8626,4.21865,2024-05-28 12:30:00,,,,,23.0,1019.0,1517.0488695352267,12.0,15.0,20.0,10000.0,99999,,0.0,0,11160002151023020120301904517051000600007000080000
5316,LEPA,39.5517,2.73881,2024-05-28 12:30:00,,,,,26.0,1019.0,1055.4330866384773,13.0,12.0,60.0,10000.0,99999,,0.0,0,11160006121026020130301904055451000600007000080000
5317,LEVC,39.4893,-0.48162,2024-05-28 12:30:00,,,,,24.0,1020.0,1392.7000085025434,13.0,8.0,100.0,10000.0,99999,,0.0,0,11160010081024020130302004392751000600007000080000
5318,LEVT,42.8828,-2.72447,2024-05-28 12:30:00,,,,,22.0,1021.0,4607.968938775655,9.0,5.0,50.0,10000.0,99999,,0.0,0,1116000505102202090302104607951000600007000080000
5319,LEXJ,43.4271,-3.82001,2024-05-28 12:30:00,,,,,19.0,1022.0,1051.5892361554224,11.0,8.0,30.0,10000.0,99999,,0.0,0,11160003081019020110302204051551000600007000080000
5320,LFMY,43.6064,5.10925,2024-05-28 12:30:00,,,,,23.0,1016.0,1327.7952092460866,11.0,17.0,320.0,10000.0,99999,,0.0,0,11160032171023020110301604327751000600007000080000
5321,LFRC,49.6501,-1.47028,2024-05-28 12:30:00,,,,,16.0,1016.0,2188.5711092001084,13.0,20.0,240.0,10000.0,99999,,0.0,0,11160024201016020130301604188551000600007000080000
5323,LFRJ,48.5303,-4.15164,2024-05-28 12:30:00,,,,,15.0,1017.0,1942.920623914235,13.0,20.0,230.0,10000.0,99999,,0.0,0,11160023201015020130301704942951000600007000080000
5324,LFRN,48.0695,-1.73479,2024-05-28 12:30:00,,,,,18.0,1018.0,1269.2864184654056,14.0,13.0,220.0,10000.0,99999,,0.0,0,11160022131018020140301804269251000600007000080000
5325,LFTH,43.0973,6.14603,2024-05-28 12:30:00,,,,,24.0,1015.0,1025.1375688607436,11.0,7.0,150.0,10000.0,99999,,0.0,0,11160015071024020110301504025151000600007000080000
5326,LPPR,41.2481,-8.68139,2024-05-28 12:30:00,,,,,20.0,1020.0,1448.47615628471,13.0,9.0,310.0,10000.0,99999,,0.0,0,11160031091020020130302004448451000600007000080000
5327,LPPS,33.0734,-16.35,2024-05-28 12:30:00,,,,,20.0,1023.0,1686.5424335193381,12.0,14.0,20.0,10000.0,99999,,0.0,0,11160002141020020120302304686551000600007000080000
5328,LRBM,47.6584,23.47,2024-05-28 12:30:00,,,,,25.0,1014.0,1981.5391374788776,8.0,5.0,350.0,10000.0,99999,,0.0,0,1116003505102502080301404981551000600007000080000
5329,LRSM,47.7033,22.8857,2024-05-28 12:30:00,,,,,26.0,1014.0,1610.0980345921864,9.0,5.0,150.0,10000.0,99999,,0.0,0,1116001505102602090301404610051000600007000080000
5330,LRTM,46.4677,24.4125,2024-05-28 12:30:00,95.0,36.0,2,red,21.0,1015.0,3008.8932896647484,11.0,4.0,120.0,8000.0,99999,,0.0,0,11140012041021020110301504008851000600007950080000
5331,EIKY,52.1809,-9.52378,2024-05-28 12:30:00,,,,,16.0,1008.0,1261.012646699579,9.0,15.0,260.0,10000.0,99999,,0.0,0,1116002615101602090300804261051000600007000080000
5332,EIME,53.3017,-6.45133,2024-05-28 12:30:00,,,,,17.0,1005.0,1728.931706940154,12.0,16.0,260.0,10000.0,99999,,0.0,0,11160026161017020120300504728951000600007000080000
5333,EISG,54.2802,-8.59921,2024-05-28 12:30:00,,,,,14.0,1003.0,1030.0835171519238,99999.0,11.0,240.0,10000.0,99999,,0.0,0,11160024111014020999990300304030051000600007000080000
5334,EIWF,52.1872,-7.08696,2024-05-28 12:30:00,,,,,16.0,1007.0,1276.3151777865407,14.0,16.0,230.0,10000.0,99999,,0.0,0,11160023161016020140300704276351000600007000080000
5341,ESSA,59.6519,17.9186,2024-05-28 12:20:00,,,,,26.0,1015.0,1204.6137705326848,10.0,11.0,180.0,10000.0,99999,,0.0,0,11160018111026020100301504204651000600007000080000
5342,LEGA,37.1332,-3.63569,2024-05-28 12:30:00,,,,,31.0,1019.0,4474.899006684793,11.0,8.0,220.0,10000.0,99999,,0.0,0,11160022081031020110301904474851000600007000080000
5343,EBBE,50.7586,4.76833,2024-05-28 12:25:00,61.0,36.0,^,green,16.0,1017.0,1939.5972727044016,9.0,16.0,210.0,6000.0,99999,,0.0,0,1113002116101602090301704939551000600007610080000
5344,EBBL,51.1683,5.47,2024-05-28 12:25:00,,,,,19.0,1016.0,1408.028246884679,10.0,10.0,200.0,10000.0,99999,,0.0,0,11160020101019020100301604408051000600007000080000
5356,LFRB,48.4479,-4.41854,2024-05-28 12:30:00,,,,,15.0,1017.0,1875.336833545947,13.0,18.0,220.0,10000.0,99999,,0.0,0,11160022181015020130301704875351000600007000080000
5357,LPPT,38.7813,-9.13592,2024-05-28 12:30:00,,,,,27.0,1018.0,1545.0671511530563,12.0,11.0,340.0,10000.0,99999,,0.0,0,11160034111027020120301804545051000600007000080000
5358,LXGB,36.1512,-5.34966,2024-05-28 12:20:00,,,,,22.0,1019.0,1042.859188149721,17.0,11.0,80.0,10000.0,99999,,0.0,0,11160008111022020170301904042851000600007000080000
5359,EGOM,55.05,-2.55,2024-05-28 12:20:00,61.0,36.0,^,green,12.0,1006.0,5185.064879615331,11.0,9.0,170.0,8000.0,99999,,0.0,0,11140017091012020110300604185051000600007610080000
5360,EGQK,57.6494,-3.56064,2024-05-28 12:20:00,,,,,18.0,1004.0,1046.3047084516081,6.0,9.0,170.0,10000.0,99999,,0.0,0,1116001709101802060300404046351000600007000080000
5361,EGXT,52.6126,-0.47645,2024-05-28 12:20:00,53.0,36.0,V,green,14.0,1009.0,1767.1562239324078,14.0,10.0,170.0,2300.0,99999,,0.0,0,11110017101014020140300904767151000600007530080000
5362,EGXZ,54.2055,-1.38209,2024-05-28 12:20:00,61.0,36.0,^,green,14.0,1007.0,1243.6287482107548,13.0,14.0,150.0,10000.0,99999,,0.0,0,11160015141014020130300704243651000600007610080000
5363,EICK,51.8413,-8.49111,2024-05-28 12:30:00,,,,,16.0,1008.0,2294.718887548093,9.0,12.0,260.0,10000.0,99999,,0.0,0,1116002612101602090300804294751000600007000080000
5364,EIDW,53.4213,-6.27007,2024-05-28 12:30:00,,,,,16.0,1005.0,1577.2363520491408,12.0,11.0,250.0,10000.0,99999,,0.0,0,11160025111016020120300504577251000600007000080000
5365,EIKN,53.9103,-8.81849,2024-05-28 12:30:00,,,,,13.0,1004.0,3238.4429183835155,10.0,6.0,230.0,10000.0,99999,,0.0,0,11160023061013020100300404238451000600007000080000
5366,EINN,52.702,-8.92482,2024-05-28 12:30:00,,,,,15.0,1007.0,1114.8576955781054,10.0,15.0,250.0,10000.0,99999,,0.0,0,11160025151015020100300704114851000600007000080000
5368,LQBK,44.9414,17.2975,2024-05-28 12:30:00,,,,,27.0,1013.0,1576.9885542544278,14.0,4.0,,10000.0,99999,,0.0,0,11160036041027020140301304576951000600007000080000
5369,LQTZ,44.4587,18.7248,2024-05-28 12:30:00,,,,,24.0,1013.0,2366.363568515264,13.0,5.0,100.0,10000.0,99999,,0.0,0,11160010051024020130301304366351000600007000080000
5370,UUYY,61.647,50.8451,2024-05-28 12:30:00,61.0,36.0,^,green,5.0,1018.0,4172.072605853694,5.0,3.0,50.0,10000.0,99999,,0.0,0,1116000503100502050301804172051000600007610080000
5372,ULLI,59.8003,30.2625,2024-05-28 12:30:00,,,,,21.0,1020.0,1152.9136559060728,13.0,6.0,290.0,10000.0,99999,,0.0,0,11160029061021020130302004152951000600007000080000
5373,UMMS,53.8825,28.0307,2024-05-28 12:30:00,,,,,27.0,1019.0,2018.8663318291972,10.0,4.0,200.0,10000.0,99999,,0.0,0,11160020041027020100301904018851000600007000080000
5374,URKA,45.0021,37.3473,2024-05-28 12:30:00,80.0,36.0,q,green,18.0,1014.0,1371.4273715936692,18.0,2.0,300.0,10000.0,99999,,0.0,0,11160030021018020180301404371451000600007800080000
5375,UUDD,55.4088,37.9063,2024-05-28 12:30:00,,,,,24.0,1023.0,2012.6110504924343,9.0,3.0,290.0,10000.0,99999,,0.0,0,1116002903102402090302304012651000600007000080000
5376,UWGG,56.2301,43.784,2024-05-28 12:30:00,,,,,24.0,1022.0,1421.939899084941,5.0,6.0,230.0,10000.0,99999,,0.0,0,1116002306102402050302204421951000600007000080000
5381,EBFS,50.2433,4.64583,2024-05-28 12:37:00,61.0,36.0,^,green,13.0,1018.0,4356.450576720806,11.0,10.0,200.0,7000.0,99999,,0.0,0,11140020101013020110301804356451000600007610080000
5383,LDRI,45.2169,14.5703,2024-05-28 12:30:00,,,,,25.0,1013.0,1427.3916430396557,12.0,5.0,270.0,10000.0,99999,,0.0,0,11160027051025020120301304427351000600007000080000
5384,LEAB,38.9485,-1.86352,2024-05-28 12:30:00,,,,,27.0,1020.0,5068.316578609882,11.0,8.0,130.0,10000.0,99999,,0.0,0,11160013081027020110302004068351000600007000080000
5385,LEBA,37.842,-4.84888,2024-05-28 12:30:00,,,,,31.0,1016.0,1370.757842814743,12.0,3.0,300.0,10000.0,99999,,0.0,0,11160030031031020120301604370751000600007000080000
5386,LEBZ,38.8913,-6.82133,2024-05-28 12:30:00,,,,,32.0,1017.0,1761.0057790961184,7.0,4.0,280.0,10000.0,99999,,0.0,0,1116002804103202070301704761051000600007000080000
5387,LEGT,40.2941,-3.72383,2024-05-28 12:30:00,,,,,29.0,1020.0,4265.894812438987,13.0,4.0,,10000.0,99999,,0.0,0,11160036041029020130302004265851000600007000080000
5388,LELO,42.46095,-2.32224,2024-05-28 12:30:00,,,,,25.0,1020.0,3052.809645000483,6.0,5.0,250.0,10000.0,99999,,0.0,0,1116002505102502060302004052851000600007000080000
5389,LERI,37.9511,-1.23032,2024-05-28 12:30:00,,,,,28.0,1019.0,1349.2535870814656,13.0,11.0,60.0,10000.0,99999,,0.0,0,11160006111028020130301904349251000600007000080000
5391,LETO,40.4967,-3.44587,2024-05-28 12:30:00,,,,,27.0,1019.0,4524.3433383850925,12.0,3.0,210.0,10000.0,99999,,0.0,0,11160021031027020120301904524351000600007000080000
5396,LEMO,37.1749,-5.61594,2024-05-28 12:30:00,,,,,30.0,1016.0,1367.5971151199458,10.0,3.0,300.0,10000.0,99999,,0.0,0,11160030031030020100301604367551000600007000080000
5397,LERT,36.6452,-6.34946,2024-05-28 12:30:00,,,,,24.0,1017.0,1144.7356319041237,19.0,10.0,190.0,10000.0,99999,,0.0,0,11160019101024020190301704144751000600007000080000
5400,LFRI,46.7019,-1.37863,2024-05-28 12:30:00,,,,,18.0,1021.0,1664.6785857339587,12.0,11.0,250.0,10000.0,99999,,0.0,0,11160025111018020120302104664651000600007000080000
5401,LFRM,47.9486,0.20167,2024-05-28 12:30:00,,,,,18.0,1019.0,1422.1893590861973,14.0,8.0,220.0,10000.0,99999,,0.0,0,11160022081018020140301904422151000600007000080000
5402,LFRO,48.7544,-3.47166,2024-05-28 12:30:00,,,,,17.0,1017.0,1677.0232208895868,14.0,15.0,230.0,10000.0,99999,,0.0,0,11160023151017020140301704677051000600007000080000
5404,LFOP,49.3842,1.1748,2024-05-28 12:30:00,,,,,15.0,1017.0,2444.9073309394753,15.0,13.0,230.0,10000.0,99999,,0.0,0,11160023131015020150301704444951000600007000080000
5405,LFQQ,50.5619,3.08944,2024-05-28 12:30:00,,,,,15.0,1016.0,1405.6661942711212,14.0,11.0,180.0,10000.0,99999,,0.0,0,11160018111015020140301604405651000600007000080000
5407,EGXW,53.1662,-0.52381,2024-05-28 12:38:00,,,,,14.0,1008.0,1638.8535065471885,13.0,15.0,160.0,4000.0,99999,,0.0,0,11120016151014020130300804638851000600007000080000
5409,EGVA,51.6822,-1.79003,2024-05-28 12:40:00,51.0,36.0,T,green,16.0,29.8,1733.1474674688893,14.0,10.0,230.0,10000.0,99999,,0.0,0,1116002310101602014032984733151000600007510080000
5410,ETAD,49.9727,6.6925,2024-05-28 12:40:00,,,,,17.0,30.07,4327.9909493312525,8.0,10.0,200.0,10000.0,99999,,0.0,0,111600201010170208033004327951000600007000080000
5412,LKPD,50.0134,15.7386,2024-05-28 12:40:00,,,,,16.0,1017.0,3037.4803865779404,13.0,19.0,270.0,10000.0,99999,,0.0,0,11160027191016020130301704037451000600007000080000
5413,LTCF,40.5622,43.115,2024-05-28 12:38:00,95.0,36.0,2,red,19.0,1020.0,15.03439862728484,10.0,5.0,270.0,10000.0,99999,,0.0,0,1116002705101902010030200415051000600007950080000
5414,EGUL,52.4093,0.561,2024-05-28 12:39:00,,,,,15.0,29.83,1106.0631794140252,14.0,8.0,140.0,5000.0,99999,,0.0,0,1113001408101502014032984106051000600007000080000
5417,EGOV,53.2481,-4.53534,2024-05-28 12:40:00,10.0,36.0,+,yellow,15.0,1006.0,1092.307076762227,14.0,18.0,210.0,1500.0,99999,,0.0,0,11100021181015020140300604092351000600007100080000
5418,EBFN,51.0903,2.65278,2024-05-28 12:41:00,,,,,15.0,1014.0,1060.647386236675,14.0,10.0,180.0,10000.0,99999,,0.0,0,11160018101015020140301404060651000600007000080000
